PK,NOMBRE,DESCRIPCION-ENTIDAD,HORARIO,TRANSPORTE,ACCESIBILIDAD,CONTENT-URL,DIRECCION,NUM,DISTRITO,LATITUD,LONGITUD,TELEFONO,EMAIL,TIPO
5989871,Auditorio Carmen Laforet (Ciudad Lineal),Ubicado en el Centro de Mayores Carmen Laforet,"De lunes a sábado, de 9 a 21 horas.","Metro: Pinar de Chamartín (líneas 1, 4 y línea 1 metro ligero)  Bus: 29, 125, 129, 150",ACCESSIBLE,http://www.madrid.es/sites/v/index.jsp?vgnextchannel=bfa48ab43d6bb410VgnVCM100000171f5a0aRCRD&vgnextoid=fca22248514ae210VgnVCM1000000b205a0aRCRD,CALLE_JAZMIN,46,CIUDAD_LINEAL,40.47967249471556,-3.6657243894913565,913 831 456,cscsiena@madrid.es,AuditoriosSalasConcierto
2389,Auditorio al aire libre. Parque del Calero,Mantenimiento: Dependiente de la Junta Municipal de Distrito de Ciudad Lineal.,,"Metro: Quintana (línea 5), Barrio de la Concepción (línea 7).  Bus: 21, 146, 48.  Bicimad: Estación 229 (calle José del Hierro, 5).",ACCESSIBLE,http://www.madrid.es/sites/v/index.jsp?vgnextchannel=bfa48ab43d6bb410VgnVCM100000171f5a0aRCRD&vgnextoid=c6237b503a71c010VgnVCM1000000b205a0aRCRD,CALLE_JOSE DEL HIERRO,3,CIUDAD_LINEAL,40.43629956289038,-3.6504096146979457,"917654317 - Únicamente información sobre la propia instalación, la información sobre las actividades se consulta a través de las publicaciones especificas de cada una de ellas.",cultuclineal@madrid.es,AuditoriosSalasConcierto
139451,Auditorio y sala de exposiciones Paco de Lucía (Latina),,Cerrado durante todo el mes de agosto.,"Metro de Madrid. Línea 5. Estación: Aluche. Autobuses de la EMT. Líneas: 138, 139, 155, 17. Cercanías RENFE. Línea C 5. Estación: Aluche.",ACCESSIBLE,http://www.madrid.es/sites/v/index.jsp?vgnextchannel=bfa48ab43d6bb410VgnVCM100000171f5a0aRCRD&vgnextoid=6089ba61e681c010VgnVCM1000000b205a0aRCRD,AVENIDA_LAS AGUILAS,2,LATINA,40.38493929920335,-3.7641963952601154,915 120 890,,CentrosCulturales
84763,Centro Comunitario Casino de la Reina,,"De apertura   De lunes a viernes, de 8:30 a 21:30 horas Sábados, de 10 a 15 horas y de 16 a 21:30 horas Domingos cerrado.   De atención de los Trabajadores Sociales Comunitarios (no es necesaria cita previa)   Lunes a jueves, de 9 a 19 horas Viernes, de 9 a 14 horas Julio y agosto, de 9 a 15 horas.","Metro: Embajadores (líneas 3 y 5)  Bus: M1, 148, 41, 60, C03, C1  Renfe: Embajadores (C5)       Aparcamiento: Casino de la Reina (19), C/ Casino",ACCESSIBLE,http://www.madrid.es/sites/v/index.jsp?vgnextchannel=bfa48ab43d6bb410VgnVCM100000171f5a0aRCRD&vgnextoid=326f38d60b41c010VgnVCM2000000c205a0aRCRD,CALLE_CASINO,3,CENTRO,40.40681802964019,-3.704690072394306,91 539 63 10,cccreina@madrid.es,CentrosServiciosSociales
1914,Centro Cultural - Centro Socio Cultural Villa de Barajas,,"De lunes a viernes, de 9 a 14 y de 15 a 17 horas.   En el mes de agosto los dos centros permanecen cerrados.   Fuera de este horario el centro permanecerá abierto durante la celebración de las actividades que se programen.","Metro: Barajas (línea 8)  Bus: 101, 105, 115","ACCESSIBLE,TACTILE_PAVING,MAGNETIC_LOOP",http://www.madrid.es/sites/v/index.jsp?vgnextchannel=bfa48ab43d6bb410VgnVCM100000171f5a0aRCRD&vgnextoid=476c1e79ee71c010VgnVCM1000000b205a0aRCRD,CALLE_BOTICA,7,BARAJAS,40.47324881250678,-3.5784908616003723,913 291 803,ccvillabarajas@madrid.es,CentrosCulturales
117288,Centro Cultural Agustín Díaz (Moncloa - Aravaca),,"De lunes a viernes, de 9 a 14 horas. Miércoles y jueves de 15 a 17 horas.  Verano. De lunes a viernes de 9 a 14 horas. Semana de San Isidro. De lunes a viernes de 9 a 14 horas.  Fuera de este horario el centro permanecerá abierto durante la celebración de las actividades que se programen.","Bus: 41, 75.",ACCESSIBLE,http://www.madrid.es/sites/v/index.jsp?vgnextchannel=bfa48ab43d6bb410VgnVCM100000171f5a0aRCRD&vgnextoid=2d07cbf06c81c010VgnVCM1000000b205a0aRCRD,PASEO_COMANDANTE FORTEA,42,MONCLOA-ARAVACA,40.427538776051804,-3.732422725110936,915 487 772,ccadiaz@madrid.es,CentrosCulturales
118067,Centro Cultural Alfredo Kraus (Fuencarral - El Pardo),Teléfono de secretaría  91 376 70 85.,Centro: de lunes a viernes de 9 a 14 y de 16 a 21.30 h   Secretaría: de lunes a jueves de 9:30  a 14 y de 16:30 a 18. Viernes de 9:30 a 13:30 h.,"Bus: 49 , 64",ACCESSIBLE,http://www.madrid.es/sites/v/index.jsp?vgnextchannel=bfa48ab43d6bb410VgnVCM100000171f5a0aRCRD&vgnextoid=7337cbf06c81c010VgnVCM1000000b205a0aRCRD,GLORIETA_PRADERA DE VAQUERIZAS,9,FUENCARRAL-EL_PARDO,40.49082275610172,-3.7216054330053647,913 767 085,ccakraus@madrid.es,CentrosCulturales
1942,Centro Cultural Antonio Machado (San Blas - Canillejas),,"De lunes a viernes, de 10 a 13:30 y de 17 a 18:30 horas.   Julio, de lunes a viernes de 10 a 13:30 horas.   Agosto, secretaría cerrada.   Fuera de este horario el centro permanecerá abierto durante la celebración de las actividades que se programen.","Metro: Alsacia (línea 2)  Bus: 4, 70, 165, 167, 38, 48",ACCESSIBLE,http://www.madrid.es/sites/v/index.jsp?vgnextchannel=bfa48ab43d6bb410VgnVCM100000171f5a0aRCRD&vgnextoid=cce43d0b5e71c010VgnVCM1000000b205a0aRCRD,CALLE_SAN ROMAN DEL VALLE,8,SAN_BLAS-CANILLEJAS,40.420280457570335,-3.621730741880216,,ccamachado@madrid.es,CentrosCulturales
52511,Centro Cultural Auditorio Parque El Paraíso (San Blas - Canillejas),,,"Metro: Simancas (línea 7).  Bus: 109, 38.",ACCESSIBLE,http://www.madrid.es/sites/v/index.jsp?vgnextchannel=bfa48ab43d6bb410VgnVCM100000171f5a0aRCRD&vgnextoid=a395946be351c010VgnVCM2000000c205a0aRCRD,AVENIDA_ARCENTALES,4,SAN_BLAS-CANILLEJAS,40.42996840999023,-3.622184001035289,915 888 065,cultusanblas@madrid.es,AuditoriosSalasConcierto
64851,Centro Cultural Buenavista (Salamanca),,"De lunes a jueves, 9 a 14 horas y de 16 a 18 horas. Viernes, de 9 a 14 horas. Verano: de lunes a viernes, de 9 a 14 horas. Agosto: secretaría cerrada. Septiembre, de lunes a jueves, de 9 a 14 horas.  Fuera de este horario el centro permanecerá abierto durante la celebración de las actividades que se programen.","Metro: Diego de León (líneas 4 , 5 , 6)  Bus: 48, 12, 210, 56, C2, 74  Bicimad: Estación 192 (avenida de los Toreros, 3)",PARTIALLY_ACCESSIBLE,http://www.madrid.es/sites/v/index.jsp?vgnextchannel=bfa48ab43d6bb410VgnVCM100000171f5a0aRCRD&vgnextoid=068e598d1351c010VgnVCM1000000b205a0aRCRD,AVENIDA_TOREROS,5,SALAMANCA,40.43200210571468,-3.6709293330780204,917 240 800,ccbuenavista@madrid.es,CentrosCulturales
1943,Centro Cultural Buero Vallejo (San Blas - Canillejas),,"De lunes a viernes, de 9:30 a 13:30 y de 16:30 a 18 horas.   Agosto cerrado.   Fuera de este horario el centro permanecerá abierto durante la celebración de las actividades que se programen.","Metro: Torres Arias y Canillejas (línea 5)  Bus: 105, 140, 153, 165, 77",ACCESSIBLE,http://www.madrid.es/sites/v/index.jsp?vgnextchannel=bfa48ab43d6bb410VgnVCM100000171f5a0aRCRD&vgnextoid=98953d0b5e71c010VgnVCM1000000b205a0aRCRD,CALLE_BOLTAÑA,27,SAN_BLAS-CANILLEJAS,40.44477474902185,-3.6129105844633775,917 411 182,ccbvallejo@madrid.es,CentrosCulturales
118317,Centro Cultural Carril del Conde (Hortaleza),,"De lunes a viernes, de 9 a 14 horas y de 17 a 19 horas. Verano y semana de San Isidro, de 9 a 14 horas.  Fuera de este horario el centro permanecerá abierto durante la celebración de las actividades que se programen.","Metro: Arturo Soria (línea 4)  Bus: 9, 72, 73",ACCESSIBLE,http://www.madrid.es/sites/v/index.jsp?vgnextchannel=bfa48ab43d6bb410VgnVCM100000171f5a0aRCRD&vgnextoid=66a7cbf06c81c010VgnVCM1000000b205a0aRCRD,CALLE_CARRIL DEL CONDE,57,HORTALEZA,40.46088953531134,-3.6544210187969433,917 161 240,cccarrilconde@madrid.es,CentrosCulturales
1945,Centro Cultural Casa de Vacas (Retiro),,De 10 a 21 horas.,"Metro: Retiro (línea 2)  Bus: 2, 20, 28  Bicimad: Estación 102 (calle Alcalá, 95), estación 60 (Plaza Independencia, 6)",ACCESSIBLE,http://www.madrid.es/sites/v/index.jsp?vgnextchannel=bfa48ab43d6bb410VgnVCM100000171f5a0aRCRD&vgnextoid=35e53d0b5e71c010VgnVCM1000000b205a0aRCRD,PASEO_COLOMBIA,1,RETIRO,40.41906024374356,-3.6840615387926956,914 095 819,cccasadevacas@madrid.es,SalasExposiciones
1925,Centro Cultural Casa del Reloj (Arganzuela),,"De lunes a viernes, de 10 a 13 y de 17 a 19 horas.   Verano y semana de San Isidro: de lunes a viernes, de 9 a 14 horas.   Agosto cerrado.    Fuera de este horario el centro permanecerá abierto durante la celebración de las actividades que se programen.","Metro: Legazpi (líneas 3, 6)  Bus: 19, 247, 45, 47, 59, 62, 76, 8, 85, 86, 148, 186, 78, 123, 22, 79, 156, 180, T32  Bicimad: Estación 165 (Paseo Chopera, 14) / estación 177 (calle Bolivar, 3)",ACCESSIBLE,http://www.madrid.es/sites/v/index.jsp?vgnextchannel=bfa48ab43d6bb410VgnVCM100000171f5a0aRCRD&vgnextoid=8b063d0b5e71c010VgnVCM1000000b205a0aRCRD,PASEO_CHOPERA,6,ARGANZUELA,40.39466755008527,-3.700396761468562,915 886 118 / 915 886 299,crelojarganzuela@madrid.es,CentrosCulturales
4551096,Centro Cultural Ciudad Pegaso (San Blas - Canillejas),,"De lunes a jueves, de 10 a 12 horas y de 16:30 a 19 horas. Viernes, de 10 a 12 horas y de 16:30 a 18 horas.    Fuera de este horario el centro permanecerá abierto durante la celebración de las actividades que se programen.",Bus: 77,ACCESSIBLE,http://www.madrid.es/sites/v/index.jsp?vgnextchannel=bfa48ab43d6bb410VgnVCM100000171f5a0aRCRD&vgnextoid=07f63190712b1110VgnVCM1000000b205a0aRCRD,AVENIDA_SEPTIMA,11,SAN_BLAS-CANILLEJAS,40.44844757572015,-3.598099871155595,917 415 852,cccpegaso@madrid.es,CentrosCulturales
11876732,Centro Cultural Clara del Rey - Museo ABC (Centro),,"De enero a junio y de octubre a diciembre:   Lunes a jueves, de 9 a 15 y de 16 a 18 horas. Viernes, de 9 a 15 horas.   Julio y septiembre y Semana de San Isidro:   Lunes a viernes, de 9 a 14 horas. Sábados, cerrado.   Agosto cerrado.  Fuera de este horario el centro permanecerá abierto durante la celebración de las actividades que se programen.","Metro: Ventura Rodríguez (línea 3), Plaza de España (líneas 3, 10), San Bernardo (líneas 2, 4)  Bus: 002, 3, 147, 001, 1, 2, 44, 133, 138, C1, 21, C03  Bicimad: Estación 13 (calle Conde Duque, 22)",ACCESSIBLE,http://www.madrid.es/sites/v/index.jsp?vgnextchannel=bfa48ab43d6bb410VgnVCM100000171f5a0aRCRD&vgnextoid=b8afb908d1825810VgnVCM1000001d4a900aRCRD,CALLE_AMANIEL,29,CENTRO,40.42741340671151,-3.7095381101739444,915 222 823,ccclararey@madrid.es,CentrosCulturales
80143,Centro Cultural Dotacional Integrado Arganzuela,,"De lunes a viernes, de 10 a 13 y de 17 a 18:30 horas.   Verano, de lunes a viernes, de 10 a 14 horas.   Fuera de este horario el centro permanecerá abierto durante la celebración de las actividades que se programen.","Metro: Palos de la Frontera (línea 3)  Bus: 19, 247, 45, 47, 8, 86, 55, 6, E1, 59, 85  Bicimad: Estación 120 (calle Palos de la Frontera, 40)  Cercanías Renfe: Delicias (líneas C1, C7, C10, Regional)",ACCESSIBLE,http://www.madrid.es/sites/v/index.jsp?vgnextchannel=bfa48ab43d6bb410VgnVCM100000171f5a0aRCRD&vgnextoid=f9ea79262ef5d010VgnVCM1000000b205a0aRCRD,CALLE_CANARIAS,17,ARGANZUELA,40.40242416544921,-3.6954440062549017,915 063 610,cdiarganzuela@madrid.es,CentrosCulturales
5498725,Centro Cultural Eduardo Úrculo (Tetuán),,"Secretaría:   De lunes a jueves, de 9:30 a 13:30 y de 16:30 a 18 horas. Viernes, de 9:30 a 13:30 horas. Julio, solo mañanas. Agosto cerrado.   Fuera de este horario el centro permanecerá abierto durante la celebración de las actividades que se programen.","Metro: Ventilla (línea 9)  Bus: 177, 42","ACCESSIBLE,MAGNETIC_LOOP",http://www.madrid.es/sites/v/index.jsp?vgnextchannel=bfa48ab43d6bb410VgnVCM100000171f5a0aRCRD&vgnextoid=f8f9338588355210VgnVCM1000000b205a0aRCRD,PLAZA_DONOSO,5,TETUAN,40.46900764611639,-3.697595691925329,917 337 249,cceurculo@madrid.es,CentrosCulturales
11979985,Centro Cultural El Plantío (Moncloa - Aravaca),,"De lunes a viernes, de 9 a 21 horas, excepto festivos, julio, agosto y septiembre.  Sábados, de 9 a 15 horas, excepto festivos, julio, agosto y septiembre.  Fuera de este horario el centro permanecerá abierto durante la celebración de las actividades que se programen.",Bus: 163,ACCESSIBLE,http://www.madrid.es/sites/v/index.jsp?vgnextchannel=bfa48ab43d6bb410VgnVCM100000171f5a0aRCRD&vgnextoid=45ef9eebdd647810VgnVCM2000001f4a900aRCRD,CALLE_JOSE LOMBANA IGLESIAS,4,MONCLOA-ARAVACA,40.47096731070447,-3.8245164150407103,,,CentrosCulturales
1939,Centro Cultural El Pozo del tío Raimundo (Puente de Vallecas),Consulte normas de acceso a los teatros en información relacionada.,"De lunes a viernes, de 9 a 13:45 y de 17 a 18:45 horas. Julio, de lunes a viernes de 9 a 14 horas. Agosto cerrado.  Fuera de este horario el centro permanecerá abierto durante la celebración de las actividades que se programen.","Bus: 102, 24    Cercanías Renfe: El Pozo (línea C2).",ACCESSIBLE,http://www.madrid.es/sites/v/index.jsp?vgnextchannel=bfa48ab43d6bb410VgnVCM100000171f5a0aRCRD&vgnextoid=add63d0b5e71c010VgnVCM1000000b205a0aRCRD,AVENIDA_GLORIETAS,19,PUENTE_DE_VALLECAS,40.37381624358889,-3.6599325731670977,917 866 644,ccptioraimundo@madrid.es,CentrosCulturales
11848432,Centro Cultural Emilia Pardo Bazán (Salamanca),,"De lunes a viernes, de 9 a 21 horas, ininterrumpidamente. A partir de octubre, sábados y domingos, de 9 a 21 horas, ininterrrumpidamente. Festivos cerrado.","Metro: Colón (línea 4), Serrano (línea 4)   Bus:  21, 53, 14, 150, 27, 45, 5, 37, C03, 119, 51, 74, 9  Bicimad: Estación 93 (calle Goya 1)  Aparcamiento: Colón (2), Plaza de Colón",ACCESSIBLE,http://www.madrid.es/sites/v/index.jsp?vgnextchannel=bfa48ab43d6bb410VgnVCM100000171f5a0aRCRD&vgnextoid=dc8d531521b74810VgnVCM1000001d4a900aRCRD,CALLE_GOYA,1,SALAMANCA,40.42585800515975,-3.689601594290468,913 052 081,ccemiliapardobazan@madrid.es,SalasEstudioLectura
1931,Centro Cultural Federico Chueca (Hortaleza),,"De lunes a viernes, de 9 a 14 y de 17 a 19 horas. Julio y agosto, cerrado. Semana de San Isidro, de lunes a viernes de 9 a 14 horas.  Fuera de este horario el centro permanecerá abierto durante la celebración de las actividades que se programen.","Bus: 72, 73, 9",ACCESSIBLE,http://www.madrid.es/sites/v/index.jsp?vgnextchannel=bfa48ab43d6bb410VgnVCM100000171f5a0aRCRD&vgnextoid=90573d0b5e71c010VgnVCM1000000b205a0aRCRD,CALLE_BENITA AVILA,17,HORTALEZA,40.46498334634005,-3.650568266584691,913 000 389,ccfchueca@madrid.es,CentrosCulturales
4703628,Centro Cultural Fernando Lázaro Carreter (Carabanchel),,"De lunes a jueves, de 10 a 13 y de 16:30 a 18 horas. viernes, de 10 a 13 horas. Julio, de lunes a viernes, de 10 a 13 horas.  Agosto y festivos, cerrado.   Fuera de este horario el centro permanecerá abierto durante la celebración de las actividades que se programen.","Metro: Marqués de Vadillo (línea 5), Plaza Elíptica (línea 6 y 11)  Bus: 116",ACCESSIBLE,http://www.madrid.es/sites/v/index.jsp?vgnextchannel=bfa48ab43d6bb410VgnVCM100000171f5a0aRCRD&vgnextoid=340ed2d6fe9a6110VgnVCM1000000b205a0aRCRD,CALLE_VERDAD,29,CARABANCHEL,40.39164343238081,-3.717140510927299,914 690 895,cclazaro@madrid.es,CentrosCulturales
1954,Centro Cultural Fernando de los Ríos (Latina),Información general en el teléfono: 91 719 89 93. Correo electrónico: ccfrios@madrid.es  Información sobre cursos y talleres en los siguientes enlaces:   Plataforma cursos y talleres Ayuntamiento de Madrid.  Trámites cursos y talleres Ayuntamiento de Madrid. En la misma sede:   Biblioteca Pública Municipal de Aluche. Sala de Estudio Fernando de los Ríos de la Biblioteca.,"Horario de verano: durante los meses de julio, agosto y septiembre, de 9 a 21 horas. Cerrado sábados y domingos.   Horarios de apertura:  Lunes a Viernes de 9 a 21:30 horas. Sábados de 9 a 13:30 horas y de 16 a 20:30 horas  Horarios de atención al público:  Lunes a Jueves: de 8:30 a 14 horas y de 16 a 18:30 h. Viernes de 8:30 a 14:30 horas.","Autobuses de la EMT. Líneas: 25, 31 y 138.",ACCESSIBLE,http://www.madrid.es/sites/v/index.jsp?vgnextchannel=bfa48ab43d6bb410VgnVCM100000171f5a0aRCRD&vgnextoid=3d973d0b5e71c010VgnVCM1000000b205a0aRCRD,CALLE_CAMARENA,10,LATINA,40.39552931214334,-3.7562667464373223,917 198 930 / 917 198 931 / 917 198 993,ccfrios@madrid.es,CentrosCulturales
1944,Centro Cultural Francisco Fatou (Villa de Vallecas),,"Lunes a viernes, de 9 a 14 y de 16 a 20:30 horas.  Agosto, lunes a viernes, de 9 a 14 horas.  Fuera de este horario el centro permanecerá abierto durante la celebración de las actividades que se programen.","Metro: Villa de Vallecas (línea 1)  Bus: 54, 58, 103, 142, 143, 130, T31",ACCESSIBLE,http://www.madrid.es/sites/v/index.jsp?vgnextchannel=bfa48ab43d6bb410VgnVCM100000171f5a0aRCRD&vgnextoid=d9e73d0b5e71c010VgnVCM1000000b205a0aRCRD,CALLE_MANUEL VELEZ,10,VILLA_DE_VALLECAS,40.379584618162156,-3.623110349262379,913 806 620,ccfranciscofatou@madrid.es,CentrosCulturales
1921,Centro Cultural Galileo (Chamberí),,"Lunes a domingo, de 8 a 21 horas. Abierto todos los días, excepto 1 y 6 enero, 1 y 2 mayo, 15 agosto, 12 octubre y 25 diciembre.  Fuera de este horario el centro permanecerá abierto durante la celebración de las actividades que se programen.","Metro: Quevedo (línea 2)  Bus: 2, 16, 61  Bicimad: Estación 127 (calle Fernando el Católico, 19)",ACCESSIBLE,http://www.madrid.es/sites/v/index.jsp?vgnextchannel=bfa48ab43d6bb410VgnVCM100000171f5a0aRCRD&vgnextoid=30181e79ee71c010VgnVCM1000000b205a0aRCRD,CALLE_GALILEO,39,CHAMBERI,40.43371190964793,-3.7104543597957758,915 913 901,ccgalileo@madrid.es,CentrosCulturales
70243,Centro Cultural Gloria Fuertes (Barajas),,"De lunes a viernes, de 9 a 14 y de 15 a 17 horas.    Fuera de este horario el centro permanecerá abierto durante la celebración de las actividades que se programen.","Bus: 105, 112, 115, 151, 166",ACCESSIBLE,http://www.madrid.es/sites/v/index.jsp?vgnextchannel=bfa48ab43d6bb410VgnVCM100000171f5a0aRCRD&vgnextoid=2e5068540e41c010VgnVCM2000000c205a0aRCRD,AVENIDA_LOGRO&amp;Ntilde;O,179,BARAJAS,40.4606308732073,-3.59366944150524,913 120 243,ccgloriafuertes@madrid.es,CentrosCulturales
1930,Centro Cultural Hortaleza,,"De lunes a viernes, de 9 a 14 horas y de 17 a 19 horas. Julio y agosto y semana de San Isidro, de lunes a viernes, de 9 a 14 horas.  Fuera de este horario el centro permanecerá abierto durante la celebración de las actividades que se programen.","Metro: Parque de Santa María (línea 4)  Bus: 107, 9",ACCESSIBLE,http://www.madrid.es/sites/v/index.jsp?vgnextchannel=bfa48ab43d6bb410VgnVCM100000171f5a0aRCRD&vgnextoid=86381e79ee71c010VgnVCM1000000b205a0aRCRD,CALLE_SANTA VIRGILIA,15,HORTALEZA,40.476859845869534,-3.6420353342333227,913 821 493,cchortaleza@madrid.es,CentrosCulturales
1929,Centro Cultural Huerta de la Salud (Hortaleza),,"El centro permanecerá abierto durante la celebración de las actividades que se programen.  Silo de Hortaleza (Sala de exposiciones): de lunes a sábado, de 10 a 14 y de 17 a 21 horas.","Metro: San Lorenzo (línea 4)  Bus: 9, 72, 87, 107",ACCESSIBLE,http://www.madrid.es/sites/v/index.jsp?vgnextchannel=bfa48ab43d6bb410VgnVCM100000171f5a0aRCRD&vgnextoid=dc581e79ee71c010VgnVCM1000000b205a0aRCRD,CALLE_MAR DE LAS ANTILLAS,8,HORTALEZA,40.47484735634347,-3.645543866498554,913 825 309 / 914 802 781 (Silo de Hortaleza),cultuhortaleza@madrid.es,CentrosCulturales
6017747,Centro Cultural José Luis López Vázquez (San Blas - Canillejas),,"De lunes a jueves, de 9 a 14 y de 15 a 18 horas. Viernes, de 9 a 14 horas.  Fuera de este horario el centro permanecerá abierto durante la celebración de las actividades que se programen.","Bus: 167, 77",PARTIALLY_ACCESSIBLE,http://www.madrid.es/sites/v/index.jsp?vgnextchannel=bfa48ab43d6bb410VgnVCM100000171f5a0aRCRD&vgnextoid=b790e37de110f210VgnVCM1000000b205a0aRCRD,CALLE_FEBRERO,4,SAN_BLAS-CANILLEJAS,40.446826729909155,-3.5727382893523254,913 293 900,ccjllopezvazquez@madrid.es,CentrosCulturales
142944,Centro Cultural José Luis Sampedro (Latina),Información general en el teléfono: 91 526 78 20. Correo electrónico: cclucero@madrid.es  Información sobre cursos y talleres en los siguientes enlaces:   Plataforma cursos y talleres Ayuntamiento de Madrid.  Trámites cursos y talleres Ayuntamiento de Madrid. En la misma sede está ubicada la Sala de Estudio.,"Horario de verano:    Cerrado del 1 al 27 de agosto.   Julio, agosto y septiembre, de 9 a 21 horas. Cerrado sábados y domingos.   Horarios de apertura y atención al público:  Lunes a Viernes de 9 a 21:30 horas. Sábados de 9 a 13:30 horas.",Metro de Madrid. Línea 6. Estaciones: Lucero y Laguna. Autobuses de la EMT. Línea 55. Cercanías RENFE: Línea C 5. Estación: Laguna.,ACCESSIBLE,http://www.madrid.es/sites/v/index.jsp?vgnextchannel=bfa48ab43d6bb410VgnVCM100000171f5a0aRCRD&vgnextoid=bd3fba61e681c010VgnVCM1000000b205a0aRCRD,CALLE_CASTROSERNA,4,LATINA,40.40159394334669,-3.749110841406562,915 267 820 / 915 267 821,cclucero@madrid.es,CentrosCulturales
1919,Centro Cultural Juan Genovés (Moncloa - Aravaca),,De lunes a viernes de 9 a 15 y de 15:30 a 21:30 horas.   Fuera de este horario el centro permanecerá abierto durante la celebración de las actividades que se programen.,"Bus: 160, 163, 161.",ACCESSIBLE,http://www.madrid.es/sites/v/index.jsp?vgnextchannel=bfa48ab43d6bb410VgnVCM100000171f5a0aRCRD&vgnextoid=13153d0b5e71c010VgnVCM1000000b205a0aRCRD,TRAVESIA_CA&amp;Ntilde;O,5,MONCLOA-ARAVACA,40.45866721398762,-3.786129575145957,917 400 882 / 914 801 186 / 917 401 596,ccjgenoves@madrid.es,CentrosCulturales
1913,Centro Cultural Juan Gris (Moncloa - Aravaca),,"Lunes, martes y miércoles, de 10 a 13:30 horas. Lunes y martes, de 16 a 17:30 horas.  Semana San Isidro: de lunes de viernes, de 10 a 13:30 horas.  Agosto cerrado.  Fuera de este horario el centro permanecerá abierto durante la celebración de las actividades que se programen.","Metro: Francos Rodríguez (línea 7).  Bus: 126, 127, 132, 64, 128, 44.",NOT_ACCESSIBLE,http://www.madrid.es/sites/v/index.jsp?vgnextchannel=bfa48ab43d6bb410VgnVCM100000171f5a0aRCRD&vgnextoid=79a81e79ee71c010VgnVCM1000000b205a0aRCRD,CALLE_FRANCOS RODRíGUEZ,100,MONCLOA-ARAVACA,40.457862962907384,-3.71225373746578,914 507 865,ccjuangris@madrid.es,CentrosCulturales
1911,Centro Cultural Julio Cortázar (Moncloa - Aravaca),,"Lunes a viernes, de 9:30 a 13:30. Lunes a jueves de 17 a 19 horas.     Julio: Lunes a viernes de 9:30 a 13:30 y lunes a jueves de 17 a 18 horas.     Agosto: Lunes a viernes de 9:30 a 13:30.     Fuera de este horario el centro permanecerá abierto durante la celebración de las actividades que se programen.","Metro: Valdezarza (línea 7) y Antonio Machado (línea 7).    Bus: 127, 132, 126.",ACCESSIBLE,http://www.madrid.es/sites/v/index.jsp?vgnextchannel=bfa48ab43d6bb410VgnVCM100000171f5a0aRCRD&vgnextoid=cfc81e79ee71c010VgnVCM1000000b205a0aRCRD,CALLE_ANTONIO MACHADO,20,MONCLOA-ARAVACA,40.46678159096302,-3.7195669111891703,913 734 375,ccjcortazar@madrid.es,CentrosCulturales
1917,Centro Cultural La Vaguada (Fuencarral - El Pardo),,Secretaría: de lunes a jueves de 9 a 14 y de 16 a 19 horas.,"Metro: Barrio del Pilar (línea 9). Bus: 49 , 83 , 128 , 132 , 137",ACCESSIBLE,http://www.madrid.es/sites/v/index.jsp?vgnextchannel=bfa48ab43d6bb410VgnVCM100000171f5a0aRCRD&vgnextoid=09691e79ee71c010VgnVCM1000000b205a0aRCRD,AVENIDA_MONFORTE DE LEMOS,38,FUENCARRAL-EL_PARDO,40.47900813206291,-3.709138377702435,915 886 883,cclavaguada@madrid.es,CentrosCulturales
4606802,Centro Cultural Las Californias (Retiro),,De 9 a 14 horas.   Fuera de este horario el centro permanecerá abierto durante la celebración de las actividades que se programen.,"Metro: Puente de Vallecas (línea 1) , Mendez Álvaro (línea 6)  Bus: 113, 148  Cercanías RENFE: Mendez Álvaro Estación Sur (líneas C1, C5, C7, C10, Regional)",ACCESSIBLE,http://www.madrid.es/sites/v/index.jsp?vgnextchannel=bfa48ab43d6bb410VgnVCM100000171f5a0aRCRD&vgnextoid=a6c875993dc63110VgnVCM1000000b205a0aRCRD,CALLE_LUIS PEIDRO,2,RETIRO,40.397021560779024,-3.6738766514153163,915 016 942,cclascalifornias@madrid.es,CentrosCulturales
1918,Centro Cultural Lavapiés (Centro),,"De lunes a jueves, de 9 a 14 y de 16 a 18 horas. Viernes, de 9 a 14 horas.   Julio y septiembre, de 9 a 14 horas.   Agosto cerrado.   Fuera de este horario el centro permanecerá abierto durante la celebración de las actividades que se programen.","Metro: Lavapiés (línea 3).  Bus: M1  Bicimad: Estación 43 (calle Lavapiés, 34-36) / Estación 53 (calle Valencia, 1)",ACCESSIBLE,http://www.madrid.es/sites/v/index.jsp?vgnextchannel=bfa48ab43d6bb410VgnVCM100000171f5a0aRCRD&vgnextoid=5f891e79ee71c010VgnVCM1000000b205a0aRCRD,CALLE_OLIVAR,46,CENTRO,40.40967898937472,-3.7015569791252063,915 060 712,cclavapies@madrid.es,CentrosCulturales
1938,Centro Cultural Lope de Vega (Puente de Vallecas),Consulte normas de acceso a los teatros en información relacionada.,"Lunes a viernes, de 9 a 13:45 horas y de 17 a 18:45 horas. Verano, de lunes a viernes de 8:30 a 14 horas.   Fuera de este horario el centro permanecerá abierto durante la celebración de las actividades que se programen.","Bus: 102, 24.  Cercanías Renfe: Asamblea de Madrid-Entrevías (línea C2).",ACCESSIBLE,http://www.madrid.es/sites/v/index.jsp?vgnextchannel=bfa48ab43d6bb410VgnVCM100000171f5a0aRCRD&vgnextoid=4a273d0b5e71c010VgnVCM1000000b205a0aRCRD,CALLE_CONCEJO DE TEVERGA,1,PUENTE_DE_VALLECAS,40.386296991431074,-3.671858416387963,917 570 580,cclopedevega@madrid.es,CentrosCulturales
1973,Centro Cultural Los Rosales (Villaverde),,El horario del Centro Cultural Los Rosales es de 8:00 a 22:00 h de lunes a viernes y de 9:30 a 13:30 h los sábados. Secretaría: de lunes a jueves de 9:30 a 13:30 y de 17:00 a 19:00 y viernes de 9:30 a 13:30 horas. Durante el mes de julio el horario será de 9 a 14 horas.,Bus: 85,ACCESSIBLE,http://www.madrid.es/sites/v/index.jsp?vgnextchannel=bfa48ab43d6bb410VgnVCM100000171f5a0aRCRD&vgnextoid=a5b91e79ee71c010VgnVCM1000000b205a0aRCRD,AVENIDA_LOS ROSALES,133,VILLAVERDE,40.35074797433515,-3.6773064421969233,917 109 273,cclosrosales@madrid.es,CentrosCulturales
6469004,Centro Cultural Mercado de Ibiza (Retiro),,"De lunes a viernes, de 9 a 14 horas.   Fuera de este horario el centro permanecerá abierto durante la celebración de las actividades que se programen.","Metro: Ibiza (línea 9)  Bus: 2, 15, 26, 61, 63, 215, C2, 20, 152, C1  Bicimad: Estación 181 (calle Ibiza 18)",ACCESSIBLE,http://www.madrid.es/sites/v/index.jsp?vgnextchannel=bfa48ab43d6bb410VgnVCM100000171f5a0aRCRD&vgnextoid=dbeab973f50e7310VgnVCM1000000b205a0aRCRD,CALLE_IBIZA,8,RETIRO,40.41817872037522,-3.677376337125393,915 572 601,ccibiza@madrid.es,CentrosCulturales
1933,Centro Cultural Meseta de Orcasitas (Usera),,"De lunes a viernes, 9:30 a 13:30 y de 17 a 20 horas.  Fuera de este horario el centro permanecerá abierto durante la celebración de las actividades que se programen.","Bus: 78, 81, 116  Renfe: Orcasitas (C5)",PARTIALLY_ACCESSIBLE,http://www.madrid.es/sites/v/index.jsp?vgnextchannel=bfa48ab43d6bb410VgnVCM100000171f5a0aRCRD&vgnextoid=fbd91e79ee71c010VgnVCM1000000b205a0aRCRD,PLAZA_ASOCIACION,1,USERA,40.36968950845358,-3.7081679144829076,913 415 677 / 913 415 326,ccmesetaorcasitas@madrid.es,CentrosCulturales
1955,Centro Cultural Miguel Hernández (Latina),Información general en el teléfono: 91 706 63 00. Correo electrónico: ccmiguelh@madrid.es . Información sobre cursos y talleres en los siguientes enlaces:   Plataforma cursos y talleres Ayuntamiento de Madrid.  Trámites cursos y talleres Ayuntamiento de Madrid. En la misma sede esta ubicada la Sala de Estudios Miguel Hernández.,"Horario de verano:    Cerrado del 1 al 27 de agosto.   Julio, agosto y septiembre, de 9 a 21 horas. Sábados y domingos cerrado.   Horario de apertura del centro:  Lunes a Viernes de 9 a 21:30 horas. Sábados de 9 a 13:30 horas.  Horario de atención al público:  Lunes a Viernes de 9 a 14 horas y de 16 a 18 horas.","Autobuses de laEMT. Líneas: 34, 39, 117 y 139. Cercanías RENFE: Línea C 5. Estación: Las Águilas.",ACCESSIBLE,http://www.madrid.es/sites/v/index.jsp?vgnextchannel=bfa48ab43d6bb410VgnVCM100000171f5a0aRCRD&vgnextoid=420a1e79ee71c010VgnVCM1000000b205a0aRCRD,CALLE_SERRADILLA,13,LATINA,40.378853797128336,-3.7819616113032115,917 066 300 / 917 108 523,ccmiguelh@madrid.es,CentrosCulturales
1972,Centro Cultural Moncloa (Moncloa - Aravaca),,"De lunes a viernes, de 9:30 a 13:30 y de 17 a 19 horas.   Verano: De lunes a viernes de 9:30 a 14 horas.   Semana de San Isidro: De lunes a viernes de 9:30 a 14 horas.   Fuera de este horario el centro permanecerá abierto durante la celebración de las actividades que se programen.","Metro: Moncloa (líneas 3, 6).  Bus: 1, 132, 138, 44, 62, 82, C2, 160, 162, 133, 83, C1, 161, G, A, 001, 46, 16, 61.  Bicimad: Estaciones 110 (paseo Moret, 2) y 111 a y b (calle Arcipreste de Hita, 12).","PARTIALLY_ACCESSIBLE,SIGN_LANGUAGE",http://www.madrid.es/sites/v/index.jsp?vgnextchannel=bfa48ab43d6bb410VgnVCM100000171f5a0aRCRD&vgnextoid=982a1e79ee71c010VgnVCM1000000b205a0aRCRD,PLAZA_MONCLOA,1,MONCLOA-ARAVACA,40.435209393826675,-3.7188765163188293,,ccmoncloa@madrid.es,CentrosCulturales
1932,Centro Cultural Nicolás Salmerón (Chamartín),,"De lunes a viernes, de 9 a 14 y de 16 a 18 horas.  Julio, de lunes a viernes, de 9 a 15 horas. Agosto cerrado.  Fuera de este horario el centro permanecerá abierto durante la celebración de las actividades que se programen.","Metro: Concha Espina (línea 9), Prosperidad (línea 4), Cruz del Rayo (línea 9)  Bus: 16, 29, 52",ACCESSIBLE,http://www.madrid.es/sites/v/index.jsp?vgnextchannel=bfa48ab43d6bb410VgnVCM100000171f5a0aRCRD&vgnextoid=ee4a1e79ee71c010VgnVCM1000000b205a0aRCRD,CALLE_MANTUANO,51,CHAMARTIN,40.44834125150792,-3.6761992414203526,915 103 751,ccnsalmeron@madrid.es,CentrosCulturales
1934,Centro Cultural Orcasur (Usera),,"De lunes a jueves, de 10 a 14 y de 16:30 a 19:30 horas. Viernes, de 10 a 14 horas.   Julio, lunes a viernes, de 10 a 14 horas.  Agosto cerrado.  Fuera de este horario el centro permanecerá abierto durante la celebración de las actividades que se programen.","Bus: 78, 116  Renfe: Orcasitas (C5)",ACCESSIBLE,http://www.madrid.es/sites/v/index.jsp?vgnextchannel=bfa48ab43d6bb410VgnVCM100000171f5a0aRCRD&vgnextoid=8b9a1e79ee71c010VgnVCM1000000b205a0aRCRD,PLAZA_PUEBLO,2,USERA,40.366772166148415,-3.70113521931168,913 188 090,ccorcasur@madrid.es,CentrosCulturales
1952,Centro Cultural Príncipe de Asturias (Ciudad Lineal),,De lunes a viernes de 8:30 a 22 horas.     Sábados de 09:00 a 22:00 horas.     Verano y Semana de San Isidro de lunes a viernes de 8:30 a 21 horas.,"Metro: Ciudad Lineal (línea 5)  Bus: 38, 48, 70, 105, 4, 109, 113","ACCESSIBLE,TACTILE_PAVING,MAGNETIC_LOOP",http://www.madrid.es/sites/v/index.jsp?vgnextchannel=bfa48ab43d6bb410VgnVCM100000171f5a0aRCRD&vgnextoid=d1ca1e79ee71c010VgnVCM1000000b205a0aRCRD,CALLE_HERMANOS GARCIA NOBLEJAS,14,CIUDAD_LINEAL,40.43644651057092,-3.6372924261150033,917 767 810,ccprincipeasturias@madrid.es,CentrosCulturales
1920,Centro Cultural Puerta de Toledo (Centro),,"De lunes a jueves, de 9 a 14 y de 15 a 18 horas. Viernes, de 9 a 15 horas. Jullio y septiembre de 9 a 14 horas. Agosto cerrado.  Fuera de este horario el centro permanecerá abierto durante la celebración de las actividades que se programen.","Metro: Puerta de Toledo (línea 5).  Bus: 17, 41, 18, 23, 35, C03, C2, 148, SE712, 3, C1  Bicimad: Estación 45 (Glorieta Puerta de Toledo, 1)  Aparcamiento: Puerta Toledo (64), Glorieta Puerta Toledo con vuelta Capitán Salazar Martínez",ACCESSIBLE,http://www.madrid.es/sites/v/index.jsp?vgnextchannel=bfa48ab43d6bb410VgnVCM100000171f5a0aRCRD&vgnextoid=28ea1e79ee71c010VgnVCM1000000b205a0aRCRD,AVENIDA_GRAN VIA DE SAN FRANCISCO,2,CENTRO,40.40741060830642,-3.7119168856897677,913 662 728,ccptoledo@madrid.es,CentrosCulturales
114978,Centro Cultural Quinta del Berro - Rafael Altamira (Salamanca),,"Horario secretaría:  De lunes a jueves, de 9 a 14 y de 15 a 18 horas. Viernes, de 9 a 14 horas. Julio, de lunes a viernes, atención presencial de 10:30 a 14, atención telefónica de 9 a 14 horas. Agosto: secreatría cerrada.  Horario centro cultural:  De lunes a viernes, de 9 a 21:30 horas. Sábados, de 9:30 a 21:30 horas. Domingos, de 10:30 a 20:30 horas. Julio, agosto y septiembre, de lunes a domingo de 10:30 a 19:30 horas.  Fuera de este horario el centro permanecerá abierto durante la celebración de las actividades que se programen.","Bus: 15 , 28 , 71","ACCESSIBLE,TACTILE_PAVING",http://www.madrid.es/sites/v/index.jsp?vgnextchannel=bfa48ab43d6bb410VgnVCM100000171f5a0aRCRD&vgnextoid=bcc7cbf06c81c010VgnVCM1000000b205a0aRCRD,CALLE_ENRIQUE D'ALMONTE,1,SALAMANCA,40.42206601994432,-3.662968075865235,915 570 808 / 915 570 805 / 915 570 807,quintaberro@madrid.es,CentrosCulturales
4703422,Centro Cultural San Francisco La Prensa (Carabanchel),,"De lunes a viernes, de 10 a 13 y de 16:30 a 18 horas. Viernes, de 10 a 13 horas. Agosto cerrado.  Fuera de este horario el centro permanecerá abierto durante la celebración de las actividades que se programen.",Metro: San Francisco (línea 11)  Bus: 108,ACCESSIBLE,http://www.madrid.es/sites/v/index.jsp?vgnextchannel=bfa48ab43d6bb410VgnVCM100000171f5a0aRCRD&vgnextoid=5787e842ec9a6110VgnVCM1000000b205a0aRCRD,CALLE_ALISEDA,4,CARABANCHEL,40.37690319217392,-3.741639735552097,914 284 911,ccprensa@madrid.es,CentrosCulturales
1958,Centro Cultural San Juan Bautista (Ciudad Lineal),,"Lunes a sábado, de 9 a 22 horas. Julio, de lunes a viernes, de 9 a 14 horas. Septiembre, de lunes a viernes, de 9 a 22 horas.","Metro: Avenida de la Paz (línea 4)  Bus: 53, 11, 70, 122",ACCESSIBLE,http://www.madrid.es/sites/v/index.jsp?vgnextchannel=bfa48ab43d6bb410VgnVCM100000171f5a0aRCRD&vgnextoid=618b1e79ee71c010VgnVCM1000000b205a0aRCRD,CALLE_SAN NEMESIO,4,CIUDAD_LINEAL,40.45224737965276,-3.6580402287911937,914 157 705,ccsanjuanbautista@madrid.es,SalasEstudioLectura
6018014,Centro Cultural Sanchinarro (Hortaleza),,"De lunes a viernes, de 10 a 14 y de 16 a 19 horas.   Fuera de este horario el centro permanecerá abierto durante la celebración de las actividades que se programen.","Bus: 172, 172SF",ACCESSIBLE,http://www.madrid.es/sites/v/index.jsp?vgnextchannel=bfa48ab43d6bb410VgnVCM100000171f5a0aRCRD&vgnextoid=12eb70618510f210VgnVCM1000000b205a0aRCRD,CALLE_PRINCESA DE EBOLI,29,HORTALEZA,40.49035310157377,-3.655261744717257,915 000 603,info@centroculturalsanchinarro.com,CentrosCulturales
115404,Centro Cultural Sara Montiel (Latina),Información general en el teléfono: 91 512 08 90. Correo electrónico: cccampamento@madrid.es . Información sobre cursos y talleres en los siguientes enlaces:   Plataforma cursos y talleres Ayuntamiento de Madrid.  Trámites cursos y talleres Ayuntamiento de Madrid. En la misma sede está ubicada la sala de estudio Sara Montiel.,"Horario de verano:    Cerrado del 1 al 27 de agosto.   Julio, agosto y septiembre, de 9 a 21 horas de lunes a viernes. Sábados y domingos cerrado.   Horario de apertura del centro:  Lunes a Viernes de 9 a 21:30 horas. Sábados de 9 a 13:30 horas.  Horario de atención al público:  De lunes a viernes de 9 a 14 horas y de 16:30 a 19 horas.","Metro de Madrid. Líneas 10, Metro Ligero 2 y Metro Ligero 3. Estación: Colonia Jardín. Autobuses de la EMT: Línea 65 y línea H.",ACCESSIBLE,http://www.madrid.es/sites/v/index.jsp?vgnextchannel=bfa48ab43d6bb410VgnVCM100000171f5a0aRCRD&vgnextoid=c957cbf06c81c010VgnVCM1000000b205a0aRCRD,CARRETERA_BOADILLA DEL MONTE,40,LATINA,40.399764677637116,-3.775144917950534,915 120 890,ccsaramontiel@madrid.es,CentrosCulturales
1994,Centro Cultural Usera 1,,"De lunes a viernes, de 9 a 13 y de 17 a 19:30 horas.  Agosto cerrado.  Fuera de este horario el centro permanecerá abierto durante la celebración de las actividades que se programen.","Metro: Plaza Elíptica (línea 6)  Bus: 6, 60, 81",PARTIALLY_ACCESSIBLE,http://www.madrid.es/sites/v/index.jsp?vgnextchannel=bfa48ab43d6bb410VgnVCM100000171f5a0aRCRD&vgnextoid=54fb1e79ee71c010VgnVCM1000000b205a0aRCRD,AVENIDA_RAFAELA YBARRA,49,USERA,40.381095838993176,-3.710973351109332,915 887 214,ccusera@madrid.es,CentrosCulturales
7416137,Centro Cultural Usera 2,,"Atención al público en el Centro Cultural Usera 1.   De lunes a viernes, de 9 a 13 y de 17 a 19:30 horas. Julio, agosto y septiembre, cerrado.  Fuera de este horario el centro permanecerá abierto durante la celebración de las actividades que se programen.",Metro: Usera (línea 6)  Bus: 6,NOT_ACCESSIBLE,http://www.madrid.es/sites/v/index.jsp?vgnextchannel=bfa48ab43d6bb410VgnVCM100000171f5a0aRCRD&vgnextoid=3cadb2cffdc15410VgnVCM1000000b205a0aRCRD,CALLE_FELIPE CASTRO,30,USERA,40.38429664257218,-3.7090866533057723,915 887 214 / 914 764 204,ccusera@madrid.es,CentrosCulturales
123948,Centro Cultural Valdebernardo (Vicálvaro),,De lunes a viernes de 9 a 14 horas. Agosto cerrado.  Fuera de este horario el centro permanecerá abierto durante la celebración de las actividades que se programen.,"Metro: Valdebernardo (línea 9).  Bus: 130, 71, 8.",PARTIALLY_ACCESSIBLE,http://www.madrid.es/sites/v/index.jsp?vgnextchannel=bfa48ab43d6bb410VgnVCM100000171f5a0aRCRD&vgnextoid=69188899fc81c010VgnVCM1000000b205a0aRCRD,BULEVAR_INDALECIO PRIETO,21,VICALVARO,40.399832138328044,-3.6212720265227873,913 016 460 / 913 016 462,ccvaldebernardo@madrid.es,CentrosCulturales
1980,Centro Cultural Zazuar (Villa de Vallecas),,"De lunes a viernes, de 9 a 19:30 horas. Julio y agosto, de lunes a viernes, de 9 a 14 horas.  Fuera de este horario el centro permanecerá abierto durante la celebración de las actividades que se programen.","Bus: 58, 63, 145",ACCESSIBLE,http://www.madrid.es/sites/v/index.jsp?vgnextchannel=bfa48ab43d6bb410VgnVCM100000171f5a0aRCRD&vgnextoid=9d8c1e79ee71c010VgnVCM1000000b205a0aRCRD,CALLE_ZAZUAR,4,VILLA_DE_VALLECAS,40.38281899948726,-3.606140062044455,913 322 529,cczazuar@madrid.es,CentrosCulturales
1953,Centro Cultural el Madroño (Vicálvaro),,De lunes a viernes de 9 a 14 horas.  Fuera de este horario el centro permanecerá abierto durante la celebración de las actividades que se programen.,"Metro: Vicálvaro (línea 9).  Bus: 130, 100",ACCESSIBLE,http://www.madrid.es/sites/v/index.jsp?vgnextchannel=bfa48ab43d6bb410VgnVCM100000171f5a0aRCRD&vgnextoid=57b63d0b5e71c010VgnVCM1000000b205a0aRCRD,CALLE_VILLARDONDIEGO,36,VICALVARO,40.40529229274289,-3.6086152959929514,917 753 140,ccelmadrono@madrid.es,CentrosCulturales
1940,Centro Cultural el Torito (Moratalaz),,"De lunes a viernes de 9 a 13:30 y de 17 a 18:30 horas. Julio, de lunes a viernes de 9 a 13:30 horas. Agosto cerrado.  Fuera de este horario el centro permanecerá abierto durante la celebración de las actividades que se programen.",Metro: Artilleros (línea 9)  Bus: 32,ACCESSIBLE,http://www.madrid.es/sites/v/index.jsp?vgnextchannel=bfa48ab43d6bb410VgnVCM100000171f5a0aRCRD&vgnextoid=f3073d0b5e71c010VgnVCM1000000b205a0aRCRD,AVENIDA_MORATALAZ,130,MORATALAZ,40.40609591857167,-3.646536107063507,913 287 385,cceltorito@madrid.es,CentrosCulturales
1951,Centro Cultural la Elipa (Ciudad Lineal),,"De lunes a sábado, de 9 a 22 horas. Julio, de lunes a viernes, de 9 a 15 horas. Septiembre, de lunes a viernes, de 9 a 22 horas. Fuera de este horario el centro permanecerá abierto durante la celebración de las actividades que se programen.","Metro: La Elipa (línea 2).  Bus: 110, 113, 210, 15, 28",ACCESSIBLE,http://www.madrid.es/sites/v/index.jsp?vgnextchannel=bfa48ab43d6bb410VgnVCM100000171f5a0aRCRD&vgnextoid=6c191e79ee71c010VgnVCM1000000b205a0aRCRD,CALLE_SANTA FELICIDAD,39,CIUDAD_LINEAL,40.42447060804354,-3.6504253324201104,914 055 312,ccelipa@madrid.es,CentrosCulturales
112637,Centro Integrado Santiago Apóstol (Hortaleza),,"De lunes a viernes, de 9 a 14 horas y de 16 a 21 horas. Agosto cerrado  Fuera de este horario el centro permanecerá abierto durante la celebración de las actividades que se programen.","Metro: Manoteras (línea 4).  Bus: 7, 29, 129.",ACCESSIBLE,http://www.madrid.es/sites/v/index.jsp?vgnextchannel=bfa48ab43d6bb410VgnVCM100000171f5a0aRCRD&vgnextoid=38f415a11a81c010VgnVCM1000000b205a0aRCRD,CALLE_CARRION DE LOS CONDES,73,HORTALEZA,40.4760846979538,-3.6581195337045274,913 835 941,,CentrosCulturales
4703662,Centro Juvenil Carabanchel Alto,"Mira la programación mensual de cada uno de los centros juveniles, encontrarás talleres, teatro, actividades, cesiones de espacios para tu música o tus ensayos, exposiciones; además Wifi gratuito, oficinas de información juvenil y un montón de cosas interesantes. Información sobre las actividades y cesión de espacios: Correo:  actividadescarabanchel@gmail.com   Teléfono de contacto: 914006417 Teléfono: 915118980 Consulta la programación aquí  Para inscribirte en la actividad que más te guste cumplimenta y envía este formulario.","Horario de apertura del centro: de lunes a viernes de 10 a 14:30 horas y de 15:30 a 21 horas. Los sábados de 11 a 21 horas.  Horario de atención al público: lunes y sábado de 13 a 14:30 horas y de 15:30 a 21 horas. Los martes, miércoles, jueves y viernes de 10 a 14 horas y de 15:30 a 21 horas.   Cierres para 2023: 1 y 6 de enero, 20 de marzo, 6, 7 y 8 de abril, 1, 2 y 15 de mayo, TODO EL MES DE AGOSTO, 12 de octubre, 1 y 9 de noviembre, 6, 8, 24, 25 y 31 de diciembre.  El centro permanecerá cerrado todos los domingos.",Metro: La Peseta (línea 11) Bus: 35 y 47,ACCESSIBLE,http://www.madrid.es/sites/v/index.jsp?vgnextchannel=bfa48ab43d6bb410VgnVCM100000171f5a0aRCRD&vgnextoid=2565d2d6fe9a6110VgnVCM1000000b205a0aRCRD,CALLE_ALFONSO FERNANDEZ,23,CARABANCHEL,40.366822704148795,-3.755451103709316,915 118 980 Móvil/WhatsApp: 636 04 55 86,cj5carabanchel@madrid.es,OficinasInformacionJuvenil
146682,Centro Juvenil El Aleph (Villa de Vallecas),"Mira la programación mensual de cada uno de los centros juveniles, encontrarás talleres, teatro, actividades, cesiones de espacios para tu música o tus ensayos, exposiciones; además Wifi gratuito, oficinas de información juvenil y un montón de cosas interesantes.  Información sobre las actividades y cesión de espacios:   Correo:  actividadeselaleph@gmail.com    Teléfono: 913 312 725 Consulta la programación aquí  Para inscribirte en la actividad que más te guste cumplimenta y envía este formulario.",Horario de apertura del centro: de lunes a domingo de 8:30 a 21 horas. Agosto cerrado.  Horario de atención al público ( cuando están los monitores) Lunes y sábado :13:00 a 15:00 / 16:00 a 21: 00h martes a viernes :10:00  a 15:00 / 16:00 a 21:00h domingos: 12:00 a 15:00 /16:00 a 20:00h,"Bus: 58 , 63 , 145 Renfe: Santa Eugenia",ACCESSIBLE,http://www.madrid.es/sites/v/index.jsp?vgnextchannel=bfa48ab43d6bb410VgnVCM100000171f5a0aRCRD&vgnextoid=84869475d381c010VgnVCM1000000b205a0aRCRD,CALLE_ZAZUAR,1,VILLA_DE_VALLECAS,40.38257934400676,-3.6054546139177392,913 013 457 Móvil/WhatsApp: 683 51 65 65,cj7aleph@madrid.es,OficinasInformacionJuvenil
190703,Centro Juvenil El Pardo,"Mira la programación mensual de cada uno de los centros juveniles, encontrarás talleres, teatro, actividades, cesiones de espacios para tu música o tus ensayos, exposiciones; además Wifi gratuito, oficinas de información juvenil y un montón de cosas interesantes.  Información sobre las actividades y cesión de espacios   Correo:  actividadeselpardo@gmail.com    Teléfono: 913 760 652 Consulta la programación aquí  Para inscribirte en la actividad que más te guste cumplimenta y envía este formulario.",Apertura del centro los martes a sábado de 13 a 21 horas.,Autobús: desde el intercambiador de Moncloa el 601 (isla 3-dársena 30) y el 602 que sale del hospital Universitario la Paz.,ACCESSIBLE,http://www.madrid.es/sites/v/index.jsp?vgnextchannel=bfa48ab43d6bb410VgnVCM100000171f5a0aRCRD&vgnextoid=617ef50ad2a30110VgnVCM1000000b205a0aRCRD,AVENIDA_PADRE CIPRIANO,11,FUENCARRAL-EL_PARDO,40.51964199418355,-3.778542672958104,913 760 652 Móvil/WhatsApp: 653 39 89 57,cj3elpardo@madrid.es,OficinasInformacionJuvenil
182139,Centro Juvenil El Sitio de mi Recreo (Villa de Vallecas),"Mira la programación mensual de cada uno de los centros juveniles, encontrarás talleres, teatro, actividades, cesiones de espacios para tu música o tus ensayos, exposiciones; además Wifi gratuito, oficinas de información juvenil y un montón de cosas interesantes.  Información sobre las actividades y cesión de espacios:   Correo:  actividadeselrecreo@gmail.com    Teléfono: 913320198  Teléfono: 913 05 24 48  Horario de reserva cesiones de espacio y salas de ensayo: Lunes a jueves de 10:00 a 15:00 y de 16:00 a 19:00 h. Viernes de 9:00 a 15:30 h. Consulta la programación aquí  Para inscribirte en la actividad que más te guste cumplimenta y envía este formulario.",Horario de atención al público : De lunes a sábado de 10 a 15 horas y de 16 a 21 horas. Domingos de 12 a 15 horas y de 16 a 20 horas.  Horario de apertura y cierre: Lunes a domingo de 08.30- 21.30 h,"Metro: Villa de Vallecas (línea 1)   Bus: 54, 58, 103, 142, 143, N9  Renfe: Vallecas",ACCESSIBLE,http://www.madrid.es/sites/v/index.jsp?vgnextchannel=bfa48ab43d6bb410VgnVCM100000171f5a0aRCRD&vgnextoid=9bd738d60b41c010VgnVCM2000000c205a0aRCRD,CALLE_REAL DE ARGANDA,39,VILLA_DE_VALLECAS,40.37953682427198,-3.616901585603186,913 052 448 Móvil/WhatsApp: 606 00 04 09,cj6srecreo@madrid.es,OficinasInformacionJuvenil
5396226,Centro Juvenil Hontalbilla (Fuencarral - El Pardo),"Mira la programación mensual de cada uno de los centros juveniles, encontrarás talleres, teatro, actividades, cesiones de espacios para tu música o tus ensayos, exposiciones; además Wifi gratuito, oficinas de información juvenil y un montón de cosas interesantes.  Información sobre las actividades y cesión de espacios   Correo:  actividadeshontalbilla@gmail.com    Teléfono: 917 342 878 y 917 364 378 Consulta la programación aquí  Para inscribirte en la actividad que más te guste cumplimenta y envía este formulario.","Horario de apertura del centro:    Mañanas: de lunes a sábados, de: 9 a 15 horas Tardes:de lunes a sábados, de 16 a  21 horas  Agosto centro juvenil cerrado.","Metro: Fuencarral (línea 10) Bus: 66, 124 y 137, 154, N24 Renfe: Madrid-Ramón y Cajal",NOT_ACCESSIBLE,http://www.madrid.es/sites/v/index.jsp?vgnextchannel=bfa48ab43d6bb410VgnVCM100000171f5a0aRCRD&vgnextoid=afc93331c9ee2210VgnVCM2000000c205a0aRCRD,CALLE_HONTALBILLA,10,FUENCARRAL-EL_PARDO,40.49231828430878,-3.6906342081203283,917 364 378 Móvil/WhatsApp: 606 00 38 52,cj4hontalbilla@madrid.es,OficinasInformacionJuvenil
11925994,Centro Juvenil Pipo Velasco (Usera),"Mira la programación mensual de cada uno de los centros juveniles, encontrarás talleres, teatro, actividades, cesiones de espacios para tu música o tus ensayos, exposiciones; además Wifi gratuito, oficinas de información juvenil y un montón de cosas interesantes.  Información sobre las actividades y cesión de espacios:   Correo: actividadespipo@gmail.com   Teléfono: 609619978 Consulta la programación aquí  Para inscribirte en la actividad que más te guste cumplimenta y envía este formulario .",Horario de apertura: de 9 a 22h.  Horario de atención al público: Todos los días.,"Metro: Plaza Elíptica   Bus:  6, 60, 78, 81",ACCESSIBLE,http://www.madrid.es/sites/v/index.jsp?vgnextchannel=bfa48ab43d6bb410VgnVCM100000171f5a0aRCRD&vgnextoid=a0d2795e39a36810VgnVCM2000001f4a900aRCRD,CALLE_AVENA,5,USERA,40.37738097077752,-3.715659887802671,609619978,actividadespipo@gmail.com,OficinasInformacionJuvenil
4923522,Centro Juvenil Tetuán Punto Joven,"Mira la programación mensual de cada uno de los centros juveniles, encontrarás talleres, teatro, actividades, cesiones de espacios para tu música o tus ensayos, exposiciones; además Wifi gratuito, oficinas de información juvenil y un montón de cosas interesantes.  Información sobre las actividades y cesión de espacios   Correo:  tetuanpuntojoven@gmail.com    Teléfono: 915 347 744 Consulta la programación aquí  Para inscribirte en la actividad que más te guste cumplimenta y envía este formulario.","Los lunes de 13 a 21 horas. De martes a viernes de 10 a 21 horas, los sábados de 12 a 21 horas. Domingos y festivos: cerrado. Agosto: cerrado.","Metro: Cuatro Caminos (líneas 1, 2 y 6) y Nuevos Ministerios (líneas 6, 8 y 10) Bus: 5, 45, 66, 127, 128, 14 , C1, C2 Cercanías: Nuevos Ministerios",NOT_ACCESSIBLE,http://www.madrid.es/sites/v/index.jsp?vgnextchannel=bfa48ab43d6bb410VgnVCM100000171f5a0aRCRD&vgnextoid=2f9e41aee5a2a110VgnVCM1000000b205a0aRCRD,CALLE_DULCINEA,4,TETUAN,40.447199849232135,-3.6998771920981004,915 347 744 Móvil/WhatsApp: 606 00 37 79,cj1tetuan@madrid.es,OficinasInformacionJuvenil
4535757,Centro Sefarad - Israel,"Consorcio institucional creado el 18 de diciembre de 2006, mediante a un acuerdo entre el Ministerio de Asuntos Exteriores, Unión Europea y de Cooperación, la Comunidad de Madrid y el Ayuntamiento de Madrid.",,"Metro: Sol (líneas 1, 2, 3), Ópera (líneas 2, 5 y R).  Bus: 31, 50, 65, 148, 3.  Bicimad: Estaciones 9 (plaza San Miguel, 9), 36 (plaza de Ramales), 35 (plaza del Cordón, 1).  Cercanías Renfe: Sol (líneas C3, C3a, C4 y Regional).",NO_INFORMATION,http://www.madrid.es/sites/v/index.jsp?vgnextchannel=bfa48ab43d6bb410VgnVCM100000171f5a0aRCRD&vgnextoid=9d50215a57131110VgnVCM2000000c205a0aRCRD,CALLE_MAYOR,69,CENTRO,40.41532290628835,-3.711227065575005,913 911 002,centro@sefarad-israel.es,Consorcios
6396299,Centro Social Comunitario Josefa Amar,"El Centro Social Comunitario JOSEFA AMAR del distrito de Tetuán es un espacio abierto, flexible y pegado a la realidad cotidiana del Distrito. En el Centro se pueden realizar todo tipo de actividades para vecinas, vecinos y entidades sociales que mejoren la calidad de vida y la conviencia en Tetuán. Desde el centro acompañamos a asociaciones, grupos y entidades y potenciamos el Trabajo Comunitario y en Red para facilitar todo tipo de sinergias. Desde el equipo de Coordinación del Centro trabajamos de forma participativa con vecinas, vecinos y entidades para que todas las acciones repercutan de manera positiva en el Distrito, sean gratuitas y cumplan el objetivo social del Centro y del Departamento de Servicios Sociales de Tetuán.",De lunes a viernes de 9:30 a 20:30 horas. Sábados de 10 a 20 horas. Domingos de 10 a 14 y de 16 a 20 horas.,Metro: Ventilla (línea 9).  Bus: 177.,NOT_ACCESSIBLE,http://www.madrid.es/sites/v/index.jsp?vgnextchannel=bfa48ab43d6bb410VgnVCM100000171f5a0aRCRD&vgnextoid=edda0bb16aba6310VgnVCM1000000b205a0aRCRD,CALLE_MATILDE LANDA,30,TETUAN,40.4731994125293,-3.6940812660649414,917 330 258,socitetuan@madrid.es,CentrosSocialesComunitarios
4568753,Centro Social Polivalente de Vicálvaro,,Consultar,"Bus: 100, 130",ACCESSIBLE,http://www.madrid.es/sites/v/index.jsp?vgnextchannel=bfa48ab43d6bb410VgnVCM100000171f5a0aRCRD&vgnextoid=59c6ca957d152110VgnVCM1000000b205a0aRCRD,AVENIDA_REAL,12,VICALVARO,40.40249219663602,-3.6070177881676537,917 602 468 (centralita),,CentrosCulturales
56495,Centro Sociocultural  Siena (Ciudad Lineal),,"De lunes a jueves, de 9 a 15 horas. Viernes, de 9 a 14 horas.   Julio y San Isidro, de lunes a viernes, de 9 a 14 horas.   Agosto cerrado.   Fuera de este horario el centro permanecerá abierto durante la celebración de las actividades que se programen.","Metro: Quintana (línea 5)   Bus: 113, 38",NOT_ACCESSIBLE,http://www.madrid.es/sites/v/index.jsp?vgnextchannel=bfa48ab43d6bb410VgnVCM100000171f5a0aRCRD&vgnextoid=1114c2c6e051c010VgnVCM2000000c205a0aRCRD,CALLE_SIENA,52,CIUDAD_LINEAL,40.433168908505294,-3.651871341017642,914 039 011,cscsiena@madrid.es,CentrosCulturales
1936,Centro Sociocultural Alberto Sánchez (Puente de Vallecas),Consulte normas de acceso a los teatros en información relacionada.,"Atención al público: lunes a viernes, de 9 a 13:45 y de 17 a 18:45 horas. Julio, de lunes a viernes de 9 a 14 horas. Agosto cerrado.  Fuera de este horario el centro permanecerá abierto durante la celebración de las actividades que se programen.","Metro: Buenos Aires (línea 1), Portazgo (línea 1).  Bus: 143, 54.",ACCESSIBLE,http://www.madrid.es/sites/v/index.jsp?vgnextchannel=bfa48ab43d6bb410VgnVCM100000171f5a0aRCRD&vgnextoid=20a43d0b5e71c010VgnVCM1000000b205a0aRCRD,CALLE_RISCO DE PELOCHE,14,PUENTE_DE_VALLECAS,40.393619022093546,-3.6556016835101834,917 570 320,cscalbertosanchez@madrid.es,CentrosCulturales
72862,Centro Sociocultural Alfonso XII (Fuencarral - El Pardo),,"Horario del centro: de lunes a viernes, de 9 a  21:30 h.  Horario de secretaría: de lunes a viernes de 9 a 14 y de 16,30 a 20:30 h.",,ACCESSIBLE,http://www.madrid.es/sites/v/index.jsp?vgnextchannel=bfa48ab43d6bb410VgnVCM100000171f5a0aRCRD&vgnextoid=b7d168540e41c010VgnVCM2000000c205a0aRCRD,CALLE_MIRA EL RIO,4,FUENCARRAL-EL_PARDO,40.519673311658686,-3.7779055687726535,913 762 060,ccelpardo@madrid.es,CentrosCulturales
1990,Centro Sociocultural Almirante Churruca (Latina),Información general en el teléfono: 91 509 05 81. Correo electrónico: ccchurruca@madrid.es . Información sobre cursos y talleres en los siguientes enlaces:   Plataforma cursos y talleres Ayuntamiento de Madrid.  Trámites cursos y talleres Ayuntamiento de Madrid.,Horario de verano:    Desde el 1 de julio hasta el 30 de octubre el horario de apertura es de 9 a 21 horas. El centro cierra por vacaciones del 1 al 27 de agosto ambos inclusive.    Horario de apertura del centro:  Lunes a Viernes de 9 a 21:30 horas. Sábados de 9 a 13:30 horas.  Horario de atención al público:  Lunes a Viernes de 9 a 14 horas y de 16:30 a 18:30 horas.,Metro de Madrid. Línea 10. Estación: Aviación Española. Autobuses de la EMT. Líneas: 17 y 34. Cercanías RENFE. Línea C 5. Estación: Las Águilas.,ACCESSIBLE,http://www.madrid.es/sites/v/index.jsp?vgnextchannel=bfa48ab43d6bb410VgnVCM100000171f5a0aRCRD&vgnextoid=76c43d0b5e71c010VgnVCM1000000b205a0aRCRD,CALLE_FUENTE DEL TIRO,72,LATINA,40.3829835905706,-3.7800890564106613,915 090 581 / 917 053 794,ccchurruca@madrid.es,CentrosCulturales
1974,Centro Sociocultural Aula de Aire Libre (Puente de Vallecas),,"Atención al público: lunes a viernes, de 9 a 13:45 y de 17 a 18:45 horas.  Durante el mes de julio, Semana Santa y Navidad, lunes a viernes de 9 a 14 horas. Agosto cerrado.  Fuera de este horario el centro permanecerá abierto durante la celebración de las actividades que se programen.","Metro: Portazgo (línea 1)  Bus: 111, 24, 310",NOT_ACCESSIBLE,http://www.madrid.es/sites/v/index.jsp?vgnextchannel=bfa48ab43d6bb410VgnVCM100000171f5a0aRCRD&vgnextoid=314e1e79ee71c010VgnVCM1000000b205a0aRCRD,CALLE_SIERRA CARBONERA,74,PUENTE_DE_VALLECAS,40.39009728291889,-3.665329063724782,917 570 189 / 915 887 325 / 915 887 105,aalibrepvallecas@madrid.es,CentrosCulturales
1927,Centro Sociocultural Blasco Ibáñez (Carabanchel),,"De lunes a jueves, de 10 a 13 y de 16:30 a 18:30 horas. Viernes, de 10 a 13 horas. Julio, de lunes a viernes, de 10 a 13 horas. Agosto, festivos y fines de semana, cerrado.  Fuera de este horario el centro permanecerá abierto durante la celebración de las actividades que se programen.",Bus: 119,NOT_ACCESSIBLE,http://www.madrid.es/sites/v/index.jsp?vgnextchannel=bfa48ab43d6bb410VgnVCM100000171f5a0aRCRD&vgnextoid=fb453d0b5e71c010VgnVCM1000000b205a0aRCRD,CALLE_SOLDADO JOSE MARIA REY,44,CARABANCHEL,40.394959912881816,-3.732764798621339,914 280 555,ccblascoibanez@madrid.es,CentrosCulturales
1949,Centro Sociocultural Bohemios (Villaverde),,De Secretaría:  horario de mañana: de lunes a viernes de 9 a 14 horas . Horario de tarde: de lunes a jueves de 17 a 19 horas.  Durante el mes de  julio el horario será de 9 a 14 horas.  De secretaría : Teléfono 917109260 / 917100558 en el horario que ya consta. Auxiliares de información: Teléfono 917109263.,"Bus: 22 , 59 , 79 , 85 Metro: Línea 3 Ciudad de los Ángeles",ACCESSIBLE,http://www.madrid.es/sites/v/index.jsp?vgnextchannel=bfa48ab43d6bb410VgnVCM100000171f5a0aRCRD&vgnextoid=42753d0b5e71c010VgnVCM1000000b205a0aRCRD,CALLE_LOS BOHEMIOS,1,VILLAVERDE,40.35639654251886,-3.6940501846610894,917 109 260,ccbohemios@madrid.es,CentrosCulturales
1967,Centro Sociocultural Ciudad Lineal,,"De lunes a viernes, de 9 a 14 horas.   Verano y San Isidro, de lunes a viernes, de 9 a 13 horas.   Fuera de este horario el centro permanecerá abierto durante la celebración de las actividades que se programen.","Bus: 110, 113, 210, 15, 28",ACCESSIBLE,http://www.madrid.es/sites/v/index.jsp?vgnextchannel=bfa48ab43d6bb410VgnVCM100000171f5a0aRCRD&vgnextoid=16f81e79ee71c010VgnVCM1000000b205a0aRCRD,CALLE_POETA BLAS DE OTERO,81,CIUDAD_LINEAL,40.422850906984415,-3.651682839770605,917 817 494 / 914 058 728,cscciudadlineal@madrid.es,CentrosCulturales
10344149,Centro Sociocultural Clara Campoamor (Retiro),"El Centro Sociocultural Clara Campoamor se encuentra en uno de los edificios de la Junta Municipal del Distrito de Retiro (el edificio más moderno). En este edificio, además del Centro Sociocultural se encuentran las oficinas de Línea Madrid y los despachos de los grupos políticos de la Junta.",De 9 a 14 horas.  Fuera de este horario el centro permanecerá abierto durante la celebración de las actividades que se programen.,"Metro: Pacífico (línea 1 y 6)  Bus: 24, 37, 54, 57, 141  Bicimad: Estación 178 (calle León Gil de Palacio, 3)  Aparcamiento: Daoíz y Velarde (23), avenida Ciudad de Barcelona ( calle Alberche y calle Téllez)","ACCESSIBLE,SIGN_LANGUAGE,TACTILE_PAVING",http://www.madrid.es/sites/v/index.jsp?vgnextchannel=bfa48ab43d6bb410VgnVCM100000171f5a0aRCRD&vgnextoid=0c057ab5c83db510VgnVCM2000001f4a900aRCRD,PLAZA_DAOIZ Y VELARDE,2,RETIRO,40.402190438836826,-3.6772826298329093,915 886 348,culturetiro@madrid.es,CentrosCulturales
118935,Centro Sociocultural Cánovas del Castillo (Usera),,"De lunes a viernes, de 10 a 14 y de 17 a 19 horas. Julio, de lunes a viernes, de 10 a 14 horas. Agosto cerrado.  Fuera de este horario el centro permanecerá abierto durante la celebración de las actividades que se programen.","Metro: Almendrales (línea 3)  Bus: 6, 78, 23, 123",ACCESSIBLE,http://www.madrid.es/sites/v/index.jsp?vgnextchannel=bfa48ab43d6bb410VgnVCM100000171f5a0aRCRD&vgnextoid=1087cbf06c81c010VgnVCM1000000b205a0aRCRD,CALLE_JULIO AGUIRRE,10,USERA,40.38627312379031,-3.700074755609488,915 005 489,canovascastillocs@madrid.es,CentrosCulturales
1941,Centro Sociocultural Eduardo Chillida (Moratalaz),,"De lunes a viernes, de 9 a 13:30 y de 17 a 18:30 horas. Julio, de lunes a viernes, de 9 a 13:30 horas. Agosto cerrado.  Fuera de este horario el centro permanecerá abierto durante la celebración de las actividades que se programen.","Metro: Vinateros (línea 9)  Bus: 71, 30, 32, 113",ACCESSIBLE,http://www.madrid.es/sites/v/index.jsp?vgnextchannel=bfa48ab43d6bb410VgnVCM100000171f5a0aRCRD&vgnextoid=01963d0b5e71c010VgnVCM1000000b205a0aRCRD,CALLE_ARROYO BELINCOSO,9,MORATALAZ,40.40934483353835,-3.653036718771371,913 339 141,ccechillida@madrid.es,CentrosCulturales
26904,Centro Sociocultural El Greco (Latina),Información general en el teléfono: 91 479 31 50. Correo electrónico: ccgreco@madrid.es  Información sobre cursos y talleres en los siguientes enlaces:   Plataforma cursos y talleres Ayuntamiento de Madrid.  Trámites cursos y talleres Ayuntamiento de Madrid.,"Horario de verano:   Julio, agosto y septiembre de 9 a 20:30 de lunes a viernes. Del 1 al 27 de agosto el Centro se encuentra cerrado.  Horario de apertura del centro:  Lunes a Viernes de 9 a 21:30 horas. Sábados de 9 a 13:30 horas.  Horario de atención al público:  Lunes a Viernes de 9:30 a 14 horas y de 16:30 a 19 horas.","Metro de Madrid. Línea 6, estación Lucero y línea 10, estación Batán. Autobuses de la EMT. Líneas: 33, 36, 39 y 65.",ACCESSIBLE,http://www.madrid.es/sites/v/index.jsp?vgnextchannel=bfa48ab43d6bb410VgnVCM100000171f5a0aRCRD&vgnextoid=cae2b3e42751c010VgnVCM2000000c205a0aRCRD,CALLE_EL GRECO,29,LATINA,40.407316328180464,-3.747465416906973,914 793 261 / 914 793 150,ccgreco@madrid.es,CentrosCulturales
1926,Centro Sociocultural García Lorca (Carabanchel),,"De lunes a jueves, de 10 a 13 horas y de 16:30 a 18 horas. Viernes, de 10 a 13 horas.  Julio, de lunes a viernes, de 10 a 13 horas.   Agosto y festivos, cerrado.   Fuera de este horario el centro permanecerá abierto durante la celebración de las actividades que se programen.","Metro: Carabanchel Alto (línea 11)  Bus: 35, 47, 34, 139",ACCESSIBLE,http://www.madrid.es/sites/v/index.jsp?vgnextchannel=bfa48ab43d6bb410VgnVCM100000171f5a0aRCRD&vgnextoid=e6773d0b5e71c010VgnVCM1000000b205a0aRCRD,CALLE_EUGENIA DE MONTIJO,105,CARABANCHEL,40.37420290010211,-3.7510337449848636,915 110 370,ccgarcialorca@madrid.es,CentrosCulturales
1947,Centro Sociocultural José de Espronceda (Tetuán),,"De lunes a jueves, de 9:30 a 13:30 y de 16:30 a 18 horas. Viernes, de 9:30 a 13:30 horas.  Julio, solo mañanas.   Agosto cerrado.    Fuera de este horario el centro permanecerá abierto durante la celebración de las actividades que se programen.","Metro: Cuatro Caminos (líneas 1, 2, 6)  Bus: 3, 64, 66, 124, 128, 127, F",ACCESSIBLE,http://www.madrid.es/sites/v/index.jsp?vgnextchannel=bfa48ab43d6bb410VgnVCM100000171f5a0aRCRD&vgnextoid=23881e79ee71c010VgnVCM1000000b205a0aRCRD,CALLE_ALMANSA,9,TETUAN,40.44864332758775,-3.704513191828797,915 536 160 / 915 536 480,cscjespronceda@madrid.es,CentrosCulturales
124354,Centro Sociocultural Juvenil de Moratalaz,,"De lunes a viernes, de 9 a 14 y de 17 a 19 horas.  Verano, lunes a viernes, de 9 a 14 horas.  Fuera de este horario el centro permanecerá abierto durante la celebración de las actividades que se programen.","Metro: Pavones (línea 9)  Bus: 142, 144, 8, 20, 32, 140",ACCESSIBLE,http://www.madrid.es/sites/v/index.jsp?vgnextchannel=bfa48ab43d6bb410VgnVCM100000171f5a0aRCRD&vgnextoid=bf388899fc81c010VgnVCM1000000b205a0aRCRD,CALLE_FUENTE CARRANTONA,10,MORATALAZ,40.39928542551079,-3.636600379403484,915 880 459,ccjmoratalaz@madrid.es,CentrosCulturales
1965,Centro Sociocultural Juvenil de Usera,,"De lunes a viernes, de 10 a 14 y de 17 a 19 horas. Julio, de lunes a viernes, de 10 a 14 horas. Agosto cerrado.  Fuera de este horario el centro permanecerá abierto durante la celebración de las actividades que se programen.","Metro: Usera (línea 6)  Bus: 55, 60, 23",ACCESSIBLE,http://www.madrid.es/sites/v/index.jsp?vgnextchannel=bfa48ab43d6bb410VgnVCM100000171f5a0aRCRD&vgnextoid=876e1e79ee71c010VgnVCM1000000b205a0aRCRD,CALLE_CUESTA,4,USERA,40.38986587050054,-3.707459143903564,913 920 541,cjusera@madrid.es,CentrosCulturales
11189796,Centro Sociocultural Las Tablas (Fuencarral - El Pardo),Teléfono 915 886 883 Correo electrónico cultufuencarral@madrid.es,Lunes y miércoles de 9:30 a 13:30 horas Martes y jueves de 9:30 a 14:30 horas Viernes cerrado,"Metro Las Tablas Línea 10 (L10) Autobuses 172, 175 y 176",ACCESSIBLE,http://www.madrid.es/sites/v/index.jsp?vgnextchannel=bfa48ab43d6bb410VgnVCM100000171f5a0aRCRD&vgnextoid=f766b6f6751c2710VgnVCM1000001d4a900aRCRD,AVENIDA_CAMINO DE SANTIAGO,39,FUENCARRAL-EL_PARDO,40.496178544904275,-3.6742173844664605,915886883,cultufuencarral@madrid.es,CentrosCulturales
102131,Centro Sociocultural Latina,Información general en el teléfono: 91 509 54 70. Correo electrónico: juvenlatina@madrid.es . Información sobre cursos y talleres en los siguientes enlaces:   Plataforma cursos y talleres Ayuntamiento de Madrid.  Trámites cursos y talleres Ayuntamiento de Madrid. En la misma sede:   Sala de Estudio Latina.,Horario de verano:       El horario de apertura del Centro Sociocultural Latina es:   Mes de julio de 9 a 21 h de lunes a viernes. Desde el 1 hasta el 27 de agosto Cierre del Centro por vacaciones. Desde el 28 de agosto al 30 de septiembre de 9 a 21 h.  Horario de apertura del centro:  Lunes a Viernes de 9 a 21:30 horas. Sábados de 9 a 13:30 horas.  Horario de atención al público:  Lunes a Viernes de 9 a 14 horas.,Autobuses EMT. Línea 155. Cercanías RENFE. Línea C 5. Estación: Maestra Justa Freire-Polideportivo Aluche (antigua estación de Fanjul).,ACCESSIBLE,http://www.madrid.es/sites/v/index.jsp?vgnextchannel=bfa48ab43d6bb410VgnVCM100000171f5a0aRCRD&vgnextoid=a4ed8899fc81c010VgnVCM1000000b205a0aRCRD,CALLE_RODRIGO DE ARANA,50,LATINA,40.3796366471018,-3.7659492448759053,915 095 470 / 915 095 471,juvenlatina@madrid.es,CentrosCulturales
1961,Centro Sociocultural Luis Gonzaga (Chamartín),,"De lunes a jueves, de 9:30 a 14 horas y de 16:30 a 18:30 horas.   Viernes, de 9:30 a 14 horas y de 16:30 a 17:30 horas.    Verano, de lunes a viernes, de 9:30 a 14 horas.   Agosto cerrado.  Fuera de este horario el centro permanecerá abierto durante la celebración de las actividades que se programen.","Metro: Cruz del Rayo (línea 9)  Bus: 29, 52, 1  Bicimad: Estación 146 (calle María Francisca, 1)",ACCESSIBLE,http://www.madrid.es/sites/v/index.jsp?vgnextchannel=bfa48ab43d6bb410VgnVCM100000171f5a0aRCRD&vgnextoid=ba8b3d232e91f010VgnVCM1000000b205a0aRCRD,CALLE_PRINCIPE DE VERGARA,142,CHAMARTIN,40.44489723228663,-3.6780972922453685,915 886 596 / 915 885 219,juvenlgonzaga@madrid.es,CentrosCulturales
1909,Centro Sociocultural Maestro Alonso (Salamanca),,"De lunes a viernes, de 9 a 14 y de 15 a 18 horas (viernes tarde de 15 a 17 horas) Verano, de lunes a viernes, de 8 a 15 horas.  Fuera de este horario el centro permanecerá abierto durante la celebración de las actividades que se programen.","Metro: Ventas (líneas 2, 5)  Bus: 12, 21, 53, 106, 110, 146, 210, 38  Bicimad: Estación 187 (calle Alejandro González, 1)",ACCESSIBLE,http://www.madrid.es/sites/v/index.jsp?vgnextchannel=bfa48ab43d6bb410VgnVCM100000171f5a0aRCRD&vgnextoid=783f1e79ee71c010VgnVCM1000000b205a0aRCRD,CALLE_MAESTRO ALONSO,6,SALAMANCA,40.42938854032785,-3.664855511110751,917 268 800,ccmaestroalonso@tritoma.es,CentrosCulturales
170066,Centro Sociocultural Marconi (Villaverde),,"El Centro Sociocultural Marconi estará abierto de 9:00 a 21:00 h ininterrumpidamente, de lunes a viernes, excepto en el mes de agosto que permanecerá cerrado. Secretaría: de lunes a jueves de 9:30 a 13:30 y de 16:45 a 19:15 y viernes de 9:30 a 13:30 horas. Horario de Navidad:  de 9:00 a 14:00 horas, de lunes a viernes.  Durante el mes de julio el horario será de 9:00 a 14:00 horas, de lunes a viernes.",Bus: 79  Renfe: San Cristóbal Industrial,ACCESSIBLE,http://www.madrid.es/sites/v/index.jsp?vgnextchannel=bfa48ab43d6bb410VgnVCM100000171f5a0aRCRD&vgnextoid=6cb0085f5181c010VgnVCM1000000b205a0aRCRD,ACCESO_COLONIA MARCONI,4,VILLAVERDE,40.334751832113774,-3.700809560921597,917 100 232,ccmarconi@madrid.es,CentrosCulturales
1970,Centro Sociocultural Miguel de Cervantes (San Blas - Canillejas),,"De lunes a viernes, de 10 a 14 horas.    Fuera de este horario el centro permanecerá abierto durante la celebración de las actividades que se programen.","Bus: 48, 140, 28, 167",ACCESSIBLE,http://www.madrid.es/sites/v/index.jsp?vgnextchannel=bfa48ab43d6bb410VgnVCM100000171f5a0aRCRD&vgnextoid=24be1e79ee71c010VgnVCM1000000b205a0aRCRD,CALLE_ALIAGA,5,SAN_BLAS-CANILLEJAS,40.4366557020283,-3.6113517282299217,917 430 078,ccmcervantes@madrid.es,CentrosCulturales
5514552,Centro Sociocultural Montecarmelo (Fuencarral - El Pardo),Sala de exposiciones Salón de Actos Sala de lectura y estudio Centro de Interpretación de la Naturaleza Wi-Fi público,"Horario del centro:  De lunes a viernes de 8:30 a 15 y de 16 a 21:30 h, Sábados 9 a 15 y de 16 a 21 h   Domingos y festivos, de 10 a 15 h   Horario secretaría talleres:  De lunes a viernes  de 9 a 14:30 horas y de 16:30 a 18:30 horas","Bus: EMT 134 y 178. Interurbano 712, 713 y 716 Metro L10 montecarmelo (20 minutos a pie)",ACCESSIBLE,http://www.madrid.es/sites/v/index.jsp?vgnextchannel=bfa48ab43d6bb410VgnVCM100000171f5a0aRCRD&vgnextoid=30f2b51ae6295210VgnVCM2000000c205a0aRCRD,Avenida_Santuario de Valverde,114,FUENCARRAL-EL_PARDO,40.51635495615339,-3.685946562681175,917 364 151 / 917 364 329,ccmontecarmelo@madrid.es,CentrosCulturales
1964,Centro Sociocultural Oporto (Carabanchel),,"De lunes a jueves, mañanas, de 10 a 13 y de 16:30 a 18:30 horas. Viernes, de 10 a 13 horas. Julio y agosto cerrado.  Fuera de este horario el centro permanecerá abierto durante la celebración de las actividades que se programen.","Metro: Oporto (líneas 5, 6) , Opañel (línea 6)  Bus: 55, 81, 108, 118, 81, 34, 35",ACCESSIBLE,http://www.madrid.es/sites/v/index.jsp?vgnextchannel=bfa48ab43d6bb410VgnVCM100000171f5a0aRCRD&vgnextoid=357a1e79ee71c010VgnVCM1000000b205a0aRCRD,AVENIDA_OPORTO,78,CARABANCHEL,40.38684744124125,-3.727740326743959,914 603 801,ccoporto@madrid.es,CentrosCulturales
1924,Centro Sociocultural Rafael de León (Fuencarral - El Pardo),Teléfono de secretaría 917 310 351,Horario del centro: de lunes a viernes de 9 a 14 y de 16 a 21  h  Secretaría Talleres: de lunes a jueves de 9 a 14:30 y de 16:30 a 19:30 h.   viernes de 9 a 13:30 y de 16 a 18 h.,"Metro: Avenida de la Ilustración (línea 7) Bus: 49 , 64 , 67 , 83 , 133",ACCESSIBLE,http://www.madrid.es/sites/v/index.jsp?vgnextchannel=bfa48ab43d6bb410VgnVCM100000171f5a0aRCRD&vgnextoid=7e0b1e79ee71c010VgnVCM1000000b205a0aRCRD,CALLE_ISLA DE ONS,14,FUENCARRAL-EL_PARDO,40.48025613358832,-3.7214686777952974,917 310 350,ccrleon@madrid.es,CentrosCulturales
43311,Centro Sociocultural Rosario de Acuña (Latina),Información general en el teléfono: 91 464 93 04. Correo electrónico: cccalasanz@madrid.es . Información sobre cursos y talleres en los siguientes enlaces:   Plataforma cursos y talleres Ayuntamiento de Madrid.  Trámites cursos y talleres Ayuntamiento de Madrid. En la misma sede están ubicadas las salas de estudio 'Escritor Pedro de Répide' y 'Arquitecto Juan de Herrera' con 16 puestos de lectura cada una.,Horario de verano:     De julio a septiembre es de 9 a 21 h. de lunes a viernes.    Salas de lectura abiertas de 9:30 a 20:30. h.   Horarios de apertura del centro:  Lunes a Viernes de 9:30 a 21 horas. Sábados de 10 a 13 horas.  Horario de atención al público:  Lunes a Viernes de 10 a 13 horas.,Metro de Madrid. Línea 6. Estación: Alto de Extremadura. Autobuses de la EMT. Líneas: 119 y 138.,ACCESSIBLE,http://www.madrid.es/sites/v/index.jsp?vgnextchannel=bfa48ab43d6bb410VgnVCM100000171f5a0aRCRD&vgnextoid=2bae598d1351c010VgnVCM1000000b205a0aRCRD,CALLE_MARIA DEL CARMEN,65,LATINA,40.40647389284976,-3.7327010920242043,914 649 304,ccrosarioacuna@madrid.es,CentrosCulturales
1950,Centro Sociocultural San Cristóbal de los Ángeles (Villaverde),,"El Centro Sociocultural San Cristóbal estará abierto de 9:00 a 21:00 h ininterrumpidamente, de lunes a viernes, excepto en el mes de agosto que permanecerá cerrado para el público. Solamente estará abierto para la actividad de `Viva el verano&amp;acute;. Horario de atención al público, de lunes a jueves de 9:00 a 13:00  h y de 16:00 a 18:00  h y viernes de 9:00 a 13:00 horas. Horario de Navidad:  de 9:00 a 13:00 horas, de lunes a viernes. Durante el mes de julio solamente estará atendido por Auxiliares de información.","Metro: San Cristóbal (línea 3) Bus: 59, 79,",ACCESSIBLE,http://www.madrid.es/sites/v/index.jsp?vgnextchannel=bfa48ab43d6bb410VgnVCM100000171f5a0aRCRD&vgnextoid=7f4a79262ef5d010VgnVCM1000000b205a0aRCRD,PLAZA_PINAZO,9,VILLAVERDE,40.34233618931469,-3.6905504735084342,917 100 692 / 917 100 413,ccscangeles@madrid.es,CentrosCulturales
1935,Centro Sociocultural San Fermín (Usera),,"De lunes a viernes, de 10 a 14 y de 16 a 19 horas. Julio, de lunes a viernes, de 9 a 16 horas.  Fuera de este horario el centro permanecerá abierto durante la celebración de las actividades que se programen.","Metro: San Fermín - Orcasur (línea 3)  Bus: 23, 78, 123",ACCESSIBLE,http://www.madrid.es/sites/v/index.jsp?vgnextchannel=bfa48ab43d6bb410VgnVCM100000171f5a0aRCRD&vgnextoid=1b5b1e79ee71c010VgnVCM1000000b205a0aRCRD,CALLE_ESTAFETA,33,USERA,40.371654294908154,-3.692056897625109,917 920 111,ccsanfermin@madrid.es,CentrosCulturales
117716,Centro Sociocultural Santa Petronila (Villaverde),En la misma sede se encuentra la Oficina de información juvenil y el Espacio de Igualdad Clara Campoamor.,"El Centro Sociocultural Santa Petronila estará abierto de 9:00 a 21:30 h ininterrumpidamente, de lunes a viernes, y los sábados de 9:30 a 13:00. Agosto permanece cerrado. Horario de atención al publico, secretaría:  lunes a viernes de 9:30 a 14:00 h y de lunes a jueves de 16 a 18 horas. Durante el mes de julio el horario será de 9:00 a 14:00 horas, de lunes a viernes. Teléfonos de atención al público; Información General: 917 791 204 ó ccspetronila@madrid.es Administración: 917 100 309 y 917 109 228","Metro: Villaverde Bajo Cruce (línea 3) Bus: 59 , 79 , 85 , 123 Renfe: Villaverde Bajo",ACCESSIBLE,http://www.madrid.es/sites/v/index.jsp?vgnextchannel=bfa48ab43d6bb410VgnVCM100000171f5a0aRCRD&vgnextoid=03f7cbf06c81c010VgnVCM1000000b205a0aRCRD,CALLE_MARIA MARTINEZ OVIOL,12,VILLAVERDE,40.35087114162283,-3.691508909255186,917 791 204,ccspetronila@madrid.es,CentrosCulturales
1937,Centro Sociocultural Talleres de Creatividad (Puente de Vallecas),,"De lunes a viernes, de 9 a 13:45 y de 17 a 18:45 horas. Julio, de lunes a viernes, de 9 a 14 horas. Agosto cerrado.   Fuera de este horario el centro permanecerá abierto durante la celebración de las actividades que se programen.","Metro: Nueva Numancia, Portazgo (línea 1)  Bus: 111, 24, 310",NOT_ACCESSIBLE,http://www.madrid.es/sites/v/index.jsp?vgnextchannel=bfa48ab43d6bb410VgnVCM100000171f5a0aRCRD&vgnextoid=b7ab1e79ee71c010VgnVCM1000000b205a0aRCRD,CALLE_SIERRA CARBONERA,74,PUENTE_DE_VALLECAS,40.39010138870244,-3.6653235716960015,917 570 189 / 917 570 240,ctcepvallecas@madrid.es,CentrosCulturales
1971,Centro Sociocultural Teresa de Calcuta (Barajas),,"De lunes a viernes, de 9 a 14 y de 15 a 17 horas.  Fuera de este horario el centro permanecerá abierto durante la celebración de las actividades que se programen.","Metro: Alameda de Osuna (línea 5)  Bus: 112, 114, 115, 166, 151, 101",ACCESSIBLE,http://www.madrid.es/sites/v/index.jsp?vgnextchannel=bfa48ab43d6bb410VgnVCM100000171f5a0aRCRD&vgnextoid=f50e1e79ee71c010VgnVCM1000000b205a0aRCRD,PLAZA_NAVIO,4,BARAJAS,40.455320740232835,-3.5876301858469386,913 295 920,ccteresacalcuta@madrid.es,CentrosCulturales
1948,Centro Sociocultural Tetuán,"Entradas para los espectáculos, se entregarán de forma presencial:   Para espectáculos de lunes a viernes: se entregarán desde el día antes y hasta el comienzo del espectáculo en el horario 10:00 a 13:30 horas y 16:30 a 18:00 horas.   Para los espectáculos en fin de semana, se entregarán los jueves y viernes anteriores a la función en horario de 10:00 a 13:30 y 16:30 a 18:00 y 1 hora antes el día del espectáculo.   Más información en el propio Centro.   Uso obligatorio de mascarilla","De lunes a jueves, de 9:30 a 13:30 y de 16:30 a 18 horas. Viernes de 9:30 a 13:30 horas. Julio, solo mañanas. Agosto cerrado.   Fuera de este horario el centro permanecerá abierto durante la celebración de las actividades que se programen.","Metro: Tetuán (línea 1)  Bus: 66, 124",ACCESSIBLE,http://www.madrid.es/sites/v/index.jsp?vgnextchannel=bfa48ab43d6bb410VgnVCM100000171f5a0aRCRD&vgnextoid=0ecb1e79ee71c010VgnVCM1000000b205a0aRCRD,CALLE_BRAVO MURILLO,251,TETUAN,40.45907909580629,-3.7002532146213043,915 790 851,csctetuan@madrid.es,CentrosCulturales
1923,Centro Sociocultural Valle Inclán (Fuencarral - El Pardo),Teléfono de secretaría 913 230 805,Centro: de lunes a viernes de 9 a 14 y de 16 a 21 h  Secretaría Talleres: de lunes a viernes de 9 a 13:30 y de 16 a 18.,"Bus: 67 , 132",ACCESSIBLE,http://www.madrid.es/sites/v/index.jsp?vgnextchannel=bfa48ab43d6bb410VgnVCM100000171f5a0aRCRD&vgnextoid=aa1c1e79ee71c010VgnVCM1000000b205a0aRCRD,CALLE_ARZOBISPO MORCILLO,7,FUENCARRAL-EL_PARDO,40.48106787416528,-3.6933504628706095,913 230 805,ccvalleinclan@madrid.es,CentrosCulturales
1908,Centro Sociocultural Valverde (Fuencarral - El Pardo),,Centro: de lunes a viernes de 9 a 14 y de 16:30 a 22 h  Secretaría: de lunes a viernes de 9 a 13:30 y de 16:30 a 18:30 h.,"Metro: Fuencarral (línea 10) Bus: 66, 137",ACCESSIBLE,http://www.madrid.es/sites/v/index.jsp?vgnextchannel=bfa48ab43d6bb410VgnVCM100000171f5a0aRCRD&vgnextoid=f04c1e79ee71c010VgnVCM1000000b205a0aRCRD,PLAZA_ISLAS AZORES,1,FUENCARRAL-EL_PARDO,40.49504564211655,-3.6880070256093758,917 364 760,ccvalverde@madrid.es,CentrosCulturales
4679597,Centro Sociocultural Vicálvaro,,"De lunes a viernes, de 9 a 14 horas y de 17 a 19 horas.  De 15 junio a 31 julio y de 1 a 15 septiembre, de lunes a viernes, de 9 a 14 horas. Semana San Isidro, de lunes a viernes, de 9 a 14 horas. Agosto cerrado.  Fuera de este horario el centro permanecerá abierto durante la celebración de las actividades que se programen.","Metro: Vicálvaro (línea 9)  Bus: 106, 4, E3",NOT_ACCESSIBLE,http://www.madrid.es/sites/v/index.jsp?vgnextchannel=bfa48ab43d6bb410VgnVCM100000171f5a0aRCRD&vgnextoid=05ec3ef2c5ff5110VgnVCM1000000b205a0aRCRD,CALLE_LAGO TITICACA,10,VICALVARO,40.40219442341818,-3.6084585863003733,917 753 200 / 917 753 201,cscvicalvaro@madrid.es,CentrosCulturales
1996,Centro Sociocultural Ágata (Villaverde),,El horario del Centro Sociocultural Ágata es: de lunes a viernes de 8:30 a 21:30 horas  y los sábados de 9:30 a 13:30 horas. El horario de secretaría es: de lunes a viernes de 9:00  a 13:30 horas  y  el horario de tarde lunes miércoles y jueves de 17:00 a 19:30 horas.  Durante el mes de  julio  y Navidad el horario de secretaría será  de 9:00 a 14:00 horas.  Teléfono del Centro Sociocultural: 91 710 93 00. Teléfono de Secretaría: 91 710 92 00.,"Bus: 22 , 79 , 86 , 130 , 131",ACCESSIBLE,http://www.madrid.es/sites/v/index.jsp?vgnextchannel=bfa48ab43d6bb410VgnVCM100000171f5a0aRCRD&vgnextoid=d9743d0b5e71c010VgnVCM1000000b205a0aRCRD,CALLE_DOCTOR MARTIN AREVALO,2,VILLAVERDE,40.34636268334182,-3.708524395897377,917 109 300,ccagata@madrid.es,CentrosCulturales
1916,Centro de Cultura Contemporánea Conde Duque,"El Centro de Cultura Contemporánea Condeduque, de adscripción municipal, se plantea como un espacio de acceso a la cultura contemporánea a través de una programación diversa e innovadora. Un lugar de vida, un centro público para difundir y compartir prácticas artísticas y culturales, abierto a toda la ciudadanía de Madrid. Teléfono de información de actividades culturales: 913 184 450  Teléfono de atención al espectador: 913 184 700 (de martes a domingo, de 10:30 a 14:30 y de 16:30 a 20:30 horas)  Teléfono de taquilla: 649 426 125 (de martes a viernes de 17:30 a 20:30 horas)   Venta de entradas.","Centro: lunes a sábado, de 9 a 21 horas. Domingos y festivos, de 10:30 a 14 horas. Lunes, cerrados las salas exposiciones y las taquillas. Cerrado 24, 25 y 31 diciembre y 1 enero.   Exposiciones: martes a sábado, de 10 a 14 y de 17:30 a 21 horas. Domingos y festivos, de 10:30 a 14 hotas.   Taquilla: de 17:30 a 20:30 horas, de martes a viernes. Los fines de semana la taquilla abrirá dos horas antes del inicio de la función.","Metro: Ventura Rodríguez (línea 3), San Bernardo (líneas 2 y 4), Noviciado (línea 2), Plaza de España (líneas 3 y 10).  Bus: 002, 001, 1, 133, 138, 2, 44, C1, 74m C2, 21, C03.  Bicimad: Estación 13 (calle Conde Duque, 22).",ACCESSIBLE,http://www.madrid.es/sites/v/index.jsp?vgnextchannel=bfa48ab43d6bb410VgnVCM100000171f5a0aRCRD&vgnextoid=64463d0b5e71c010VgnVCM1000000b205a0aRCRD,CALLE_CONDE DUQUE,9,CENTRO,40.42739911262292,-3.710589286287491,,,MonumentosEdificiosArtisticos
11526686,Centro de Educación Ambiental y Cultural Maris Stella (Usera),,"Octubre a marzo   De martes a sábado de 10 a 14 y 15:30 a 18 horas. Domingos  y festivos, de 10 a 14:0 horas.   Abril, mayo, junio y septiembre   De martes a sábado, de 10 a 14 y de 17 a 19:30 horas.  Domingos  y festivos, de 10 a 14 horas.    Julio   De martes a domingo y festivos, de 10 a 14 horas.   Agosto cerrado.","Bus: 121, 81  Renfe: Doce de Octubre (C5)  Metro: Hospital 12 de Octubre (línea 3)",ACCESSIBLE,http://www.madrid.es/sites/v/index.jsp?vgnextchannel=bfa48ab43d6bb410VgnVCM100000171f5a0aRCRD&vgnextoid=85205619bc23d710VgnVCM2000001f4a900aRCRD,CALLE_DOCTOR TOLOSA LATOUR,16,USERA,40.374166248648216,-3.7032220308808577,914 801 318,centro.marisstella@madrid.es,CentrosCulturales
6013703,CentroCentro,"CentroCentro es un centro público de cultura y ocio conectado con la ciudad y la vida urbana, ubicado en el emblemático Palacio de Cibeles, antiguo Palacio de Comunicaciones, sede actual del Ayuntamiento de Madrid. Su propuesta plantea el diálogo entre disciplinas &amp;ndash;diseño, ilustración, arte, fotografía, urbanismo, arquitectura, música, literatura, historia&amp;ndash; con el objetivo de activar el pensamiento crítico ante los desafíos del presente y del futuro. Su programación busca generar nuevos modos de relacionarnos con la cultura, desde la reflexión intelectual y desde la diversión, provocando la curiosidad de un público cada vez más diverso. CentroCentro un espacio vivo y efervescente. Lo vertebran: la arquitectura y la historia que lo envuelven, la creatividad que llena sus salas y las actividades que hacen vibrar el palacio. En CentroCentro hay exposiciones, conciertos, talleres, visitas guiadas, eventos, el Centro de Interpretación del Paisaje de la Luz, un punto de información turística, tienda, cafetería y restaurante, áreas sociales y un mirador con vistas únicas. Aquí siempre encontrarás un buen plan. CentroCentro hace de Madrid su foco y materia básica de estudio; tarjeta de presentación de la ciudad, desde el corazón del Paseo del Arte, quiere ser la mejor estación de llegada y de partida para conocer y sentir su pulso cultural. Normas de visita y recomendaciones generales  Este edificio está declarado Bien de Interés Cultural (BIC). En beneficio de todos, el visitante deberá mantener el orden y respetar las instalaciones Para garantizar una visita segura se recomienda:  Observar y seguir la señalización marcada para accesos y recorridos Respetar, en su caso, los aforos indicados para cada actividad Llegar al centro con al menos 20 minutos de antelación en el caso de contar con una reserva de entrada con turno  No está permitido:  El acceso al centro con bicicletas, patines y/o monopatines El acceso con bolsos, mochilas o bultos cuyo tamaño no permita su paso por el escáner, debiendo depositarse en la consigna de la planta 1E, tras revisión por parte de los vigilantes de seguridad El acceso al Mirador con bultos, mochilas o similar, que deberán depositarse en las taquillas disponibles en la planta 6E El acceso con paraguas, objetos punzantes o cortantes Beber y comer dentro del edificio, con la excepción de cafetería y restaurante Fumar en todo el edificio, incluido el Mirador El acceso con trípode, palo de móvil o monopie, o cualquier otro elemento de estabilización de cámaras y móvil El acceso de público, cuyas acciones o fines puedan incidir en el normal desarrollo del centro o del evento sin autorización previa Tocar las piezas expuestas o apoyarse en las vitrinas de las exposiciones La entrada de menores de 14 años si no van acompañados de un adulto responsable El acceso de animales, a excepción de perros guía Las sesiones fotográficas y filmaciones de todo tipo y coberturas y grabaciones de medios de comunicación que no hayan sido previamente autorizadas por el departamento correspondiente (Contacto: prensa@centrocentro.org)","Exposiciones   Martes a domingo: de 10 a  20 horas. Las salas se desalojarán 15 minutos antes del cierre del centro. Cerrado todos los lunes, 1 y 6 de enero, 1 de mayo y 24, 25 y 31 de diciembre. 5 de enero abierto en horario de mañana.","Metro: Banco de España  Renfe Cercanías: Recoletos  Bus: E1, 203, 14, 27, 37, 45, C03, 1, 146, 15, 2, 20, 51, 52, 74, 9, 10, 34, 001  Aparcamiento: Montalbán (49), C/ Montalbán (entre Alfonso XI y paseo Prado)  Bicimad: Estación 86 (Plaza Cibeles)",ACCESSIBLE,http://www.madrid.es/sites/v/index.jsp?vgnextchannel=bfa48ab43d6bb410VgnVCM100000171f5a0aRCRD&vgnextoid=5ff519cd7bcee210VgnVCM1000000b205a0aRCRD,PLAZA_CIBELES,1,RETIRO,40.41902261618159,-3.692188193693138,914 800 008 / 010 (915 298 210 si llama desde fuera del municipio de Madrid),info@centrocentro.org,CentrosCulturales
10799518,Espacio Abierto Quinta de los Molinos,,"De 10 a 20 horas, de miércoles a domingos. Horario de verano (julio y agosto): De 10 a 21 horas, de miércoles a domingos. Festivos cerrado.","Metro: Suanzes (línea 5)  Bus: 77 y 104 (en la calle Alcalá ) / 114 y 146 (por la calle Juan Ignacio Luca de Tena, que es el acceso más directo al centro)  Accesos al parque: tiene cinco puertas, en las calles Alcalá, Juan Ignacio Luca de Tena, Avenida 25 de Septiembre y Miami.","ACCESSIBLE,MAGNETIC_LOOP",http://www.madrid.es/sites/v/index.jsp?vgnextchannel=bfa48ab43d6bb410VgnVCM100000171f5a0aRCRD&vgnextoid=80ddc8acadd56610VgnVCM2000001f4a900aRCRD,CALLE_JUAN IGNACIO LUCA DE TENA,20,SAN_BLAS-CANILLEJAS,40.44774002225867,-3.6292874542291638,913 184 590,info@espacioabiertoqm.com,CentrosCulturales
11575320,"Espacio Cultural Núñez de Balboa, 40 (Salamanca)",,"Horario de atención al público:  De lunes a viernes de 7:45 a 20:45 horas. Sábados de 9:30 a 14 horas y de 16 a 20:45 horas. Domingos de 9:30 a 20:45 horas.  Julio, agosto y septiembre:  De lunes a viernes: horario de apertura al publico 7:45 a 20:45 horas. Sábados y domingos cerrado.  Fuera de este horario el centro permanecerá abierto durante la celebración de las actividades que se programen.","Metro: Velázquez (línea 4), Serrano (línea 4)  Bus: 1, 9, 19, 21, 51, 53, 74  Bicimad: Estación 87 (calle Ayala, 44)",ACCESSIBLE,http://www.madrid.es/sites/v/index.jsp?vgnextchannel=bfa48ab43d6bb410VgnVCM100000171f5a0aRCRD&vgnextoid=aab225880cd6e710VgnVCM2000001f4a900aRCRD,CALLE_NUÑEZ DE BALBOA,40,SALAMANCA,40.426826159507435,-3.6825349481985135,913 982 399,ccemiliapardobazan@madrid.es,SalasEstudioLectura
11681451,Espacio Cultural Serrería Belga,"Este nuevo centro cultural del Ayuntamiento de Madrid tiene como objetivo convertirse en un punto de encuentro para agentes y profesionales de la cultura y en un referente municipal en el entorno cultural del Paseo del Arte y el Barrio de las Letras, donde se encuentra situado. Sus instalaciones son el escaparate perfecto para mostrar el dinamismo creativo madrileño en torno al arte, la música, el diseño, la literatura, la imagen y la gastrocultura.  El singular edificio de arquitectura industrial, construido en el primer cuarto del siglo XX, que acoge este espacio fue la sede de la antigua Serrería Belga. Un importante ejemplo de construcción industrial que forma parte de la lista de inmuebles destacados que componen el Paisaje de la Luz madrileño, reconocido como Patrimonio de la Humanidad por la UNESCO desde el 25 de julio de 2021. Tras una profunda reforma, sus cerca de 4000 m2 se dedicarán a ofrecer una amplia oferta cultural, destacando una planta completa de más de 300 m2 para exposiciones artísticas y una amplia zona dedicada a la poesía, la literatura y al papel de Madrid como capital literaria a lo largo de los siglos. Todas las actividades del Espacio Cultural Serrería Belga son gratuitas.  Para aquellas actividades que requieran acceso con entrada consultar www.serreria-belga.es Todas las actividades del Espacio Cultural Serrería Belga son gratuitas.  Para aquellas actividades requieran acceso con entrada consultar www.serreria-belga.es",,"Metro: Estación del Arte (línea 1).  Bus: 6, 10, 14, 19, 26, 27, 32, 34, 37, 45  Cercanías Renfe: Atocha (líneas C1, C2, C3, C4, C5, C7, y C10).  Bicimad: Estaciones 67 (calle Almadén 28), 27 (calle Jesús, 1), 68 (calle Espalter, 1).",ACCESSIBLE,http://www.madrid.es/sites/v/index.jsp?vgnextchannel=bfa48ab43d6bb410VgnVCM100000171f5a0aRCRD&vgnextoid=c3c0f13cd18a0810VgnVCM1000001d4a900aRCRD,CALLE_ALAMEDA,15,CENTRO,40.4105673503608,-3.6937819843413373,915 787 758,hola@serreria-belga.es,CentrosCulturales
10915700,Espacio Polivalente Embajadores,,,"Bus: 25 , 31 , 33 , 36 , 39 , 41 , 50 , 65 , 138 , C",NOT_ACCESSIBLE,http://www.madrid.es/sites/v/index.jsp?vgnextchannel=bfa48ab43d6bb410VgnVCM100000171f5a0aRCRD&vgnextoid=a0103e641a099610VgnVCM1000001d4a900aRCRD,CALLE_EMBAJADORES,18,CENTRO,40.40974351501623,-3.7062002853639266,,,CentrosEspaciosDeporte
1915,Fernán Gómez Centro Cultural de la Villa,,,"Metro: Colón (línea 4), Serrano (línea 4)  Bus: 14, 150, 27, 45, 5, 21, 37, C03, 53  Bicimad: Estación 93 (calle Goya, 1) / Estación 10 (calle Marqués de la Ensenada, 16)  Renfe: Recoletos  Aparcamiento: Colón (2), Plaza de Colón","ACCESSIBLE,MAGNETIC_LOOP",http://www.madrid.es/sites/v/index.jsp?vgnextchannel=bfa48ab43d6bb410VgnVCM100000171f5a0aRCRD&vgnextoid=ba663d0b5e71c010VgnVCM1000000b205a0aRCRD,PLAZA_COLON,4,SALAMANCA,40.4249721516942,-3.689948085098791,"914 362 540 / 913 184 630 / 913 184 631 (Centralita)
913 184 631 (Información programación)",info.tfg@teatrofernangomez.es,Teatros
4684678,Matadero Madrid,,"Punto de información al visitante: de lunes a domingo, de 9:30 a 21:30 horas. Plaza Matadero, calle Matadero y Placita, entrada libre de lunes a domingo, de 9 a 22 horas. Más información en Matadero Madrid","Renfe: Embajadores   Metro: Legazpi (líneas 3, 6)  Bus: 123, 22, 79, 148, 18, 6, 78, 45, 8, 19, 247, 47, 59, 62, 76, 85, 86, 156, 180, T32  Bicimad: Estación 177 (calle Bolívar, 3)",ACCESSIBLE,http://www.madrid.es/sites/v/index.jsp?vgnextchannel=bfa48ab43d6bb410VgnVCM100000171f5a0aRCRD&vgnextoid=ef686a9ee7336110VgnVCM1000000b205a0aRCRD,PLAZA_LEGAZPI,8,ARGANZUELA,40.39130985242181,-3.6958028442054074,913 184 670,info@mataderomadrid.org,SalasExposiciones
4776440,Medialab en Matadero. Matadero Madrid,"Medialab Matadero es un programa del Área de Gobierno de Cultura, Turismo y Deporte del Ayuntamiento de Madrid creado en 2002. Ubicado en un espacio cultural único, el centro de creación contemporánea Matadero Madrid, Medialab Matadero es una plataforma institucional de investigación, creación y producción experimental impulsada por la dinámica del Procomún.",,"Metro:  Legazpi (líneas 3 y 6).   Bus: 148, 18, 6, 78, 62, 19, 247, 45, 47, 59, 76, 8, 85, 86.  Bicimad: Estación 165 (paseo de la Chopera, 14).",ACCESSIBLE,http://www.madrid.es/sites/v/index.jsp?vgnextchannel=bfa48ab43d6bb410VgnVCM100000171f5a0aRCRD&vgnextoid=79f59dacff4d7110VgnVCM1000000b205a0aRCRD,PASEO_CHOPERA,14,ARGANZUELA,40.39245798191536,-3.6972067902718897,913 184 670,info.m@medialab-matadero.es,CentrosCulturales
10189992,Nave de Terneras del Centro Cultural Casa del Reloj,,Agosto cerrado.,"Metro: Legazpi (líneas 3, 6)  Bus: 62, 6, 78, 148  BICIMAD: Estación 165 (Paseo Chopera, 14)",ACCESSIBLE,http://www.madrid.es/sites/v/index.jsp?vgnextchannel=bfa48ab43d6bb410VgnVCM100000171f5a0aRCRD&vgnextoid=6c5c625c0d168510VgnVCM1000001d4a900aRCRD,PASEO_CHOPERA,10,ARGANZUELA,40.393432756132874,-3.6985778802913103,915 886 299 / 915 886 118,,CentrosCulturales
11956343,Sala de exposiciones La Lonja. Centro Cultural Casa del Reloj (Arganzuela),,De lunes a sábado de 9 a 21 horas,"Metro: Legazpi (líneas 3, 6)  Bus: 62, 6, 78, 148  BICIMAD: Estación 165 (Paseo Chopera, 14)",ACCESSIBLE,http://www.madrid.es/sites/v/index.jsp?vgnextchannel=bfa48ab43d6bb410VgnVCM100000171f5a0aRCRD&vgnextoid=3de6d4ddebac6810VgnVCM1000001d4a900aRCRD,PASEO_CHOPERA,10,ARGANZUELA,40.39307289237465,-3.699005654074825,915 886 299 / 915 886 118,,SalasExposiciones
11601456,Salas de ensayo Pau Donés y Luis Eduardo Aute (Salamanca),Sala 1: Pau Donés  Sala 2: Luis Eduardo Aute,"Viernes, de 16 a 21 horas. Sábado, de 11 a 14 y de 16 a 21 horas.","Metro: O'Donnell (línea 6)  Bus: 28, E2, E3, 15, 215, 26, 61, 63, C2, E4, E5  Bicimad: Estación 61 (Calle O'Donnell, 28) / estación 62 (Calle O'Donnell, 60)","ACCESSIBLE,TACTILE_PAVING",http://www.madrid.es/sites/v/index.jsp?vgnextchannel=bfa48ab43d6bb410VgnVCM100000171f5a0aRCRD&vgnextoid=3f00d661fc60f710VgnVCM1000001d4a900aRCRD,CALLE_ALCALDE SAINZ DE BARANDA,94,SALAMANCA,40.42121783502117,-3.6607653462118437,915 884 012,localensayosalamanca@madrid.es,CentrosCulturales
11701924,Salón y sala de exposiciones en Junta Municipal de Usera,,"De lunes a viernes, de 9 a 13 y de 17 a 19:30 horas (en Centro cultural Usera I).  Agosto cerrado.  Fuera de este horario el centro permanecerá abierto durante la celebración de las actividades que se programen.","Metro: Plaza Elíptica (línea 6)  Bus: 6, 60, 81",PARTIALLY_ACCESSIBLE,http://www.madrid.es/sites/v/index.jsp?vgnextchannel=bfa48ab43d6bb410VgnVCM100000171f5a0aRCRD&vgnextoid=5fb8370bbde11810VgnVCM1000001d4a900aRCRD,AVENIDA_RAFAELA YBARRA,41,USERA,40.3823867401053,-3.710861696949648,915 887 214,ccusera@madrid.es,SalasExposiciones
,,,,,,,,,,,,,,
