PK,NOMBRE,same_as_wikidata_museum,DESCRIPCION-ENTIDAD,HORARIO,METRO,same_as_wikidata_metro,BUS,RENFE,ACCESIBILIDAD,CONTENT-URL,DIRECCION,same_as_wikidata_direccion,NUM,DISTRITO,same_as_wikidata_distrito,LATITUD,LONGITUD,TELEFONO,EMAIL,TIPO
4847190,House-Museum of Lope de Vega,https://www.wikidata.org/entity/Q948580,"'Mi casilla, mi quietud, mi g&amp;uuml;ertecillo y estudio'. Asi define su casa Felix Lope de Vega (1562-1635) en una carta dirigida a un amigo. Situada en pleno centro historico, en el Barrio de las Letras, la Casa Museo Lope de Vega se ubica en el edificio donde el escritor vivio sus ultimos 25 anos. La recreacion de ambientes, cuyo objetivo es que se respire la presencia de Lope, evoca la vida cotidiana del Siglo de Oro y nos acerca a su intimidad. El equipamiento de la casa incorpora obras de arte, mobiliario, enseres y ediciones bibliograficas vinculadas al literato y su tiempo. ","De martes a domingo, de 10 a 18 horas.  Cerrado los lunes, dias 1 y 6 de enero, 1 de mayo, 9 de noviembre y 24, 25 y 31 de diciembre. El acceso al museo se hace mediante visitas guiadas en grupo. Es imprescindible reservar con antelacion, por telefono o correo electronico.",Anton Martin,https://www.wikidata.org/entity/Q2473940,"002, M1, 001, 10, 14, 27, 34, 37, 45, C03, 26, 32, 6, 51,   ", Sol (lineas C3 y C4).    ,"NOT ACCESSIBLE,SIGN LANGUAGE",http://www.madrid.es/sites/v/index.jsp?vgnextchannel=bfa48ab43d6bb410VgnVCM100000171f5a0aRCRD&vgnextoid=4eff8c46145e8110VgnVCM2000000c205a0aRCRD,"Calle de Cervantes, Madrid",https://www.wikidata.org/entity/Q20014008,11,Centro,https://wikidata.org/entity/Q1763376,40.414358466555235,-3.6974741545860015,914 299 216,casamuseolopedevega@madrid.org,Museos
4949641,Category:Casita-Museo del Raton Perez,https://www.wikidata.org/entity/Q107291466,"La Casita-Museo de Raton Perez, constituye un singular lugar que da la bienvenida a cuantos visitantes alli acuden con el deseo de conocer y encontrarse con este extraordinario, unico, madrileno y universal raton. Reserva de entradas presicialmente y a traves de  whatsapp  634 742 768.",Visitas:     Lunes: 11 a 14 horas.   Martes a viernes: 11 a 14 y 17 a 20 horas.   Sabados: 11 a 14:30 y 16 a 20 horas.   Domingos y festivos: 11 a 14:30 y 16 a 20 horas (cerrado 25 de diciembre y 1 y 6 de enero).,Sol,https://www.wikidata.org/entity/Q1766008,50.  ,"Sol (lineas C3, C4, C4a, C4b y Regional).   ",NOT ACCESSIBLE,http://www.madrid.es/sites/v/index.jsp?vgnextchannel=bfa48ab43d6bb410VgnVCM100000171f5a0aRCRD&vgnextoid=990950e86d4ca110VgnVCM2000000c205a0aRCRD,Calle del Arenal,https://www.wikidata.org/entity/Q5740980,8,Centro,https://wikidata.org/entity/Q1763376,40.4170597715272,-3.7055199334442492,915 226 968,info@casamuseoratonperez.es,Museos
5682031,Castillo de la Alameda,,"El Castillo de la Alameda o de Barajas se trata de uno de los escasos vestigios de la arquitectura militar del pasado siglo XV y uno de los pocos castillos que ha sobrevivido al paso del tiempo. Bajo el y su entorno, existen restos de asentamientos antiguos desde la Edad del Bronce hasta la epoca Romana.En el edificio se realizan talleres para escolares y actividades en verano. Accesibilidad   Rampas de acceso (las rampas de acceso en estos momentos estan inhabilitadas) Aseos adaptados para personas con movilidad reducida. Informacion en Braille para personas con discapacidad visual.","Abierto solo en fin de semana (sabado y domingo) y festivos (lunes festivos incluidos)  Del 1 de abril al 15 de junio de 10 a 21 horas. Del 16 de junio al 15 de septiembre de 10 a 20 horas. Del 15 al 30 de septiembre de 10 a 21 horas. De octubre a marzo de 10 a 18 horas.  Cerrado: 1 y 6 de enero, 1 de mayo, 24, 25 y 31 de diciembre.",Alameda de Osuna,https://www.wikidata.org/entity/Q2403543,"101, 105, 112, 114, 115 y 151.",Sin Renfe,"ACCESSIBLE,MAGNETIC LOOP",http://www.madrid.es/sites/v/index.jsp?vgnextchannel=bfa48ab43d6bb410VgnVCM100000171f5a0aRCRD&vgnextoid=fe43c4be8e688210VgnVCM1000000b205a0aRCRD,CALLE ANTONIO SANCHA,,1,Barajas,https://wikidata.org/entity/Q807230,40.45835460563491,-3.5932903820278788,913 667 415,castilloalameda@madrid.es,MonumentosEdificiosArtisticos
2064,Cason del Buen Retiro,https://www.wikidata.org/entity/Q3321174,"El Centro de Estudios del Prado esta ubicado en el Cason del Buen Retiro, que aloja ademas la Biblioteca, el Archivo, el Centro de Documentacion y los Departamentos de Conservacion del Museo Nacional del Prado. Descripcion monumental  El Cason o Salon de Baile es el unico volumen que permanece del antiguo Palacio del buen Retiro, ejecutado en 1637 con un proyecto de Alonso Carbonel. Aun se conserva la boveda de canon con lunetas, pintada al fresco por Lucas Jordan en 1692 con la Alegoria del Toison de Oro. Su fachada principal, a poniente, arrasada la primitiva en 1886 por un ciclon, es de Velazquez Bosco. La ultima rehabilitacion ha sido realizada por Jaime Torruell.",,Estacion del Arte,https://www.wikidata.org/entity/Q2016175,19.  ,"Atocha (lineas C1, C2, C3, C4, C4a, C4b, C5, C7 y C10).   ",ACCESSIBLE,http://www.madrid.es/sites/v/index.jsp?vgnextchannel=bfa48ab43d6bb410VgnVCM100000171f5a0aRCRD&vgnextoid=f0443d0b5e71c010VgnVCM1000000b205a0aRCRD,Calle de Alfonso XII,https://www.wikidata.org/entity/Q5659170,28,Retiro,https://wikidata.org/entity/Q2002296,40.41527545361461,-3.689222446432277,Sin telefono,centro.estudios@museodelprado.es,MonumentosEdificiosArtisticos
2069,Museo de Artes y Tradiciones Populares,https://www.wikidata.org/entity/Q52247359,,"Lunes a viernes de 10 a 20 horas. Sabados de 10 a 14 horas. Cerrado domingos, festivos y mes de agosto, 24 y 31 diciembre.",La Latina,https://www.wikidata.org/entity/Q1115250,"002, 17, 18, 23, 35, 60.   ",Sin Renfe,NO INFORMATION,http://www.madrid.es/sites/v/index.jsp?vgnextchannel=bfa48ab43d6bb410VgnVCM100000171f5a0aRCRD&vgnextoid=5c39ef4d7f71c010VgnVCM1000000b205a0aRCRD,"Calle de Carlos Arniches, Madrid",https://www.wikidata.org/entity/Q25410886,3,Centro,https://wikidata.org/entity/Q1763376,40.408827275648434,-3.7083241323093614,914 976 500,museoatp@uam.es / lacorrala@uam.es,Museos
6469186,Royal Chapel of St. Anthony of La Florida,https://www.wikidata.org/entity/Q3109752,"Ermita dedicada a San Antonio de Padua y pequeno museo. Las pinturas murales que la decoran son de Francisco de Goya. Alberga los restos mortales del artista desde 1919. Para preservar sus pinturas, en 1929 se traslado el culto a una ermita gemela construida a su lado, dejando el edificio original como museo. ","General   De martes a domingos de 9:30 a 20 horas.   Verano (del 15 de junio al 15 de septiembre)   De martes a viernes de 9:30 a 14 horas y de 15 a 19 horas. Sabados y domingos de 9:30 a 19 horas.   Cerrado:  lunes (incluidos festivos), 1 y 6 de enero, 1 de mayo, 24, 25 y 31 de diciembre.  ultimo pase de visita: 20 minutos antes del cierre (el desalojo de las salas comenzara 10 minutos antes) Este horario y la apertura de salas pueden sufrir modificaciones.",Principe Pio,https://www.wikidata.org/entity/Q2527066,"41, 46 y 75 (Intercambiador Principe Pio)  ",Principe Pio  BICIMAD: Estacion 161 (Paseo de la Florida 8),"PARTIALLY ACCESSIBLE,MAGNETIC LOOP",http://www.madrid.es/sites/v/index.jsp?vgnextchannel=bfa48ab43d6bb410VgnVCM100000171f5a0aRCRD&vgnextoid=75950204770e7310VgnVCM2000000c205a0aRCRD,"Glorieta de San Antonio de la Florida, Madrid",https://www.wikidata.org/entity/Q66054108,5,Moncloa-Aravaca,https://wikidata.org/entity/Q2017682,40.425256682855846,-3.725725718176111,915 420 722 o 683 429 760,sanantonio@madrid.es,MonumentosEdificiosArtisticos
58353,Espacio Fundacion Telefonica,,,"De martes a domingo, de 10 a 20 horas. Cerrado al publico todos los lunes y dias 25 de diciembre, 1 y 6 de enero.",Gran Via,https://www.wikidata.org/entity/Q2729745,"001, 002, 1, 146, 2, 46, 74, 3.   ",Sin Renfe,ACCESSIBLE,http://www.madrid.es/sites/v/index.jsp?vgnextchannel=bfa48ab43d6bb410VgnVCM100000171f5a0aRCRD&vgnextoid=87748ed67151c010VgnVCM2000000c205a0aRCRD,calle de Fuencarral,https://www.wikidata.org/entity/Q5740840,3,Centro,https://wikidata.org/entity/Q1763376,40.42042493125648,-3.701594573150366,915 808 700 (informacion general) / 659 158 011 (visitas guiadas y talleres educativos),espacio@fundaciontelefonica.com,Museos
6017808,Fuente del Rey House-Museum,https://www.wikidata.org/entity/Q28808141,,"Martes a sabado, de 10 a 19 horas. Lunes, domingos y festivos cerrado. Visitas para grupos de hasta 25 personas dentro de los horarios de apertura. Pueden ser con guia propio o con guia de la Fundacion, y la duracion de la misma es de una hora, previa reserva telefonica o por email.",Sin metro,,161.,Sin Renfe,NO INFORMATION,http://www.madrid.es/sites/v/index.jsp?vgnextchannel=bfa48ab43d6bb410VgnVCM100000171f5a0aRCRD&vgnextoid=5c1260101310f210VgnVCM1000000b205a0aRCRD,CALLE FUENTE DEL REY,,11,Moncloa-Aravaca,https://wikidata.org/entity/Q2017682,40.45546866305681,-3.7705716814130965,913 579 116,info@fundacionamyc.org,FundacionesCulturales
103331,La Casa Encendida,https://www.wikidata.org/entity/Q5962732,"Edificio de caracter monumental. De estilo neomudejar, fue disenado por el arquitecto Fernando Arbos e inaugurado en el ano 1913. Cuenta con mas de 6000 metros cuadrados de instalaciones divididas en 4 plantas y una azotea. Centro social y cultural. ",De martes a domingo de 10 a 22 horas.,Acacias / Embajadores,https://www.wikidata.org/entity/Q2305840,"119, 27, 34, 36, 41, C03, C2, C1, 148, 60, 75, M1  ",Embajadores (linea C5)   ,"ACCESSIBLE,SIGN LANGUAGE,MAGNETIC LOOP",http://www.madrid.es/sites/v/index.jsp?vgnextchannel=bfa48ab43d6bb410VgnVCM100000171f5a0aRCRD&vgnextoid=c27f8899fc81c010VgnVCM1000000b205a0aRCRD,Ronda de Valencia,https://www.wikidata.org/entity/Q16626200,2,Centro,https://wikidata.org/entity/Q1763376,40.40596221830597,-3.6997720739017033,902 430 322,Sin email,MonumentosEdificiosArtisticos
5873478,Museo ABC,https://www.wikidata.org/entity/Q21564330,"Centro de arte, dibujo e ilustracion. ",Consultar.,San Bernardo,https://www.wikidata.org/entity/Q2055810,"M2, C1, C3, 1, 2, 3, 21, 44, 133, 147, 001, 002    ",Sin Renfe,ACCESSIBLE,http://www.madrid.es/sites/v/index.jsp?vgnextchannel=bfa48ab43d6bb410VgnVCM100000171f5a0aRCRD&vgnextoid=f0103fee6537c210VgnVCM1000000b205a0aRCRD,calle de Amaniel,https://www.wikidata.org/entity/Q24694982,29,Centro,https://wikidata.org/entity/Q1763376,40.42741121610518,-3.709539260414957,917 588 379,info_museo@abc.es,Museos
2067,Museo Africano Misioneros Combonianos,,,Grupos con cita previa telefonica o en la su web : de lunes a viernes de 9:30 a 13:30 horas.  Individuales: Visitas guiadas sin cita previa los domingos a las 11:30 horas.,Sin metro,,"11, 70, 114, 122, 115, 200.",Sin Renfe,NO INFORMATION,http://www.madrid.es/sites/v/index.jsp?vgnextchannel=bfa48ab43d6bb410VgnVCM100000171f5a0aRCRD&vgnextoid=6ab8ef4d7f71c010VgnVCM1000000b205a0aRCRD,calle de Arturo Soria,https://www.wikidata.org/entity/Q8255504,101,Ciudad Lineal,https://wikidata.org/entity/Q1763694,40.44946738556641,-3.651489872602189,914 152 412,Sin email,Museos
2050,National Archaeological Museum,https://www.wikidata.org/entity/Q1352282,"Fundado en 1867, el MAN se inauguro en 1895 en su actual sede, en el Palacio de Biblioteca y Museos, edificio proyectado por Francisco Jareno y terminado por Antonio Ruiz de Salces. ","De martes a sabados de 9:30 a 20 horas. Domingos y festivos de 9:30 a 15 horas.   Cerrado   Todos los lunes del ano. 1 y 6 de enero, 1 de mayo, 9 de noviembre, 24, 25 y 31 de diciembre.  Mas informacion horarios.",Serrano,https://www.wikidata.org/entity/Q2481179,"1, 9, 19, 51, 74  ","Recoletos (linea C1, C2, C7, C10 y Regional)   ","ACCESSIBLE,MAGNETIC LOOP",http://www.madrid.es/sites/v/index.jsp?vgnextchannel=bfa48ab43d6bb410VgnVCM100000171f5a0aRCRD&vgnextoid=8fd8ef4d7f71c010VgnVCM1000000b205a0aRCRD,Serrano Street,https://www.wikidata.org/entity/Q5740879,13,Salamanca,https://wikidata.org/entity/Q1773521,40.4232789604228,-3.6884121235090532,915 777 912,Sin email,Museos
2072,Museo Casa de la Moneda,https://www.wikidata.org/entity/Q39072661,,"De martes a viernes ininterrumpidamente de 10 a 17:30. Sabados, domingos y festivos de 10 a 14:15 horas. Cerrado los lunes (incluidos festivos), y los dias 1 y 6 de enero; 1 de mayo; 24, 25 y 31 de diciembre.",O'Donnell,https://www.wikidata.org/entity/Q2479913,"143, 156, 2, 30, 56, 71, C2, 28, 203.    ",Sin Renfe,"ACCESSIBLE,SIGN LANGUAGE",http://www.madrid.es/sites/v/index.jsp?vgnextchannel=bfa48ab43d6bb410VgnVCM100000171f5a0aRCRD&vgnextoid=12f8ef4d7f71c010VgnVCM1000000b205a0aRCRD,"Calle del Doctor Esquerdo, Madrid",https://www.wikidata.org/entity/Q5741005,36,Salamanca,https://wikidata.org/entity/Q1773521,40.42260021542579,-3.669139860245996,915 666 544,Sin email,Museos
4112,Museum Cerralbo,https://www.wikidata.org/entity/Q976019,"Este Palacio, construido entre 1883 y 1893, fue concebido como vivienda y como museo para sede de las obras de arte reunidas por los Marqueses de Cerralbo y sus hijos, los Marqueses de Villa Huerta, durante los numerosos viajes que realizaron por Espana y Europa. ","De martes a sabado de 9:30 a 15 horas. Jueves, apertura extraordinaria por la tarde, de 17 a 20 horas, excepto festivos. Entrada gratuita. Domingos y festivos de 10 a 15 horas. Domingos, entrada gratuita para todo el publico. Cerrado: todos los lunes, 1 y 6 de enero, 1 de mayo, 24, 25 y 31 de diciembre, una fiesta local.",Estacion de Plaza de Espana (Metro de Madrid),https://www.wikidata.org/entity/Q776249,"62, 74  ","Principe Pio (lineas C1, C7 y C10)   ","PARTIALLY ACCESSIBLE,MAGNETIC LOOP",http://www.madrid.es/sites/v/index.jsp?vgnextchannel=bfa48ab43d6bb410VgnVCM100000171f5a0aRCRD&vgnextoid=a4efb0c40971c010VgnVCM1000000b205a0aRCRD,calle de Ventura Rodriguez,https://www.wikidata.org/entity/Q28016771,17,Moncloa-Aravaca,https://wikidata.org/entity/Q2017682,40.423779252051425,-3.7145996063573756,915 473 646 / 915 473 647,museo.cerralbo@cultura.gob.es,Museos
10091450,Empresa Municipal de Transportes de Madrid Museum,https://www.wikidata.org/entity/Q117459440,"El Museo de la EMT se ha convertido en realidad tras una decada de duro trabajo de recuperacion, restauracion y reparacion del patrimonio historico de la Empresa Municipal de Transportes de Madrid, especialmente, material movil, mobiliario, piezas mecanicas, maquinaria y otros elementos inherentes a la actividad de la EMT en sus 70 anos de historia.  Pagina web:  https://museo.emtmadrid.es/ ","Visitas (con cita previa)  Apertura estacional durante seis meses al ano: todos los sabados de abril, mayo, junio, julio, septiembre y octubre), a las 10, a las 11:30 y a las 13 horas. Por ser un centro de trabajo unicamente pueden realizarse de forma organizada, previamente concertadas y limitadas a un maximo de 40 personas por turno. Duracion: 60 minutos aproximadamente. Compra de entradas y reserva de horarios a traves de la web: https://entradasmuseo.emtmadrid.es/?lang=es-ES.",Begona,https://www.wikidata.org/entity/Q2482166,"66, 173, 174, 176, 191, 193, 194, 195, 196, 197, 712, 713, 714, 716, L171.",Sin Renfe,NOT ACCESSIBLE,http://www.madrid.es/sites/v/index.jsp?vgnextchannel=bfa48ab43d6bb410VgnVCM100000171f5a0aRCRD&vgnextoid=d56ad05b2a255510VgnVCM2000001f4a900aRCRD,CALLE MAURICIO LEGENDRE,,40,Chamartin,https://wikidata.org/entity/Q1766348,40.480173612860305,-3.6831595451893273,914 068 810,Sin email,AyuntamientoMadrid/OrganismosEmpresasMunicipales
10237457,Museo Felix Canada,,"Una seleccion de mas de quinientas obras de arte de entre las cerca de mil de la donacion original, constituyen la Coleccion Permanente que se puede visitar en las salas del Museo Felix Canada de la Fundacion Gomez Pardo, adscrita a la Escuela Tecnica Superior de Ingenieros de Minas y Energia de la Universidad Politecnica de Madrid. Donada por el ingeniero de minas Doctor Felix Canada Guerrero a la Fundacion Gomez Pardo, reune una amplia representacion de trabajos de destacados artistas, pintores, escultores, ilustradores, grabadores, orfebres, ceramistas, etc. abarcando diferentes periodos desde el siglo XI hasta nuestros dias. ","Lunes, miercoles y viernes, de 10 a 13 horas. .",Rios Rosas,https://www.wikidata.org/entity/Q2479349,"45, 12, 149, 3, 37.   ",Sin Renfe,NO INFORMATION,http://www.madrid.es/sites/v/index.jsp?vgnextchannel=bfa48ab43d6bb410VgnVCM100000171f5a0aRCRD&vgnextoid=cb22820a52799510VgnVCM1000001d4a900aRCRD,"Calle Alenza, Madrid",https://www.wikidata.org/entity/Q27313964,1,Chamberi,https://wikidata.org/entity/Q1763370,40.442581673356834,-3.700796192332983,914 417 921,museo@fgomezpardo.es,Museos
2074,Museo Geominero,https://www.wikidata.org/entity/Q13532751,"Los objetivos del Museo Geominero son conservar, investigar y difundir la riqueza y diversidad del patrimonio geologico, paleontologico y mineralogico a traves de las importantes colecciones de minerales, rocas y fosiles procedentes de todas las regiones espanolas y de antiguos territorios coloniales, asi como de yacimientos significados del registro mundial. ","De lunes a domingo y festivos de 9 a 14 horas. Cerrado los dias 1 y 6 de enero y 24, 25 y 31 de diciembre.",Rios Rosas,https://www.wikidata.org/entity/Q2479349,"45, 12, 149, 3, 37, 5.   ",Sin Renfe,NO INFORMATION,http://www.madrid.es/sites/v/index.jsp?vgnextchannel=bfa48ab43d6bb410VgnVCM100000171f5a0aRCRD&vgnextoid=ff0bef4d7f71c010VgnVCM1000000b205a0aRCRD,Calle de Rios Rosas,https://www.wikidata.org/entity/Q27267331,23,Chamberi,https://wikidata.org/entity/Q1763370,40.442047952073665,-3.699670468881422,913 495 759,m.geominero@igme.es,Museos
2075,Museo Historico Minero Don Felipe de Borbon y Grecia,https://www.wikidata.org/entity/Q53997723,Ubicado en la Escuela Tecnica Superior de Ingenieros de Minas de Madrid ,Consultar.,Rios Rosas,https://www.wikidata.org/entity/Q2479349,"3, 12, 37, 45, 149   ",Sin Renfe,NO INFORMATION,http://www.madrid.es/sites/v/index.jsp?vgnextchannel=bfa48ab43d6bb410VgnVCM100000171f5a0aRCRD&vgnextoid=822bef4d7f71c010VgnVCM1000000b205a0aRCRD,Calle de Rios Rosas,https://www.wikidata.org/entity/Q27267331,21,Chamberi,https://wikidata.org/entity/Q1763370,40.44209227424258,-3.7003734646151534,910 676 304,Sin email,Museos
18176,Museo ICO,https://www.wikidata.org/entity/Q60829823,,"De martes a sabados: de 11 a 20 horas.   Domingos y festivos: de 10 a 14 horas.    Cerrado: Todos los lunes del ano.  Horarios especiales: 24 y 31 de diciembre de 10 a 14 horas. 1 de enero, 1 de mayo y 25 de diciembre cerrado.",Sevilla,https://www.wikidata.org/entity/Q2056503,"53, 15, 20, 002, 51, M1, 150, 5   ",Sin Renfe,NO INFORMATION,http://www.madrid.es/sites/v/index.jsp?vgnextchannel=bfa48ab43d6bb410VgnVCM100000171f5a0aRCRD&vgnextoid=2886444a2951c010VgnVCM2000000c205a0aRCRD,Calle de Zorrilla,https://www.wikidata.org/entity/Q29352014,3,Centro,https://wikidata.org/entity/Q1763376,40.41676546905435,-3.6977222605477635,914 201 242,museoico@ico.es,Museos
6019032,Museo Los Canos del Peral. Estacion de Metro opera,,"A diez metros bajo la plaza de Isabel II, la estacion de Metro opera (L2, L5 y Ramal Norte) alberga la recreacion museistica de la historica fuente de los Canos del Peral. La visita nos permite conocer la fuente que recogia el agua de manantial junto al arroyo del Arenal durante la segunda mitad del sigloXVI, y que tenia en origen 34 metros de longitud; la galeria de abastecimiento en boveda de canon y la alcantarilla de la zona; y el acueducto que, salvando al barranco del arroyo del Arenal, surtio de agua al Palacio Real desde el siglo XVII hasta practicamente el siglo XX. ",Previa reserva en la pagina museosmetromadrid.es.  Viernes: de 16 a 20 horas. Sabados: de 10 a 14 horas y de 16 a 20 horas. Domingos: de 10 a 14 horas.,Opera,https://www.wikidata.org/entity/Q2736048,Sin buses,Sin Renfe,ACCESSIBLE,http://www.madrid.es/sites/v/index.jsp?vgnextchannel=bfa48ab43d6bb410VgnVCM100000171f5a0aRCRD&vgnextoid=435950262d50f210VgnVCM2000000c205a0aRCRD,Plaza de Isabel II,https://www.wikidata.org/entity/Q6079993,1,Centro,https://wikidata.org/entity/Q1763376,40.41775560280743,-3.709202070089538,644 169 531,info@museosmetromadrid.es,Museos
2053,Lazaro Galdiano Museum,https://www.wikidata.org/entity/Q386570,,"Martes a domingo, de 9:30 a 15 horas. Lunes cerrado.",Gregorio Maranon,https://www.wikidata.org/entity/Q2056442,"16, 19, 51, 9, 12, 61   ",Sin Renfe,ACCESSIBLE,http://www.madrid.es/sites/v/index.jsp?vgnextchannel=bfa48ab43d6bb410VgnVCM100000171f5a0aRCRD&vgnextoid=7d1aef4d7f71c010VgnVCM1000000b205a0aRCRD,Serrano Street,https://www.wikidata.org/entity/Q5740879,122,Salamanca,https://wikidata.org/entity/Q1773521,40.43675593917329,-3.6861820403705816,915 616 084,Sin email,MonumentosEdificiosArtisticos
5349304,Museo Nacional Centro de Arte Reina Sofia,https://www.wikidata.org/entity/Q460889,"Edificio Sabatini: calle Santa Isabel 52.  Edificio Nouvel (ampliacion): ronda de Atocha, esquina a plaza del Emperador Carlos V.  Espacios en el parque del Retiro: Palacio de Velazquez y Palacio de Cristal. ","Lunes y de miercoles a sabado, de 10 a 21 horas. Martes cerrado (incluso festivos). Domingos de 10 a 14:30 horas. Dias de cierre 1 y 6 de enero, 1 de mayo, 15 de mayo, 9 de noviembre, 24, 25 y 31 de diciembre.",Estacion del Arte,https://www.wikidata.org/entity/Q2016175,"27, 34, C03, C1, 26, 32, 6, 59, 85, E1, C2, 119, 36, 41, 001, 10, 14, 37, 45.  ","Atocha (lineas C1, C2, C3, C4, C4a, C4b, C5, C7, C8, C10).   ",ACCESSIBLE,http://www.madrid.es/sites/v/index.jsp?vgnextchannel=bfa48ab43d6bb410VgnVCM100000171f5a0aRCRD&vgnextoid=69d8275bad5a1210VgnVCM2000000c205a0aRCRD,calle de Santa Isabel,https://www.wikidata.org/entity/Q2882669,52,Centro,https://wikidata.org/entity/Q1763376,40.40864029339671,-3.6939504103293244,917 741 000,info@museoreinasofia.es,Museos
2099,Thyssen-Bornemisza Museum,https://www.wikidata.org/entity/Q176251,"El palacio donde se ubica la coleccion fue el antiguo palacio del duque de Villahermosa. Edificacion neoclasica. Posteriormente se adapta como entidad bancaria perdiento sus espacios interiores. Mas tarde, paso a formar parte de los edificios del Museo del Prado. Desde principios de los 90 alberga la Coleccion Thyssen. El museo ofrece un recorrido por la historia de la pintura europea desde sus inicios en el siglo XIII, hasta finales del siglo XX. Arquitecto: Antonio Lopez Aguado (1805 - 1806).  Adecuacion: Rafael Moneo (1989 - 1992).  Ampliacion: BOPBAA (1999 - 2004).","Colecciones permanentes:  lunes de 12 a 16 horas (acceso gratuito gracias al patrocinio de MasterCard). Martes a domingo de 10 a 19 horas.   Exposiciones temporales: consultar horario especifico en la web del museo.  Avisos y aperturas extraordinarias: los dias 1 de enero, 1 de mayo y 25 de diciembre el Museo permanecera cerrado. El 24 y el 31 de diciembre el horario de apertura del Museo sera de 10 a 15 horas.  El desalojo de las salas tendra lugar 5 minutos antes del cierre.",Banco de Espana,https://www.wikidata.org/entity/Q2481227,"001, 10, 14, 27, 34, 37, 45, C03.    ",Sin Renfe,ACCESSIBLE,http://www.madrid.es/sites/v/index.jsp?vgnextchannel=bfa48ab43d6bb410VgnVCM100000171f5a0aRCRD&vgnextoid=0b8079262ef5d010VgnVCM1000000b205a0aRCRD,Paseo del Prado,https://www.wikidata.org/entity/Q2079615,8,Centro,https://wikidata.org/entity/Q1763376,40.41601631762229,-3.694738346891257,917 911 370,cavthyssen@museothyssen.org,MonumentosEdificiosArtisticos
2057,Museo Nacional de Antropologia,https://www.wikidata.org/entity/Q2917041,"El Museo esta instalado en el edificio de estilo clasicista construido por el Marques de Cubas en 1875 por encargo del Doctor Gonzalez Velasco, fundador de la institucion. ","De martes a sabado de 9:30 a 20 horas. Domingos: de 10 a 15 horas. Cerrado todos los lunes del ano y los dias 1 y 6 de enero, 1 de mayo, 24, 25 y 31 de diciembre y un festivo local. La taquilla se cerrara 15 minutos antes del cierre.",Estacion del Arte,https://www.wikidata.org/entity/Q2016175,"19, C1, 10, 14, 26, 32, 102, 37, 001, C2, 59, SE760, 203, 85, 141, 54, 57.  ","Atocha (lineas C1, C2, C3, C4, C4a, C4b, C5, C7, C8, C10 y Regional)   ","ACCESSIBLE,MAGNETIC LOOP",http://www.madrid.es/sites/v/index.jsp?vgnextchannel=bfa48ab43d6bb410VgnVCM100000171f5a0aRCRD&vgnextoid=456079262ef5d010VgnVCM1000000b205a0aRCRD,Calle de Alfonso XII,https://www.wikidata.org/entity/Q5659170,68,Retiro,https://wikidata.org/entity/Q2002296,40.407887537677716,-3.688862923660605,915 306 418 / 915 395 995,antropologico@cultura.gob.es,Museos
2055,Museo Nacional de Artes Decorativas,https://www.wikidata.org/entity/Q5361303,"Inaugurado en 1912, su sede es un tipico palacete madrileno del ultimo tercio del siglo XIX. El museo posee muebles, ceramicas, vidrios, joyas, tejidos, arte oriental, y hasta 30 000 objetos distintos que a lo largo de la historia han servido para embellecer las casas, palacios y los monumentos de distintas culturas. El museo posee muestras como el Jarron de Sevres regalo de Napoleon III, la Cocina Valenciana del siglo XVIII compuesta por mas de 1500 azulejos de Manises, la Mesa de plata del siglo XVI o la coleccion de alfombras espanolas de los siglos XV al XVII. El Museo dispone de una rampa de acceso al edificio en la calle Montalban. Para su uso, es necesario avisar con antelacion al personal del Museo.El acceso a las diferentes plantas, puede realizarse mediante ascensor. Debido a las dimensiones del mismo, es necesario emplear en el las sillas de ruedas que el Museo pone a su disposicion, previa solicitud.","Martes a sabados de 9:30 a 15 horas. Domingo y festivos: de 10 a 15 horas. Jueves tarde de 17 a 20 horas (excepto julio y agosto).  Cerrado:  todos los lunes, 1 y 6 de enero, 1 y 15 de mayo, 24, 25 y 31 de diciembre.    La venta de entradas finalizara 30 minutos antes del cierre.",Banco de Espana,https://www.wikidata.org/entity/Q2481227,"19, E1, 203, 14, 27, 37, 45, C03, 1, 146, 15, 2, 20, 51, 52, 74, 9, 10, 34, 001   ",Sin Renfe,"PARTIALLY ACCESSIBLE,MAGNETIC LOOP",http://www.madrid.es/sites/v/index.jsp?vgnextchannel=bfa48ab43d6bb410VgnVCM100000171f5a0aRCRD&vgnextoid=287079262ef5d010VgnVCM1000000b205a0aRCRD,"Calle de Montalban, Madrid",https://www.wikidata.org/entity/Q29903983,12,Retiro,https://wikidata.org/entity/Q2002296,40.417896616053866,-3.689754509701677,915 326 499,Sin email,MonumentosEdificiosArtisticos
2056,National Museum of Natural History,https://www.wikidata.org/entity/Q1966699,,"De martes a viernes de 10 a 17 horas. Sabados, domingos y festivos de 10 a 20 horas. Agosto,de 10 a 15 horas. Cerrado los lunes (excepto los festivos). Cerrado el 1 y 6 de enero, el 1 de mayo y el 25 de diciembre. Los dias 24 y 31 de diciembre el museo permanecera abierto de 10 a 15 horas.",Gregorio Maranon,https://www.wikidata.org/entity/Q2056442,"12, 45, 14, 147, 150, 27, 40, 7   ",Sin Renfe,"ACCESSIBLE,MAGNETIC LOOP",http://www.madrid.es/sites/v/index.jsp?vgnextchannel=bfa48ab43d6bb410VgnVCM100000171f5a0aRCRD&vgnextoid=8edbef4d7f71c010VgnVCM1000000b205a0aRCRD,CALLE JOSE GUTIERREZ ABASCAL,,2,Chamartin,https://wikidata.org/entity/Q1766348,40.44042600324054,-3.690212174964136,Sin telefono,Sin email,MonumentosEdificiosArtisticos
2076,Naval Museum of Madrid,https://www.wikidata.org/entity/Q1815235,,"De martes a domingo de 10 a 19 horas. Durante el mes de agosto, horario reducido de 10 a 15 horas. Cerrados lunes, 1 y 6 de enero, 1 de mayo, 24, 25 y 31 de diciembre.",Banco de Espana,https://www.wikidata.org/entity/Q2481227,"002, M1, SE712, 26, 32, 6   ",Sin Renfe,ACCESSIBLE,http://www.madrid.es/sites/v/index.jsp?vgnextchannel=bfa48ab43d6bb410VgnVCM100000171f5a0aRCRD&vgnextoid=a30cef4d7f71c010VgnVCM1000000b205a0aRCRD,Paseo del Prado,https://www.wikidata.org/entity/Q2079615,3,Retiro,https://wikidata.org/entity/Q2002296,40.417817776538435,-3.6927096854547727,915 238 516,museonavalmadrid@fn.mde.es,Museos
2085,Postal and Telegraph museum,https://www.wikidata.org/entity/Q64071045,"El  Museo Postal y Telegrafico ofrece al visitante un recorrido tematico y cronologico a traves  de la historia de las comunicaciones, desde la mas tradicional, la carta, hasta las comunicaciones por satelite. En este museo se conservan y exhiben los fondos postales y de telecomunicacion desde los primeros hitos conocidos hasta nuestros dias. ",Consultar,Sin metro,,Sin buses,Sin Renfe,ACCESSIBLE,http://www.madrid.es/sites/v/index.jsp?vgnextchannel=bfa48ab43d6bb410VgnVCM100000171f5a0aRCRD&vgnextoid=c82cef4d7f71c010VgnVCM1000000b205a0aRCRD,CALLE TAPIA DE CASARIEGO,,6,Moncloa-Aravaca,https://wikidata.org/entity/Q2017682,40.46772394620028,-3.7690769512163045,917 401 440 / 917 400 668,info@museopostalytelegrafico.com,Museos
4997114,Sorolla Museum,https://www.wikidata.org/entity/Q1592523,,"De martes a sabado: de 9:30 a 20 horas. Domingos y festivos: de 10 a 15 horas. Cerrado: todos los lunes del ano, 1 y 6 de enero, 1 de mayo, 9 noviembre, 24, 25 y 31 de diciembre .",Ruben Dario,https://www.wikidata.org/entity/Q2056886,"16, 5, 61, 147, 40, 7.   ",Sin Renfe,PARTIALLY ACCESSIBLE,http://www.madrid.es/sites/v/index.jsp?vgnextchannel=bfa48ab43d6bb410VgnVCM100000171f5a0aRCRD&vgnextoid=6dd05e93aad9c110VgnVCM1000000b205a0aRCRD,paseo del General Martinez Campos,https://www.wikidata.org/entity/Q26792155,37,Chamberi,https://wikidata.org/entity/Q1763370,40.43525811195212,-3.69257053914393,913 101 584,museo.sorolla@cultura.gob.es,Museos
2077,Museo Taurino de Madrid,https://www.wikidata.org/entity/Q27500479,,"Todos los dias del ano de 10 a 15 horas, excepto el 25 de diciembre y el 1 de enero. Los dias que se celebren festejos de cualquier tipo en el recinto, las visitas terminaran 2 horas antes del comienzo del espectaculo.??",Ventas,https://www.wikidata.org/entity/Q2014690,"106, 110, 146, 21, 210, 38, 53.   ",Sin Renfe,NO INFORMATION,http://www.madrid.es/sites/v/index.jsp?vgnextchannel=bfa48ab43d6bb410VgnVCM100000171f5a0aRCRD&vgnextoid=958cef4d7f71c010VgnVCM1000000b205a0aRCRD,Alcala Street,https://www.wikidata.org/entity/Q2424746,237,Salamanca,https://wikidata.org/entity/Q1773521,40.431581087036655,-3.6628632167710227,912 761 287,museotaurinolasventas@madrid.org,Museos
2101,Typhlological Museum,https://www.wikidata.org/entity/Q109568487,Edificio con una superficie de 1.500 m2 dividido en tres zonas con maquetas de monumentos nacionales e internacionales realizadas por invidentes e instrumentos utilizados por los invidentes desde hace 200 anos. Es un espacio concebido para que sus visitantes puedan ver y tocar las piezas expuestas. ,"Martes a viernes, de 10 a 15 horas y de 16 a 19 horas. Sabados de 10 a 14 horas. Cerrado: lunes, domingos y festivos. Consultar cierres especiales en https://museo.once.es/",Estrecho,https://www.wikidata.org/entity/Q2055525,"3, 43, 124, 124, 126, 128",Sin Renfe,"ACCESSIBLE,TACTILE PAVING",http://www.madrid.es/sites/v/index.jsp?vgnextchannel=bfa48ab43d6bb410VgnVCM100000171f5a0aRCRD&vgnextoid=baacef4d7f71c010VgnVCM1000000b205a0aRCRD,CALLE LA CORU&amp;Ntilde;A,,18,Tetuan,https://wikidata.org/entity/Q1773540,40.45525267846033,-3.700169379369277,915 894 219,museo@once.es,Museos
2068,Museo de Aeronautica y Astronautica,https://www.wikidata.org/entity/Q11057120,"El museo tiene por finalidad la adquisicion, conservacion y exposicion de los bienes que constituyen el Patrimonio Historico de la Aeronautica Espanola. Dispone de una exposicion exterior y siete hangares que albergan aeronaves, uniformes, condecoraciones, motores, maquetas y otros fondos relacionados con la aviacion. Terminada la Guerra Civil y una vez creado el Ejercito del Aire, se concibe la idea de crear un museo que reflejara la evolucion e historia de nuestra aeronautica. Desde 1975 el Museo esta en Cuatro Vientos y se han sucedido varias ampliaciones que le convierten en un referente europeo de la aeronautica. ","De martes a domingo de 10 a 14 horas. Cerrado: 1 y 6 de enero, jueves y viernes Santos, 10 de diciembre (patrona de la aviacion), 24, 25 y 31 de diciembre y dias establecidos en el calendario anual.",Sin metro,,Sin buses,Sin Renfe,NO INFORMATION,http://www.madrid.es/sites/v/index.jsp?vgnextchannel=bfa48ab43d6bb410VgnVCM100000171f5a0aRCRD&vgnextoid=90aaef4d7f71c010VgnVCM1000000b205a0aRCRD,AUTOVIA A-5,,10.700,Latina,https://wikidata.org/entity/Q794954,40.37362,-3.80843,915 095 644 / 915 095 676 / 915 091 690 (fines de semana),museodelaire@ea.mde.es,Museos
2091,Museum of the Americas,https://www.wikidata.org/entity/Q2568412,,"De martes a sabado, de 9:30 a 15 horas. Jueves, apertura continuada de 9:30 a 19 horas. Domingos y festivos de 10 a 15 horas.   Cerrado todos los lunes del ano, 1 de enero, 1 de mayo, 24, 25 y 31 de diciembre, 6 de enero y un festivo local.",Moncloa,https://www.wikidata.org/entity/Q2449141,"160, 161, A, 132, 133, 162, 46, 82, 83, G, U.   ",Sin Renfe,"ACCESSIBLE,MAGNETIC LOOP",http://www.madrid.es/sites/v/index.jsp?vgnextchannel=bfa48ab43d6bb410VgnVCM100000171f5a0aRCRD&vgnextoid=c929ef4d7f71c010VgnVCM1000000b205a0aRCRD,avenida de los Reyes Catolicos,https://www.wikidata.org/entity/Q26791531,6,Moncloa-Aravaca,https://wikidata.org/entity/Q2017682,40.43793725485899,-3.7218544182655786,915 492 641 / 915 439 437,museo.america@cultura.gob.es,Museos
83922,Museo de Arte Contemporaneo,https://www.wikidata.org/entity/Q6940528,"Al igual que otros museos de arte contemporaneo, nacionales o extranjeros, se ha utilizado un edificio historico para albergar las colecciones: el Cuartel del Conde Duque. El Museo de Arte Contemporaneo recupera para los madrilenos el despacho del escritor vanguardista Ramon Gomez de la Serna, como parte de su coleccion permanente. ","De martes a viernes: de 10 a 14 horas y de 15 a 21 horas. Sabados: de 10 a 14 horas y de 17:30 a 21 horas. Domingos y festivos: de 10:30 a 14:30 horas.   Horario de verano: del 15 de junio al 15 de septiembre, ambos inclusive.  De martes a viernes: de 10 a 14 horas y de 15 a 20 horas. Sabados: de 10 a 14 horas y de 17:30 a 20 horas. Domingos y festivos: de 10:30 a 13:30 horas.   Cerrado: todos lunes y los dias 1 y 6 de enero, 1 de mayo y 24, 25 y 31 de diciembre. Las salas se desalojan 15 minutos antes del cierre.",Ventura Rodriguez,https://www.wikidata.org/entity/Q2378663,"1, 2, 21, 44, 74, 133, C, M2   ",Sin Renfe,"ACCESSIBLE,MAGNETIC LOOP",http://www.madrid.es/sites/v/index.jsp?vgnextchannel=bfa48ab43d6bb410VgnVCM100000171f5a0aRCRD&vgnextoid=84a55c2cdc41c010VgnVCM2000000c205a0aRCRD,calle del Conde Duque,https://www.wikidata.org/entity/Q27031730,9,Centro,https://wikidata.org/entity/Q1763376,40.42737760210632,-3.7106116887809817,Telefono de sala: 914 801 766,mmacmdifusion@madrid.es,Museos
2092,Museo de Astronomia y Geodesia,,"El museo de Astronomia y Geodesia de la Universidad Complutense de Madrid agrupa una importante coleccion de instrumentos de Astronomia, Geodesia y Topografia, reunidos con el afan didactico de dar a conocer la evolucion de los metodos utilizados en estas disciplinas durante los ultimos 150 anos. ",Visita con cita previa.,Ciudad Universitaria,https://www.wikidata.org/entity/Q2482378,"132, F, 82, G, U.   ",Sin Renfe,NO INFORMATION,http://www.madrid.es/sites/v/index.jsp?vgnextchannel=bfa48ab43d6bb410VgnVCM100000171f5a0aRCRD&vgnextoid=ee49ef4d7f71c010VgnVCM1000000b205a0aRCRD,PLAZA CIENCIAS,,3,Moncloa-Aravaca,https://wikidata.org/entity/Q2017682,40.44945850908754,-3.7259383636708434,91 394 4588,fuensant@ucm.es,Museos
5727435,Museo de Bomberos de Madrid,https://www.wikidata.org/entity/Q113329713,,"Lunes, miercoles y viernes: 10:00 y 12:00 horas (martes, jueves y fin de semana, cerrado)",Buenos Aires,https://www.wikidata.org/entity/Q2479851,141 y 143,Sin Renfe,ACCESSIBLE,http://www.madrid.es/sites/v/index.jsp?vgnextchannel=bfa48ab43d6bb410VgnVCM100000171f5a0aRCRD&vgnextoid=9f0966a8bba49210VgnVCM2000000c205a0aRCRD,CALLE BOADA,,4,Puente de Vallecas,https://wikidata.org/entity/Q2003054,40.39453171263195,-3.6539313207612207,Actualmente no disponible.,museobomberosmadrid@madrid.es,Museos
2090,Museo de Calcografia Nacional,,"La institucion posee la mas importante coleccion de laminas de grabado calcografico de Espana. El numero de matrices metalicas supera las ocho mil obras, abarcando un amplio periodo cronologico, desde el siglo XVI al XXI. ",Consultar en la web.,Sol,https://www.wikidata.org/entity/Q1766008,"M1, 002, 52, 46, 002, 51, 150, 5, 15, 20.  ","Sol (lineas C3, C4 y Regional).   ",NO INFORMATION,http://www.madrid.es/sites/v/index.jsp?vgnextchannel=bfa48ab43d6bb410VgnVCM100000171f5a0aRCRD&vgnextoid=7169ef4d7f71c010VgnVCM1000000b205a0aRCRD,Alcala Street,https://www.wikidata.org/entity/Q2424746,13,Centro,https://wikidata.org/entity/Q1763376,40.4176555144213,-3.7006500629589394,915 240 864,Sin email,Museos
2084,Wax Museum of Madrid,https://www.wikidata.org/entity/Q15121263,,"Lunes a domingo, de 11 a 19 horas.",Colon,https://www.wikidata.org/entity/Q2481248,"14, 150, 27, 45, 5, 53, 21, 37, C03  ","Recoletos (lineas C1, C2, C7, C10)   ",PARTIALLY ACCESSIBLE,http://www.madrid.es/sites/v/index.jsp?vgnextchannel=bfa48ab43d6bb410VgnVCM100000171f5a0aRCRD&vgnextoid=9689ef4d7f71c010VgnVCM1000000b205a0aRCRD,Paseo de Recoletos,https://www.wikidata.org/entity/Q2550870,41,Centro,https://wikidata.org/entity/Q1763376,40.42448764583997,-3.6913807191328303,913 199 330,info@museoceramadrid.com,Museos
2071,Museo de Escultura al Aire Libre de La Castellana,https://www.wikidata.org/entity/Q2283575,"El Museo de Escultura al Aire Libre de La Castellana, esta situado bajo el paso elevado que une las calles de Juan Bravo y Eduardo Dato, contiene una excelente coleccion de escultura abstracta espanola. ",Entrada libre. Espacio urbano abierto Abierto 24 horas al dia los 365 dias del ano.,Ruben Dario,https://www.wikidata.org/entity/Q2056886,"5, 14, 27, 45, 150  BICIMAD: Estacion 142 (Paseo de la Castellana n&amp;ordm;42)",Sin Renfe,ACCESSIBLE,http://www.madrid.es/sites/v/index.jsp?vgnextchannel=bfa48ab43d6bb410VgnVCM100000171f5a0aRCRD&vgnextoid=eca9ef4d7f71c010VgnVCM1000000b205a0aRCRD,Paseo de la Castellana,https://www.wikidata.org/entity/Q1473674,40,Salamanca,https://wikidata.org/entity/Q1773521,40.433219398671156,-3.6876122680805956,915 885 921,mmacmdifusion@madrid.es,MonumentosEdificiosArtisticos
2054,Museo de Historia de Madrid,https://www.wikidata.org/entity/Q876383,Fue creado como museo municipal en 1929 y rebautizado como Museo de Historia de Madrid en 2007. En el ano 2014 se hace una profunda remodelacion y reabre sus puertas con un montaje moderno y una puesta al dia de sus colecciones. Accesibilidad fisica:   Rampa de acceso a la entrada. Ascensores. Aseos adaptados. Silla de ruedas.,"De martes a domingos de 10 a 20 horas.  Verano: de martes a domingos de 10 a 19 horas.  Cerrado: lunes y los dias 1 y 6 de enero, 1 de mayo,  24, 25 y 31 de diciembre.   El desalojo de las salas se hara diez minutos antes del cierre.",Tribunal,https://www.wikidata.org/entity/Q2479844,"3, 21, 37, 40, 147 y 149. BICIMAD: Estacion 54 (Calle Barcelo 7) Aparcamiento publico: Barcelo.",Sin Renfe,"ACCESSIBLE,MAGNETIC LOOP",http://www.madrid.es/sites/v/index.jsp?vgnextchannel=bfa48ab43d6bb410VgnVCM100000171f5a0aRCRD&vgnextoid=8f3079262ef5d010VgnVCM1000000b205a0aRCRD,calle de Fuencarral,https://www.wikidata.org/entity/Q5740840,78,Centro,https://wikidata.org/entity/Q1763376,40.42577054821346,-3.700845660719608,917 011 863,smuseosm@madrid.es,MonumentosEdificiosArtisticos
4545827,Museo de Historia de la Comunidad Judia de Madrid,,,,Iglesia,https://www.wikidata.org/entity/Q1113361,"16, 61, 3, 37, 149, 5   ",Sin Renfe,ACCESSIBLE,http://www.madrid.es/sites/v/index.jsp?vgnextchannel=bfa48ab43d6bb410VgnVCM100000171f5a0aRCRD&vgnextoid=8f2a4a659ee71110VgnVCM1000000b205a0aRCRD,Calle de Balmes,,3,Chamberi,https://wikidata.org/entity/Q1763370,40.43543567370733,-3.7000203622984,915 913 131,info@cjmadrid.org,Museos
2095,Museo de Mineralogia,,,"Lunes a viernes, de 10:30 a 14:30 horas (concertar previamente).",Sin metro,,Sin buses,"Cantoblanco (lineas C4, C4a y Cb).",ACCESSIBLE,http://www.madrid.es/sites/v/index.jsp?vgnextchannel=bfa48ab43d6bb410VgnVCM100000171f5a0aRCRD&vgnextoid=255aef4d7f71c010VgnVCM1000000b205a0aRCRD,CALLE FRANCISCO TOMAS Y VALIENTE,,7,Fuencarral-El Pardo,https://wikidata.org/entity/Q656196,40.54537941407227,-3.6951833197962536,914 974 819 / 914 972 564 / 914 974 800,museo.mineralogia@uam.es,Museos
2112,Museo de San Isidro,https://www.wikidata.org/entity/Q5556798,"Este espacio museografico propone un viaje por la historia de la ciudad de Madrid desde la Prehistoria hasta el establecimiento de la Corte, a traves de distintas salas como la de San Isidro, el Patio renacentista, el Jardin arqueobotanico o el Almacen visitable. ","De martes a domingo y festivos de 10 a 20 horas.  ultimo pase de visita 15 minutos antes del cierre.    Verano, del 15 de junio al 15 de septiembre: de martes a domingo de 10 a 19 horas.  Cerrado todos los lunes, el 1 y 6 de enero, el 1 de mayo y los dias 24, 25 y 31 de diciembre.",La Latina,https://www.wikidata.org/entity/Q1115250,"3 , 17 , 18 , 23 , 35 , 60 , 65 , 148 BICIMAD: Estacion 38 (Carrera de San Francisco 1)",Sin Renfe,"PARTIALLY ACCESSIBLE,MAGNETIC LOOP",http://www.madrid.es/sites/v/index.jsp?vgnextchannel=bfa48ab43d6bb410VgnVCM100000171f5a0aRCRD&vgnextoid=7b7aef4d7f71c010VgnVCM1000000b205a0aRCRD,plaza de San Andres,https://www.wikidata.org/entity/Q27213851,2,Centro,https://wikidata.org/entity/Q1763376,40.41207900253883,-3.7108161027466378,913 667 415,museosanisidro@madrid.es,Museos
85301,Museo de Sanidad e Higiene Publica,,"El Museo de Sanidad e Higiene Publica se comenzo a desarrollar en el ano 1995 y es un centro unico en su especialidad en Espana. Esta ubicado en el Pabellon 14 del campus de Chamartin en el Instituto de Salud Carlos III, que albergaba los laboratorios del Hospital Nacional de Enfermedades Infecciosas, conocido como Hospital del Rey. El objetivo es gestionar para su difusion y conservacion las colecciones de objetos, libros y documentos que reflejan los aspectos mas significativos de la historia y evolucion de la salud publica en nuestro pais. De ese modo se busca la promocion de la investigacion en este campo facilitando a los investigadores, profesores y tecnicos que lo necesiten, apoyo tecnico especializado. ","Visitas guiadas de grupo con cita previa: de lunes a viernes laborables, a las 10 horas.",Estacion de Chamartin,https://www.wikidata.org/entity/Q19950924,"124, 134, 135, 67, 147.  ","Chamartin (lineas C1, C2, C3, C3a, C4, C4a, C4b, C7, C8 y C10).",NO INFORMATION,http://www.madrid.es/sites/v/index.jsp?vgnextchannel=bfa48ab43d6bb410VgnVCM100000171f5a0aRCRD&vgnextoid=3e755c2cdc41c010VgnVCM2000000c205a0aRCRD,"Avenida de Monforte de Lemos, Madrid",https://www.wikidata.org/entity/Q52683954,5,Fuencarral-El Pardo,https://wikidata.org/entity/Q656196,40.47546597881768,-3.6900603941123107,918 222 414,museodesanidad@isciii.es,Museos
4566286,Museo de la Catedral de la Almudena,https://www.wikidata.org/entity/Q107611898,"Para solicitar reserva de visita guiada, escriba a reservasmuseo@catedraldelaalmudena.es.","De lunes a sabado de 10 a 14:30 horas.   Cerrado los domingos, fiestas de precepto y dias de actos de culto especiales en la Catedral. Consultar  Agenda .",Opera,https://www.wikidata.org/entity/Q2736048,"148, 3.   ",Sin Renfe,ACCESSIBLE,http://www.madrid.es/sites/v/index.jsp?vgnextchannel=bfa48ab43d6bb410VgnVCM100000171f5a0aRCRD&vgnextoid=82cb8d0e78d22110VgnVCM1000000b205a0aRCRD,Calle de Bailen,https://www.wikidata.org/entity/Q5740811,10,Centro,https://wikidata.org/entity/Q1763376,40.4155496711662,-3.7136674233151394,915 592 874,reservasmuseo@catedraldelaalmudena.es,Museos
2073,Museo de la Farmacia Hispana,https://www.wikidata.org/entity/Q105942790,,"El Museo de la Farmacia Hispana solo puede visitarse realizando una reserva con antelacion.La visita es gratuita, guiada y tiene una duracion aproximada de 1 hora y media. Se realizan durante el curso lectivo, de lunes a viernes y en horario de manana.",Ciudad Universitaria,https://www.wikidata.org/entity/Q2482378,"132, 82, G, U, I   ",Sin Renfe,PARTIALLY ACCESSIBLE,http://www.madrid.es/sites/v/index.jsp?vgnextchannel=bfa48ab43d6bb410VgnVCM100000171f5a0aRCRD&vgnextoid=58f9ef4d7f71c010VgnVCM1000000b205a0aRCRD,PLAZA RAMON Y CAJAL,,0,Moncloa-Aravaca,https://wikidata.org/entity/Q2017682,40.4445328804645,-3.7262160043788155,913 941 797,museofar@ucm.es,Museos
2107,Museo de la Guardia Civil,https://www.wikidata.org/entity/Q110560070,,Horario: de lunes a viernes de 9 a 13:30 horas con cita previa.,Guzman el Bueno,https://www.wikidata.org/entity/Q2482402,"2, 45, 44.   ",Sin Renfe,NO INFORMATION,http://www.madrid.es/sites/v/index.jsp?vgnextchannel=bfa48ab43d6bb410VgnVCM100000171f5a0aRCRD&vgnextoid=003aef4d7f71c010VgnVCM1000000b205a0aRCRD,"Calle de Guzman el Bueno, Madrid",https://www.wikidata.org/entity/Q27031398,110,Chamberi,https://wikidata.org/entity/Q1763370,40.44438523242585,-3.712300118990835,"915 146 000, extensiones 48495 (Oficina Museo), 48477 (Salas Museo)",dg-estuhistoricos-registro@guardiacivil.org,Museos
2114,Real Academia de Bellas Artes de San Fernando,https://www.wikidata.org/entity/Q1322403,"Construido inicialmente para palacio de Don Juan de Goyeneche, el edificio fue adquirido por la Academia de Bellas Artes en 1773 y reformado bajo la direccion de Fernando Chueca Goitia en 1973 y la fachada por Diego de Villanueva en 1774. ","Coleccion permanente: De martes a domingos, de 10 a 15 horas. Exposiciones temporales: consultar el apartado especifico de la exposicion temporal. Dias cerrados: 1 y 6 de enero; 1 y 30 de mayo; 9 de noviembre; 24, 25 y 31 de diciembre.",Sol,https://www.wikidata.org/entity/Q1766008,"M1, 002, 52, 46, 002, 51, 150, 5, 15, 20.  ","Sol (lineas C3, C4 y Regional).   ",ACCESSIBLE,http://www.madrid.es/sites/v/index.jsp?vgnextchannel=bfa48ab43d6bb410VgnVCM100000171f5a0aRCRD&vgnextoid=924aef4d7f71c010VgnVCM1000000b205a0aRCRD,Alcala Street,https://www.wikidata.org/entity/Q2424746,13,Centro,https://wikidata.org/entity/Q1763376,40.4176555144213,-3.7006500629589394,915 240 864,Sin email,MonumentosEdificiosArtisticos
2066,Railway Museum of Madrid,https://www.wikidata.org/entity/Q6034436,"Edificio de caracter monumental. Proyectada por el ingeniero frances emile Cachelievre e inaugurada el 30 de marzo de 1880, la estacion de Delicias fue la primera gran estacion con caracter definitivo de Madrid. ","De octubre a mayo:   Lunes a viernes, de 9:30 a 15 horas. Sabados y festivos, de 10 a 19 horas. Domingo, de 10 a 15 horas.   De junio a septiembre:   Lunes a domingo, de 10 a 15 horas.   Cerrado: 25 de diciembre, 1 y 6 de enero.",Delicias,https://www.wikidata.org/entity/Q3306947,"19, 247, 45, 47, 59, 85, 86, 8, 55, 6  ","Delicias (lineas C1, C7, C10 y Regional)   ",ACCESSIBLE,http://www.madrid.es/sites/v/index.jsp?vgnextchannel=bfa48ab43d6bb410VgnVCM100000171f5a0aRCRD&vgnextoid=091c4291ae91f010VgnVCM2000000c205a0aRCRD,"Paseo de las Delicias, Madrid",https://www.wikidata.org/entity/Q6065662,61,Arganzuela,https://wikidata.org/entity/Q2000929,40.40029003332906,-3.6938050319544646,915 390 085,taquillamuseo@ffe.es,MonumentosEdificiosArtisticos
2058,Museo del Prado,https://www.wikidata.org/entity/Q160112,,"De lunes a sabado, de 10 a 20 horas. Domingos y festivos, de 10 a 19 horas. Cerrado los dias 1 de enero, 1 de mayo y 25 de diciembre. Horario reducido, de 10 a 14 horas (6 de enero y 24 y 31 de diciembre).  Horario de gratuidad:  De lunes a sabado, de 18 a 20 horas. Domingos y festivos, de 17 a 19 horas.  Acceso al Museo hasta 30 minutos antes del cierre.",Estacion del Arte,https://www.wikidata.org/entity/Q2016175,"001, 10, 14, 27, 34, 37, 45, C03.  ","Atocha (lineas C1, C2, C3, C4, C5, C7 y C10).   ","ACCESSIBLE,SIGN LANGUAGE,MAGNETIC LOOP",http://www.madrid.es/sites/v/index.jsp?vgnextchannel=bfa48ab43d6bb410VgnVCM100000171f5a0aRCRD&vgnextoid=060079262ef5d010VgnVCM1000000b205a0aRCRD,Paseo del Prado,https://www.wikidata.org/entity/Q2079615,,Centro,https://wikidata.org/entity/Q1763376,40.41398191337691,-3.692164652993688,910 683 001,cav@museodelprado.es,Museos
2086,Museo del Reloj Grassy,,Arquitecto: Eladio Laredo Carranza (1916 - 1917). ,Visitas guiadas:   Miercoles 12 horas. Jueves 17:30 horas.,Banco de Espana,https://www.wikidata.org/entity/Q2481227,"002, 15, 150, 20, 5, 53, 9, 51, 001, 1, 146, 2, 3, 46, 74, 52.   ",Sin Renfe,NO INFORMATION,http://www.madrid.es/sites/v/index.jsp?vgnextchannel=bfa48ab43d6bb410VgnVCM100000171f5a0aRCRD&vgnextoid=daeaef4d7f71c010VgnVCM1000000b205a0aRCRD,Gran Via,https://www.wikidata.org/entity/Q1324163,1,Centro,https://wikidata.org/entity/Q1763376,40.41914770731552,-3.69806583195521,915 321 007,info@grassy.es,Museos
2059,Museum of Romanticism,https://www.wikidata.org/entity/Q6974501,"Descripcion monumental  Construido para casa palacio del Marques de Matallana por el arquitecto Manuel Rodriguez, dentro de unas lineas clasicistas, tiene algunas leves reminiscencias del barroco, como las molduras en forma de orejeras en los balcones. Las estancias nobles se organizan en torno a dos patios cuadrados. Conserva un interesante jardin romantico. A finales del siglo XVIII el inmueble paso a estar habitado por los Condes de la Puebla del Maestre y despues, desde junio de 1921, fue sede de la Comisaria Regia de Turismo, organismo creado por el II Marques de la Vega-Inclan. En 1924 se convirtio en Museo Romantico y desde entonces ha sido restaurado e intervenido en diversas ocasiones con motivo de su funcionamiento como museo.  Desde 2001 a 2009 el Museo fue reformado y puesto a punto, en aplicacion de un plan museologico consistente en su renovacion, ampliando su ambito tematico desde lo meramente literario hasta lo historico, politico, artistico y decorativo, para dar una vision de conjunto de esta etapa de la vida espanola. Muestra la ambientacion de una casa romantica. Posee obras de los pintores mas importantes del siglo XIX (Goya, Madrazo y otros) junto a esculturas, muebles, porcelanas, abanicos y todo tipo de complementos decorativos que nos recuerdan la forma de vida de una familia burguesa del siglo XIX.","Horario de invierno (de noviembre a abril): De martes a sabado: de 9:30 a 18:30. Domingos y festivos: de 10 a 15 horas.  Horario de verano (de mayo a octubre): De martes a sabado: de 9:30 a 20:30. Domingos y festivos: de 10 a 15 horas.  Cerrado: Todos los lunes, 1 y 6 enero, 1 mayo, 9 noviembre, 24, 25 y 31 diciembre.",Tribunal,https://www.wikidata.org/entity/Q2479844,"37, 149, 40, 3.  ","Recoletos (lineas C1, C2, C7, C10 y Regional).   ","ACCESSIBLE,MAGNETIC LOOP",http://www.madrid.es/sites/v/index.jsp?vgnextchannel=bfa48ab43d6bb410VgnVCM100000171f5a0aRCRD&vgnextoid=706cef4d7f71c010VgnVCM1000000b205a0aRCRD,calle de San Mateo,https://www.wikidata.org/entity/Q24532121,13,Centro,https://wikidata.org/entity/Q1763376,40.42585510296794,-3.6987835425963063,914 481 045 / 914 480 163,informacion.romanticismo@cultura.gob.es,Museos
6337393,Museo del Seguro. Fundacion Mapfre,,,De lunes a viernes de 9 a 17 horas. Cerrado festivos y mes de agosto.  Visitas en grupo previa reserva en su pagina web.,Colon,https://www.wikidata.org/entity/Q2481248,"37, 14, 150, 27, 45, 5, 53, C03.  ","Recoletos (Lineas C1, C2, C7, C10 y Regional).   ",NO INFORMATION,http://www.madrid.es/sites/v/index.jsp?vgnextchannel=bfa48ab43d6bb410VgnVCM100000171f5a0aRCRD&vgnextoid=479b95f8c72d5310VgnVCM2000000c205a0aRCRD,calle de Barbara de Braganca,https://www.wikidata.org/entity/Q29413520,14,Centro,https://wikidata.org/entity/Q1763376,40.423266511964854,-3.692277196470883,Sin telefono,Sin email,Museos
2115,Museo del Traje,https://www.wikidata.org/entity/Q9047135,"Edificio de caracter monumental, construido por Jaime Lopez de Asiain en 1969. ","Salas de exposiciones   Martes a sabado, de 9:30 a 19:00 horas. Domingos y festivos, de 10 a 15:00 horas.  La taquilla finaliza su actividad de venta de entradas 30 minutos antes de la hora del cierre de la exposicion.  Noches de verano - Verano en el Museo   Los jueves de julio y agosto, apertura extraordinaria: 19:30 - 22:30 horas.",Ciudad Universitaria,https://www.wikidata.org/entity/Q2482378,"160, 161, 46, U, 132, 82, G, 133, 162, 83.   ",Sin Renfe,"ACCESSIBLE,SIGN LANGUAGE,MAGNETIC LOOP",http://www.madrid.es/sites/v/index.jsp?vgnextchannel=bfa48ab43d6bb410VgnVCM100000171f5a0aRCRD&vgnextoid=053c4291ae91f010VgnVCM2000000c205a0aRCRD,avenida de Juan de Herrera,https://www.wikidata.org/entity/Q118644577,2,Moncloa-Aravaca,https://wikidata.org/entity/Q2017682,40.439664788611644,-3.727822373257623,915 504 700,Sin email,Museos
2061,Royal Palace of El Pardo,https://www.wikidata.org/entity/Q1368571,"Recinto en el que se conserva el Palacio, construido sobre el castillo del siglo XV, la Casita del Principe, del siglo XVIII y la Quinta del Duque de Arco (Palacete que fue Casa de Labor y sus tierras). Desde 1983 ha sido adecuado para residencia de Jefes de Estado extranjeros en visita oficial. ","Martes a domingo, de 10 a 18 horas.",Sin metro,,601 (Madrid - Colonia Mingorrubio),Sin Renfe,ACCESSIBLE,http://www.madrid.es/sites/v/index.jsp?vgnextchannel=bfa48ab43d6bb410VgnVCM100000171f5a0aRCRD&vgnextoid=9f9def4d7f71c010VgnVCM1000000b205a0aRCRD,CALLE MANUEL ALONSO,,8,Fuencarral-El Pardo,https://wikidata.org/entity/Q656196,40.520535786694516,-3.7762260009975077,Sin telefono,info@patrimonionacional.es,MonumentosEdificiosArtisticos
2062,Royal Palace of Madrid,https://www.wikidata.org/entity/Q171517,"Construido sobre el solar del antiguo Alcazar tras un incendio en 1734. Proyectado por Juvara en 1735 y construido por Sachet de 1738 a 1764 bajo las influencias del clasicismo barroco. A partir de 1770, Sabatini anadio el ala sudeste y realizo la gran escalera. Es de destacar el gran patio que articula el edificio y la fachada principal que aloja el balcon y Escudo Real. ","Lunes a sabado, de 10 a 18 horas. Domingos, de 10 a 16 horas (octubre a marzo). Luns a sabado, de 10 a 19 horas. Domingos, de 10 a 16 horas (abril a septiembre).  Para cierres durante el ano o motivados por la celebracion de actos oficiales o festividad en el municipio consultar la web.  Jardines del Campo del Moro   Todos los dias, de 10 a 18 horas.",Opera,https://www.wikidata.org/entity/Q2736048,"3, 25, 39, 148, 46, 62, 75, 138  ",Principe Pio   ,ACCESSIBLE,http://www.madrid.es/sites/v/index.jsp?vgnextchannel=bfa48ab43d6bb410VgnVCM100000171f5a0aRCRD&vgnextoid=47ddef4d7f71c010VgnVCM1000000b205a0aRCRD,Calle de Bailen,https://www.wikidata.org/entity/Q5740811,0,Centro,https://wikidata.org/entity/Q1763376,40.42075212551193,-3.712699107286406,Sin telefono,info@patrimonionacional.es,MonumentosEdificiosArtisticos
2079,Pantheon of Illustrious Men,https://www.wikidata.org/entity/Q7131757,La construccion de este edificio responde a dos de las constantes de fines de siglo: la arquitectura historicista y la escultura funeraria. En el reposan trece personajes ilustres de la historia politica y militar espanola. ,De martes a sabado de 10 a 14 y de 16 a 18:30 horas Domingos y festivos de 10 a 15 horas Cerrado todos los lunes del ano,Estacion del Arte,https://www.wikidata.org/entity/Q2016175,"10, 14, 24, 32, 37, 54, 57, 141, 26, C1, C2, 102  ",Atocha,ACCESSIBLE,http://www.madrid.es/sites/v/index.jsp?vgnextchannel=bfa48ab43d6bb410VgnVCM100000171f5a0aRCRD&vgnextoid=361cef4d7f71c010VgnVCM1000000b205a0aRCRD,"Calle de Julian Gayarre, Madrid",https://www.wikidata.org/entity/Q29051365,3,Retiro,https://wikidata.org/entity/Q2002296,40.40622617519116,-3.683413041846525,Sin telefono,info@patrimonionacional.es,MonumentosEdificiosArtisticos
3362,Church of Santa Cruz,https://www.wikidata.org/entity/Q5912532,,,Sol,https://www.wikidata.org/entity/Q1766008,"50, SE712, 26, 32, 6, 65, 18, 23, 17, 002, M1, 31.  ","Sol (lineas C3, C4 y Regional).   ",NO INFORMATION,http://www.madrid.es/sites/v/index.jsp?vgnextchannel=bfa48ab43d6bb410VgnVCM100000171f5a0aRCRD&vgnextoid=40e0b069a541f010VgnVCM1000000b205a0aRCRD,Calle de Atocha,https://www.wikidata.org/entity/Q5492657,6,Centro,https://wikidata.org/entity/Q1763376,40.414614986413675,-3.7052543046190265,913 691 239,santacruz@archimadrid.es,MonumentosEdificiosArtisticos
2213,Madrid Planetarium,https://www.wikidata.org/entity/Q9060456,"Inaugurado el 29 de septiembre de 1986, es un centro dependiente del area de Cultura, Turismo y Deporte del Ayuntamiento de Madrid. Durante los anos 2016/2017 fue sometido a una profunda renovacion tanto tecnologica como de las instalaciones y edificio, posible en virtud de un acuerdo de colaboracion entre el Ayuntamiento de Madrid y la Obra Social &amp;ldquo;la Caixa&amp;rdquo; &amp;ndash; que incluye dotacion de contenidos, renovacion de exposiciones y la realizacion de actividades varias en el campo de la divulgacion cientifica. Siempre con el fin de contribuir a la difusion de la astronomia y de la ciencia en general, tanto entre escolares como entre el publico de cualquier edad y condicion, posee una variada oferta de proyecciones audiovisuales, exposiciones y actividades (talleres, cursos, conferencias, observaciones publicas...). Las proyecciones que se ofrecen en el Planetario de Madrid se renuevan periodicamente y tienen una duracion aproximada de 30 minutos. Existen dos programaciones basicas diferentes: una activa durante el verano y epoca de vacaciones escolares, y otra durante el curso escolar. Durante el curso escolar, las proyecciones de las mananas de los dias lectivos se reservan a escolares .   Video de presentacion del centro  Planetario en  Google Maps ","Horario del centro: De martes a domingo, de 10:00 a 13:45 h y de 17 a 19:45 h. Las mananas de los dias lectivos estan dedicadas a las visitas escolares.     Cerrado: Todos los lunes del ano. Dias 1 y 6 de enero; 1 de mayo; 24, 25 y 31 de diciembre.   Horario de proyecciones .",Mendez Alvaro,https://www.wikidata.org/entity/Q2479775,"148, 156. BICIMAD: Estacion 177 (Calle Bolivar 3).  Planetario en  Google Maps",Sin Renfe,"ACCESSIBLE,MAGNETIC LOOP",http://www.madrid.es/sites/v/index.jsp?vgnextchannel=bfa48ab43d6bb410VgnVCM100000171f5a0aRCRD&vgnextoid=c9c5b069a541f010VgnVCM1000000b205a0aRCRD,Avenida del Planetario,https://www.wikidata.org/entity/Q17622122,16,Arganzuela,https://wikidata.org/entity/Q2000929,40.392279999540044,-3.684956957448299,"914 673 461 (reserva grupos)                                                                                                                                                                                                                                                                                                                                                                                                                                               
914 673 898 (contestador automatico de informacion)",buzon@planetmad.es,Planetarios
3359,Royal Basilica of Saint Francis the Great,https://www.wikidata.org/entity/Q2473884,"Conjunto conventual que sustituyo al monasterio franciscano medieval, construido por Francisco de las Cabezas entre 1761 y 1768, que fue relevado por Antonio Polo y que concluye Francisco Sabatini en 1784 donde se exponen colecciones de pinturas de los siglos XVII al XIX. Reservas para grupos en telefono 669 892 313 de 10:30 a 13:30 horas.","Visita Guiada Museo:    De martes a sabado de 10:30 a 13:30 y de 16 a 17:30 horas.  Julio, agosto y septiembre: de martes a viernes de 10:30 a 14:30 horas.",La Latina,https://www.wikidata.org/entity/Q1115250,"148, 3, 60.   ",Sin Renfe,ACCESSIBLE,http://www.madrid.es/sites/v/index.jsp?vgnextchannel=bfa48ab43d6bb410VgnVCM100000171f5a0aRCRD&vgnextoid=ef8d0713fb71c010VgnVCM1000000b205a0aRCRD,calle de San Buenaventura,https://www.wikidata.org/entity/Q118640079,1,Centro,https://wikidata.org/entity/Q1763376,40.41084698628934,-3.714492963837602,913 653 800,Sin email,MonumentosEdificiosArtisticos
2087,Royal Tapestry Factory,https://www.wikidata.org/entity/Q570665,,"Lunes a viernes, de 10 a 14 horas.",Menendez Pelayo,https://www.wikidata.org/entity/Q2479001,"10, 14, 26, 32, C1, C2, 141, 24, 37, 54, 57, 152.   ","Atocha (lineas C1, C2, C3, C4, C4a, C4b, C5, C7, C10 y Regional).",NO INFORMATION,http://www.madrid.es/sites/v/index.jsp?vgnextchannel=bfa48ab43d6bb410VgnVCM100000171f5a0aRCRD&vgnextoid=53cbff632081c010VgnVCM1000000b205a0aRCRD,"Calle de Fuenterrabia, Madrid",https://www.wikidata.org/entity/Q29051404,2,Retiro,https://wikidata.org/entity/Q2002296,40.406094596697045,-3.6825092130232404,914 340 550,informacion@realfabricadetapices.com,MonumentosEdificiosArtisticos
4707297,Royal Monastery of Santa Isabel,https://www.wikidata.org/entity/Q9067089,"El Real Monasterio de Santa Isabel esta situado en Madrid, dentro de la ciudad historica, en una gran manzana, proxima a Atocha. Santa Isabel agrupa dos fundaciones, un colegio de ninas, establecido por Felipe II, y un convento de clausura de monjas agustinas recoletas, fundado por la esposa de Felipe III, dona Margarita de Austria. La arquitectura de la iglesia se debe a Gomez de Mora, de mediados del siglo XVIII. En la clausura se conservan numerosas obras pictoricas de los siglos XVII y XVIII. ",El acceso al templo solo es posible en horario de culto.,Estacion del Arte,https://www.wikidata.org/entity/Q2016175,"26, 32, 6, 27, 34, C1  ",Atocha,NO INFORMATION,http://www.madrid.es/sites/v/index.jsp?vgnextchannel=bfa48ab43d6bb410VgnVCM100000171f5a0aRCRD&vgnextoid=545b544a249c6110VgnVCM1000000b205a0aRCRD,calle de Santa Isabel,https://www.wikidata.org/entity/Q2882669,48,Centro,https://wikidata.org/entity/Q1763376,40.409468201532654,-3.696232255860979,Sin telefono,info@patrimonionacional.es,MonumentosEdificiosArtisticos
3349,Real Monasterio de la Encarnacion,https://www.wikidata.org/entity/Q110747997,"Edificio construido por Juan Gomez de Mora de 1611 a 1616 como monasterio anejo al Alcazar Real, modelo de lo que se ha dado en llamar barroco madrileno. Cuenta con la reliquia de San Pantaleon. ","Martes a sabado, de 10 a 14 y de 16 a 18:30 horas, Domingos y festivos, de 10 a 15 horas.",Opera,https://www.wikidata.org/entity/Q2736048,"3, 25, 39, 148, 46, 62, 75   ",Sin Renfe,NO INFORMATION,http://www.madrid.es/sites/v/index.jsp?vgnextchannel=bfa48ab43d6bb410VgnVCM100000171f5a0aRCRD&vgnextoid=72ad0713fb71c010VgnVCM1000000b205a0aRCRD,PLAZA ENCARNACION,,1,Centro,https://wikidata.org/entity/Q1763376,40.4196839293774,-3.7115609584031253,Sin telefono,info@patrimonionacional.es,MonumentosEdificiosArtisticos
3348,Convent of Las Descalzas Reales,https://www.wikidata.org/entity/Q2268271,"Convento fundado por la Princesa Juana de Austria, transformando un antiguo palacio de su madre Isabel de Portugal. ","Martes a sabado, de 10 a 14 y de 16 a 18:30 horas. Domingos y festivos, de 10 a 15 horas. Solo visitas guiadas.",Opera,https://www.wikidata.org/entity/Q2736048,SE712   ,Sin Renfe,NO INFORMATION,http://www.madrid.es/sites/v/index.jsp?vgnextchannel=bfa48ab43d6bb410VgnVCM100000171f5a0aRCRD&vgnextoid=12e113db5b71c010VgnVCM1000000b205a0aRCRD,PLAZA DESCALZAS,,3,Centro,https://wikidata.org/entity/Q1763376,40.4182401043926,-3.7062038988539387,Sin telefono,info@patrimonionacional.es,MonumentosEdificiosArtisticos
20605,"Templo de Debod, estanque con Surtidor",https://www.wikidata.org/entity/Q110748094,"Templo egipcio dedicado a Amon de Debod y a Isis, construido entre 185 AC y el siglo I de la Era. Fue donado por Egipto a Espana en 1968, en agradecimiento por la ayuda en el salvamento de los templos de Abu Simbel.  Egyptian temple dedicated to Amun of Debod and Isis. It was built between 185 BC and the 1st century. It was donated by Egypt to Spain in 1968 for its help in the rescue of the temples of Abu Simbel. El templo de Debod no cuenta en la actualidad con accesos adaptados a personas con movilidad reducida y la circulacion en su interior es igualmente dificil. Puedes consultar en el documento Templo de Debod. Turismo accesible  las caracteristicas de su accesibilidad.  Debod temple has currently no access adapted for people with reduced mobility.    El templo es un monumento historico de una antig&amp;uuml;edad de 2.200 anos. Su estructura interna, que constituye el espacio de actual de exposicion, esta formada por distintas salas de dimensiones reducidas, con vanos estrechos y numerosas barreras, que responden a los fines y necesidades de los cultos religiosos que en el tuvieron lugar, pero que imposibilitan la circulacion con sillas de ruedas convencionales.  La legislacion sobre accesibilidad vigente en nuestra Comunidad (Ley 8/1993 de 22 de Junio de Promocion de la Accesibilidad y Supresion de Barreras Arquitectonicas), en su disposicion adicional 7&amp;ordf;, exime de su aplicacion en los inmuebles declarados Bien de Interes Cultural o en aquellos edificios de valor historico-artistico. No obstante, se esta trabajando en hacer accesibles las plataformas en las que se levanta el templo y sus dos portales.","Martes a domingo y festivos, de 10 a 20  horas.  Cerrado todos los lunes (incluidos lunes festivos) y los dias 1 y 6 de enero, 1 de mayo, 24, 25 y 31 de diciembre. ultimo acceso al templo a las 19:30 horas. El horario y la apertura de salas pueden sufrir modificaciones. Por favor, confirmelo en el telefono de informacion del museo.",Estacion de Plaza de Espana (Metro de Madrid),https://www.wikidata.org/entity/Q776249,"1, 2, 3, 25, 39, 44, 46, 74, 75, 133, 138, 148, C1 y C2 ",Principe Pio   ,"NOT ACCESSIBLE,MAGNETIC LOOP",http://www.madrid.es/sites/v/index.jsp?vgnextchannel=bfa48ab43d6bb410VgnVCM100000171f5a0aRCRD&vgnextoid=13b432df1d51c010VgnVCM2000000c205a0aRCRD,calle de Ferraz,https://www.wikidata.org/entity/Q5740837,1,Moncloa-Aravaca,https://wikidata.org/entity/Q2017682,40.42425096551599,-3.716531855540272,913 667 415 (Museo de San Isidro / Templo de Debod),templodebod@madrid.es,MonumentosEdificiosArtisticos
7685664,The Robot Museum (Museo del Robot),,Visita recomendada para mayores de 4 anos.,"Martes, miercoes y jueves: De 16:20a 19:20.  Viernes:  De 16:20 a 20:20 horas.   Sabados: De 12:20 a 20:20 horas.",Ruben Dario,https://www.wikidata.org/entity/Q2056886,"19, 51, 9, 14, 150, 27, 45, 5, 1, 74.   ",Sin Renfe,NO INFORMATION,http://www.madrid.es/sites/v/index.jsp?vgnextchannel=bfa48ab43d6bb410VgnVCM100000171f5a0aRCRD&vgnextoid=e0b7b8dc8f719410VgnVCM1000000b205a0aRCRD,Serrano Street,https://www.wikidata.org/entity/Q5740879,61,Salamanca,https://wikidata.org/entity/Q1773521,40.43221485554042,-3.6869551422270077,644 326 470,Sin email,Museos
7071384,Yacimiento paleontologico. Estacion de Metro Carpetana,,"Durante las obras de remodelacion de la estacion de Carpetana se descubrieron restos paleontologicos con valiosos hallazgos del Mioceno, lo que ha hecho posible una reconstruccion de los paleoambientes en dos yacimientos verticales. ","Todos los dias durante la apertura de la estacion, de 6 a 1:30 horas.",Carpetana,https://www.wikidata.org/entity/Q2482395,"119, 55, 17, 25.",Sin Renfe,ACCESSIBLE,http://www.madrid.es/sites/v/index.jsp?vgnextchannel=bfa48ab43d6bb410VgnVCM100000171f5a0aRCRD&vgnextoid=05fbb57fd3c70410VgnVCM1000000b205a0aRCRD,CALLE VIA CARPETANA,,141,Carabanchel,https://wikidata.org/entity/Q1001991,40.39254099575156,-3.7413026173286053,Sin telefono,Sin email,Museos
10873287,"Museum Zapadores, Ciudad del Arte",https://www.wikidata.org/entity/Q121596856,,"Miercoles a domingo, de 12 a 18 horas.",Sin metro,,Sin buses,Sin Renfe,NO INFORMATION,http://www.madrid.es/sites/v/index.jsp?vgnextchannel=bfa48ab43d6bb410VgnVCM100000171f5a0aRCRD&vgnextoid=c30ab3683ea58610VgnVCM2000001f4a900aRCRD,CALLE ANTONIO DE CABEZON,,70,Fuencarral-El Pardo,https://wikidata.org/entity/Q656196,40.49572804745456,-3.6818117500732046,Sin telefono,Sin email,Museos
