name,address1,address2,address3,borough_name,website,os_addressbase_uprn,borough_code,ward_2022_name,ward_2022_code,latitude,longitude,easting,northing
Domobaal,3 John Street,,,Camden,http://www.domobaal.com/#,10091862142,E09000007,Holborn & Covent Garden,E05013662,51.52109586,-0.113122142,531006.2767000003,181929.03449999914
Eagle Gallery,159 Farringdon Road,,,Islington,http://www.emmahilleagle.com/#,5300033028,E09000019,Clerkenwell,E05013702,51.52365123,-0.108172319,531342.3126999997,182222.05749999918
Work,308 Essex Road,,,Islington,http://workgallery.co.uk/#,10091003649,E09000019,Canonbury,E05013701,51.54232944,-0.08977259,532564.4278999995,184332.2862999998
Catto Gallery,100 Heath Street,,,Camden,http://www.cattogallery.co.uk/#,5010317,E09000007,Hampstead Town,E05013659,51.55799728,-0.17688165,526480.7581000002,185920.44779999927
Orange Dot Gallery,54 Tavistock Place,,,Camden,http://www.orangedotgallery.co.uk/#,5030299,E09000007,Bloomsbury,E05013653,51.52513757,-0.123436662,530279.1923000002,182360.0789999999
Lawrence Alkin Gallery,42 New Compton Street,,,Camden,http://www.lawrencealkingallery.com/#,5066491,E09000007,Holborn & Covent Garden,E05013662,51.51491744,-0.126033366,530128.1834000004,181218.97629999928
Gallery K,101-103 Heath Street,,,Camden,http://www.gallery-k.co.uk/#,5082905,E09000007,Hampstead Town,E05013659,51.55865586,-0.177014019,526469.7576000001,185993.45580000058
Austin/Desmond Fine Art,Pied Bull YardÂ ,68â„69Â Great Russell Street,,Camden,http://austindesmond.com/#,5083316,E09000007,Bloomsbury,E05013653,51.51828276,-0.122767057,530345.2044000002,181599.01019999944
The October Gallery,24 Old Gloucester Street,,,Camden,http://www.octobergallery.co.uk/#,5087208,E09000007,Holborn & Covent Garden,E05013662,51.52018301,-0.120122844,530523.2229000004,181815.02789999917
Rebecca Hossack Gallery 2,"28 Charlotte Street,",,,Camden,http://www.richard-green.com/#,5087275,E09000007,Bloomsbury,E05013653,51.51843425,-0.133385054,529608.1228999998,181597.01490000077
Rebecca Hossack Gallery 1,2a Conway Street,,,Camden,http://www.rebeccahossack.com/#,5087297,E09000007,Bloomsbury,E05013653,51.52153754,-0.137943496,529283.0839999998,181934.0485999994
The Framers Gallery,36 Windmill Street,,,Camden,http://www.theframersgallery.co.uk/#,5087378,E09000007,Bloomsbury,E05013653,51.51839445,-0.132579415,529664.1289999997,181594.0150000006
Beside the Wave,41 Chalcot Road,,,Camden,http://www.beside-the-wave.co.uk/#,5087431,E09000007,Primrose Hill,E05013667,51.53966629,-0.152591987,528215.9512,183924.2385000009
Woolff Gallery,89 Charlotte St,,,Camden,http://www.woolffgallery.co.uk/#,5087726,E09000007,Bloomsbury,E05013653,51.51996059,-0.135485033,529458.1047999999,181763.0320999995
Lahd Gallery,92 Heath Street,,,Camden,http://www.lahdgallery.com/#,5087751,E09000007,Hampstead Town,E05013659,51.55771011,-0.176921991,526478.7576000001,185888.44380000047
The Cob Gallery,205 Royal College Street,,,Camden,http://www.cobgallery.com/#,5087949,E09000007,St Pancras & Somers Town,E05013669,51.54065193,-0.136442133,529333.0767000001,184062.24049999937
Hanmi Gallery,30 Maple Street,,,Camden,http://www.hanmigallery.co.uk/#,5088144,E09000007,Bloomsbury,E05013653,51.52169017,-0.137360609,529323.0882000001,181952.0502000004
Gagosian Gallery 1,6-24 Brittania Street,,,Camden,http://www.gagosian.com/#,5088316,E09000007,King's Cross,E05013666,51.5295938,-0.116418769,530753.2429999998,182868.1196999997
Novelty Automation,1A Princeton Street,,,Camden,http://www.novelty-automation.com/#,5105749,E09000007,Holborn & Covent Garden,E05013662,51.51915264,-0.115321587,530859.2615,181709.01600000076
Charlie Dutton Gallery,1a Princeton Street,,,Camden,http://www.charlieduttongallery.com/#,5105749,E09000007,Holborn & Covent Garden,E05013662,51.51915264,-0.115321587,530859.2615,181709.01600000076
The Gallery at 94,94 Cleveland Street,,,Camden,http://www.galleryat94.com/#,5109564,E09000007,Bloomsbury,E05013653,51.52209411,-0.139578703,529168.0707999999,181993.05489999987
Tristan Hoare,6 Fitzroy Square,,,Camden,http://www.tristanhoare.co.uk/#,5113050,E09000007,Bloomsbury,E05013653,51.52294747,-0.137813889,529288.0833,182091.06310000084
Hardy Tree Gallery,119 Pancras Road,,,Camden,http://hardytreegallery.com/#,5135046,E09000007,King's Cross,E05013666,51.53291576,-0.127298575,529989.1551999999,183218.15850000083
Contemporary Applied Arts,2 Percy Street,,,Camden,http://www.caa.org.uk/#,5159812,E09000007,Bloomsbury,E05013653,51.51740282,-0.132432584,529677.1315000001,181484.0044999998
The Crypt Gallery,St Pancras Church,Euston Road,,Camden,http://cryptgallery.org.uk/#,5188543,E09000007,Bloomsbury,E05013653,51.52656883,-0.128582733,529918.1509999996,182510.09589999914
CubeFuture,33 Fournier Street,,,Tower Hamlets,http://www.cubefuture.com/#,6001683,E09000030,Spitalfields & Banglatown,E05009333,51.51883799,-0.071078384,533929.5930000003,181754.0404000003
Eleven Spitalfields,11 Princelet Street,,,Tower Hamlets,http://www.elevenspitalfields.com/#,6001684,E09000030,Spitalfields & Banglatown,E05009333,51.51934484,-0.071273203,533914.5909000002,181810.04609999992
Leyden Gallery,9/9a Leyden Street,,,Tower Hamlets,http://www.leydengallery.com/#,6001837,E09000030,Spitalfields & Banglatown,E05009333,51.51638732,-0.074641529,533689.5707,181475.00630000047
Brick Lane Gallery,216 Brick Lane,,,Tower Hamlets,http://www.thebricklanegallery.com/#,6002804,E09000030,Weavers,E05009335,51.52397045,-0.069808992,534002.5950999996,182327.10089999996
Espacio Gallery,159 Bethl Green Road,,,Tower Hamlets,http://www.espaciogallery.com/#,6005162,E09000030,Weavers,E05009335,51.52509833,-0.068939478,534059.5997000001,182454.1157000009
Whitechapel Gallery,77-82 Whitechapel High Street,,,Tower Hamlets,http://www.whitechapel.org/#,6011122,E09000030,Whitechapel,E05009336,51.51566133,-0.068776522,534098.6140000001,181405.00799999945
The Mews Project Space,15c Osborn Street,,,Tower Hamlets,http://the-mews-about.blogspot.co.uk/#,6015759,E09000030,Whitechapel,E05009336,51.51591746,-0.068491805,534117.6157999998,181434.0117000006
Stolenspace Gallery,"17 Osborn St,",,,Tower Hamlets,https://www.stolenspace.com/#,6015771,E09000030,Whitechapel,E05009336,51.51596334,-0.068547523,534113.6152999997,181439.0114999991
Maureen Paley,21 Herald Street,,,Tower Hamlets,http://www.maureenpaley.com/#,6015931,E09000030,Bethnal Green,E05009317,51.52474415,-0.054393817,535069.6240999997,182441.49269999936
Arebyte,Unit 4,49 White Post Lane,,Tower Hamlets,http://www.arebyte.com/#,6077533,E09000030,Bow East,E05009319,51.5423738,-0.021909521,537269.9404999996,184462.3161999993
Proof London,26 Cheshire Street,,,Tower Hamlets,http://prooflondon.com/#,6089640,E09000030,Spitalfields & Banglatown,E05009333,51.52293991,-0.06880071,534075.5636999998,182214.35080000013
Vilma Gold,6 Minerva Street,,,Tower Hamlets,http://vilmagold.com/#,6143359,E09000030,St Peter's,E05009331,51.53108925,-0.05811634,534792.6672,183140.22159999982
Modern Art 2,50-58 Vyner Street,,,Tower Hamlets,http://www.modernart.net/#,6146632,E09000030,St Peter's,E05009331,51.53411007,-0.053171278,535126.6986999996,183485.27470000088
Forman's Smokehouse Gallery,Stour Road,Fish Island,,Tower Hamlets,http://smokehousegallery.org/#,6151026,E09000030,Bow East,E05009319,51.53911538,-0.019611746,537439.0794000002,184104.2829
The Alexander Miles Gallery,"Unit K, The Ivory House",St.Katharine Docks,,Tower Hamlets,http://www.thealexandermilesgallery.com/,6155400,E09000030,St Katharine's & Wapping,E05009330,51.50691545,-0.069622013,534065.6195999999,180430.90670000017
Calvert 22,22 Calvert Avenue,,,Tower Hamlets,http://calvert22.org/#,6159644,E09000030,Weavers,E05009335,51.5255732,-0.074645584,533662.3980999999,182496.48120000027
Breese Little,Unit 1,249-253 Cambridge Heath Road,,Tower Hamlets,http://www.breeselittle.com/#,6161973,E09000030,Bethnal Green,E05009317,51.5252217,-0.053964425,535097.9961999999,182495.39130000025
Public Exhibitions,"Black Gates,",Hassard Street,,Tower Hamlets,http://publicexhibitions.biz/#,6178041,E09000030,Weavers,E05009335,51.53014439,-0.070705406,533922.2997000003,183012.01329999976
Union Gallery,94 Teesdale Street,,,Tower Hamlets,http://www.union-gallery.com/#,6178788,E09000030,St Peter's,E05009331,51.52930433,-0.059732984,534685.8084000004,182938.75100000016
Cell Project Space,258 Cambridge Heath Road,,,Tower Hamlets,http://www.cellprojects.org/#,6180728,E09000030,St Peter's,E05009331,51.53276995,-0.055015701,535002.7470000004,183332.84310000017
Unit 9,The Huntingdon Estate,Ebor St / Bethl Green Rd,,Tower Hamlets,http://www.unit9.london/#,6210892,E09000030,Weavers,E05009335,51.52356848,-0.073257295,533764.5707999999,182276.09090000018
Raven Row,56 Artillery Lane,,,Tower Hamlets,http://www.ravenrow.org/#,6653355,E09000030,Spitalfields & Banglatown,E05009333,51.51764768,-0.075265891,533642.5645000003,181614.01940000057
Studio 106,106 Dawes Road,,,Hammersmith and Fulham,http://www.studio106artgallery.org/#,34055693,E09000013,Walham Green,E05013749,51.4799865,-0.20243497,524922.6256999997,177201.6216000002
Louise T Blouin Institute,3 Olaf Street,,,Kensington and Chelsea,http://www.ltbfoundation.org/#,34115265,E09000020,Notting Dale,E05009399,51.50957828,-0.216187306,523887.5053000003,180468.94260000065
Hidde van Seggelen Gallery,2 Michael Road,,,Hammersmith and Fulham,http://www.hiddevanseggelen.com/#,34144768,E09000013,Parsons Green & Sandford,E05013745,51.47707611,-0.186894072,526009.7357000001,176904.58239999972
The Cynthia Corbett Gallery,15 Claremont Lodge,,,Merton,http://www.thecynthiacorbettgallery.com/#,48022286,E09000024,Raynes Park,E05013823,51.41499765,-0.221209569,523794.4249999998,169942.9592000004
Bank of England Museum,Bartholomew Lane,,,City of London,http://www.bankofengland.co.uk/education/Pages/museum/visiting/default.aspx#,95511162,E09000001,Cornhill,E05009301,51.51372411,-0.086112163,532901.4908999996,181157.9600000009
Carter Lane Gallery,49 Carter Lane,,,City of London,http://www.carterlanegallery.com/#,95514285,E09000001,Castle Baynard,E05009297,51.51242821,-0.098778453,532026.3967000004,180990.93950000033
Pumphouse Gallery,Battersea Park,,,Wandsworth,http://pumphousegallery.org.uk/#,121032970,E09000032,Battersea Park,E05014010,51.47848393,-0.153207646,528344.9912999999,177119.5901999995
Brent Artists Resource,4â„5Â Queenâ€™s Parade,,,Brent,http://www.brentartistsresource.org.uk/#,202054057,E09000005,Willesden Green,E05013517,51.5471635,-0.22221816,523367.4036999997,184638.33449999988
Crane Kalman,178 Brompton Road,,,Kensington and Chelsea,http://cranekalman.com/#,217007694,E09000020,Brompton & Hans Town,E05009389,51.49745899,-0.165725579,527422.9053999996,179207.80360000022
Hollywood Road Gallery,12 Hollywood Road,,,Kensington and Chelsea,http://www.hollywoodroadgallery.com/#,217040769,E09000020,Redcliffe,E05009402,51.48552552,-0.183116086,526248.7834999999,177850.68119999953
The Rowley Gallery,115 Kensington Church Street,,,Kensington and Chelsea,http://www.rowleygallery.co.uk/#,217043176,E09000020,Campden,E05009390,51.50626751,-0.193200542,525491.6852000002,180139.9023000002
Japanese Gallery,66D Kensington Church St,,,Kensington and Chelsea,http://www.japanese-gallery.com/#,217043283,E09000020,Campden,E05009390,51.50481322,-0.192206067,525564.6946,179979.8864999991
Northcote Gallery Chelsea,253 Kingâ€™s Road,,,Kensington and Chelsea,http://www.northcotegallery.com/#,217046439,E09000020,Chelsea Riverside,E05009391,51.48553399,-0.170416849,527130.4385000002,177873.57719999924
Museum of Brands,111-117 Lancaster Road,,,Kensington and Chelsea,http://www.museumofbrands.com/#,217050374,E09000020,Notting Dale,E05009399,51.51586215,-0.209527314,524332.5477,181179.00650000013
James Harvey British Art,15 Langton Street,,,Kensington and Chelsea,http://www.jhba.co.uk/#,217051631,E09000020,Chelsea Riverside,E05009391,51.48184261,-0.179344634,526520.8032999998,177447.63599999994
Doyle Devere,30 Ledbury Road,,,Kensington and Chelsea,http://www.doyledevere.co.uk/#,217052558,E09000020,Pembridge,E05009400,51.51336221,-0.1972151,525193.6458,180921.97800000012
Tryon St,7-9 Tryon Street,,,Kensington and Chelsea,http://www.tryonst.co.uk/#,217087920,E09000020,Royal Hospital,E05009403,51.48981789,-0.161350241,527747.9447999997,178365.72130000032
Lacey Contemporary,8 Clarendon Cross,,,Kensington and Chelsea,http://www.laceycontemporarygallery.co.uk/#,217103015,E09000020,Norland,E05009398,51.50998432,-0.208604785,524412.5630999999,180526.94539999962
The Dot Project,94 Fulham Road,,,Kensington and Chelsea,http://www.thedotproject.com/#,217103153,E09000020,Stanley,E05009405,51.48928315,-0.17374671,526888.8521999996,178284.7184999995
Offer Waterman & Co,11 Langton Street,,,Kensington and Chelsea,http://www.waterman.co.uk/#,217103621,E09000020,Chelsea Riverside,E05009391,51.48177813,-0.179246376,526527.8037999999,177440.63529999927
Cadogan Contemporary,87 Old Brompton Road,,,Kensington and Chelsea,http://www.cadogancontemporary.com/#,217103741,E09000020,Courtfield,E05009393,51.49200577,-0.175323519,526771.8382000001,178584.74880000018
The Muse,269 Portobello Rd,,,Kensington and Chelsea,http://themuseat269.com/#,217103948,E09000020,Colville,E05009392,51.51742491,-0.205271243,524623.5783000002,181360.0214000009
GGGallery,15b Blenheim Crescent,,,Kensington and Chelsea,http://www.gggallery.co.uk/#,217106096,E09000020,Colville,E05009392,51.51514051,-0.204092588,524711.5904999999,181107.99719999917
Richard Young Gallery,4 Holland Street,,,Kensington and Chelsea,http://www.richardyounggallery.co.uk/#,217106179,E09000020,Campden,E05009390,51.50280048,-0.190550283,525685.1398,179758.9054000005
Hackelbury,4 Launceston Place,,,Kensington and Chelsea,http://www.hackelbury.co.uk/#,217106588,E09000020,Queen's Gate,E05009401,51.49852225,-0.183766347,526167.7670999998,179294.8189000003
Richard Green 2,33 New Bond Street,,,Westminster,http://www.richard-green.com/#,10033538913,E09000033,West End,E05013808,51.51123753,-0.142044713,529027.6667999998,180781.4428000003
The Foundry Gallery,39 Old Church Street,,,Kensington and Chelsea,http://www.thefoundrygallery.org/#,217106994,E09000020,Chelsea Riverside,E05009391,51.48387629,-0.170750556,527111.8722999999,177688.6579
The Little Black Gallery,13A Park Walk,,,Kensington and Chelsea,http://www.thelittleblackgallery.com/#,217107061,E09000020,Stanley,E05009405,51.48540507,-0.17825199,526586.8196,177845.67769999988
Saatchi Gallery,Duke of York's HQ,King's Road,,Kensington and Chelsea,http://www.saatchi-gallery.co.uk/#,217110596,E09000020,Royal Hospital,E05009403,51.49009321,-0.157118058,528040.9764,178403.7240999993
Graffik Gallery,284 Portobello Road,,,Kensington and Chelsea,http://graffikgallery.com/#,217113237,E09000020,Colville,E05009392,51.51884574,-0.205849663,524579.5718999999,181517.03690000065
Flying Colours Gallery,6 Burnsall Street,,,Kensington and Chelsea,http://www.flyingcoloursgallery.com/#,217115299,E09000020,Royal Hospital,E05009403,51.48830408,-0.164609267,527525.9212999996,178191.70680000074
Michael Hoppen Gallery,3 Jubilee Place,,,Kensington and Chelsea,http://www.michaelhoppengallery.com/#,217120296,E09000020,Royal Hospital,E05009403,51.48845439,-0.164444764,527536.9223999996,178208.7076999992
Dreamspace Gallery,3 Dufferin Street,,,Islington,https://adremgroup.com/dreamspace-gallery/#,5300028758,E09000019,Bunhill,E05013699,51.522075,-0.09082227,532550.4457,182078.04649999924
Bloomberg Space,50 Finsbury Square,,,City of London,http://www.bloombergspace.com/#,5300033404,E09000001,Bishopsgate,E05009292,51.51948888,-0.085553305,532923.4874,181800.02419999987
Arcade,87 Lever Street,,,Islington,http://arcadefinearts.com/#,5300056285,E09000019,Bunhill,E05013699,51.52650211,-0.09483273,532259.4112999998,182563.0901999995
Sway Gallery,70-72 Old Street,,,Islington,http://www.sway-gallery.com/#,5300069554,E09000019,Bunhill,E05013699,51.52372993,-0.093593237,532353.4236000003,182257.06110000052
Islington Arts Factory,2 Parkhurst Rd,,,Islington,http://www.islingtonartsfactory.org/#,5300075947,E09000019,Holloway,E05013706,51.55371125,-0.121265295,530348.1821999997,185541.3677999992
James Freeman Gallery,354 Upper Street,,,Islington,http://www.sesameart.com/#,5300095173,E09000019,St Peter's & Canalside,E05013711,51.53409791,-0.102922698,531676.3414000003,183393.16840000078
Curious Duke Gallery,173 Whitecross Street,,,Islington,http://curiousdukegallery.com/#,5300102398,E09000019,Bunhill,E05013699,51.52317249,-0.091944142,532469.4363000002,182198.05729999952
Space Station 65,373 Kennington Road,,,Lambeth,http://spacestationsixtyfive.com/#,10000445110,E09000022,Kennington,E05014105,51.48601134,-0.109183494,531380.3370000003,178034.66589999944
CGP London,1 Park Approach,Southwark Park,,Southwark,http://cgplondon.org/#,10000811263,E09000028,Rotherhithe,E05011112,51.49363345,-0.052317588,535305.7708,178985.76369999908
Purdy Hicks,65 Hopton Street,,,Southwark,http://www.purdyhicks.com/#,10000811558,E09000028,Borough & Bankside,E05011095,51.50695993,-0.100432908,531927.3893999998,180379.88570000045
Sprout Community Arts,74 Moyser Road,,,Wandsworth,http://www.sproutarts.com/#,10008157629,E09000032,Furzedown,E05014013,51.42351214,-0.145628394,529025.9699999997,171019.98900000006
Flowers Gallery East,82 Kingsland Road,,,Hackney,http://www.flowersgallery.com/#,10008242588,E09000012,Haggerston,E05009375,51.52913735,-0.075559892,533588.5467999997,182891.14990000054
Parasol unit,14 Wharf Road,,,Hackney,http://www.parasol-unit.org/#,10008244219,E09000012,Hoxton West,E05009378,51.52986692,-0.093424071,532347.3673999999,182939.80959999934
Five Years,"Unit 66, Regent Studios",8 Andrews Road,,Hackney,http://www.fiveyears.org.uk/#,10008244601,E09000012,London Fields,E05009381,51.53499195,-0.058627996,534745.6577000003,183573.27569999918
Rocket Gallery,56 Shoreditch High Street,,,Tower Hamlets,http://www.rocketgallery.com/#,10008304903,E09000030,Weavers,E05009335,51.52356281,-0.07510294,533636.5575000001,182272.08750000037
Hoxton Art Gallery,64 Charlotte Road,,,Hackney,http://www.hoxtonartgallery.co.uk/#,10008317965,E09000012,Hoxton East & Shoreditch,E05009377,51.52579324,-0.079492834,533325.5230999999,182512.10510000028
Galerie8,203 Richmond Road,,,Hackney,http://www.galerie8.co.uk/#,10008325659,E09000012,London Fields,E05009381,51.54308574,-0.055499462,534938.7096999995,184479.09410000034
The Proud Archivist,"The Archivist, Unit V Reliance Wharf",2-10 Hertford Road,,Hackney,http://www.theproudarchivist.co.uk/#,10008329599,E09000012,Haggerston,E05009375,51.53675409,-0.077120569,533458.0236999998,183735.3077000007
Charlie Smith,336 Old Street,,,Hackney,http://charliesmithlondon.com/#,10008336390,E09000012,Hoxton East & Shoreditch,E05009377,51.52607799,-0.079855719,533299.5201000003,182543.1085000001
Unit G Gallery,12A Collent Street,,,Hackney,http://unitg.london/gallery/#,10008339282,E09000012,Hackney Wick,E05009374,51.54353673,-0.046037109,535593.4771999996,184546.71800000034
BSMT Space,5d Stoke Newington Road,,,Hackney,http://www.bsmt.co.uk/#,10008342181,E09000012,Dalston,E05009370,51.55027066,-0.073816911,533647.5640000002,185244.43319999985
Modern Art 1,4-8 Helmet Row,,,Islington,http://www.modernart.net/#,10008977815,E09000019,Bunhill,E05013699,51.52452873,-0.092939916,532396.4274000004,182347.0708000008
Vibe Gallery,100 Clementâ€™s Road,,,Southwark,https://www.thegalleryguide.co.uk/galleries/vibe-gallery,10009799375,E09000028,North Bermondsey,E05011106,51.4942482,-0.060648022,534725.7061000001,179038.76429999992
All Visual Arts,2 Omega Place,,,Islington,http://www.allvisualarts.org/,10012789978,E09000019,Clerkenwell,E05013702,51.5309543,-0.118813917,530583.2230000002,183015.13529999927
Cubitt Gallery,8 Angel Mews,,,Islington,http://cubittartists.org.uk/#,10012791474,E09000019,Clerkenwell,E05013702,51.53184051,-0.106261015,531451.3187999995,183136.1423000004
Unit 24,20 Great Guildford Street,,,Southwark,http://unit24.info/#,10013527858,E09000028,Borough & Bankside,E05011095,51.505427,-0.096302938,532218.4226000002,180216.86959999986
Vitrine,15 Bermondsey Square,,,Southwark,http://www.vitrinegallery.co.uk/#,10013529059,E09000028,London Bridge & West Bermondsey,E05011104,51.49687761,-0.079165688,533432.6530999998,179297.25119999982
Horatio Jr,"The Lord Nelson, 66 Canon Beck Road",,,Southwark,http://www.horatiojr.com/#,10013529797,E09000028,Rotherhithe,E05011112,51.50063633,-0.047934029,535589.2721999995,179772.59259999916
The Wandsworth Museum,38 West Hill,,,Wandsworth,http://www.wandsworthmuseum.co.uk/#,10024086836,E09000032,East Putney,E05014011,51.45662105,-0.198904848,525231.6242000004,174609.37700000033
Skarstedt Gallery,8 Bennet Street,,,Westminster,http://www.skarstedt.com/#,10033524577,E09000033,St James's,E05013806,51.50660747,-0.13902792,529250.0958000002,180271.8928999994
Scream,27 - 28 Eastcastle Street,,,Westminster,http://www.screamlondon.com/#,10033525838,E09000033,West End,E05013808,51.51620658,-0.136950107,529367.0987999998,181342.99300000072
Ben Brown Fine Arts,12 Brookâ€™s Mews,,,Westminster,http://www.benbrownfinearts.com/#,10033526904,E09000033,West End,E05013808,51.51189141,-0.144433792,528860.0477999998,180849.94969999976
Marlborough Fine Art,6 Albemarle Street,,,Westminster,http://www.marlboroughfineart.com/#,10033528809,E09000033,St James's,E05013806,51.50805031,-0.139271776,529229.0921,180431.90809999965
Messum's,28 Cork Street,,,Westminster,http://www.messums.com/#,10033532792,E09000033,West End,E05013808,51.50996577,-0.139827885,529185.0853000004,180643.92860000022
Serpentine Gallery,Kensington Gardens,,,Westminster,http://www.serpentinegallery.org/#,10033534401,E09000033,Knightsbridge & Belgravia,E05013797,51.50427907,-0.173406528,526870.8383,179952.8764999993
Frith Street Gallery,17-18 Golden Square,,,Westminster,http://www.frithstreetgallery.com/#,10033534803,E09000033,West End,E05013808,51.51068715,-0.135416932,529489.1178000001,180731.93500000052
Sprovieri,23 Heddon Street,,,Westminster,http://www.sprovieri.com/london/#,10033536350,E09000033,West End,E05013808,51.51061608,-0.138302438,529289.0960999997,180718.93510000035
Berloni,63 Margaret Street,,,Westminster,http://www.berlonigallery.com/#,10033537907,E09000033,West End,E05013808,51.51613516,-0.138682793,529247.0856999997,181331.99230000004
Chelsea Space,Chelsea College of Arts,16 John Islip Street,,Westminster,http://www.chelseaspace.org/#,10033538283,E09000033,Vincent Square,E05013807,51.48992522,-0.126655127,530156.2063999996,178438.71380000003
Olivier Malingue,1st Floor,143 New Bond St,,Westminster,http://oliviermalingue.com/#,10033538864,E09000033,West End,E05013808,51.5109879,-0.142467085,528999.0640000002,180752.9397
Richard Green 1,147 New Bond Street,,,Westminster,http://www.richard-green.com/#,10033538867,E09000033,West End,E05013808,51.51080518,-0.142287149,529012.0656000003,180732.93789999932
White Cube,25-26 Masonâ€™s Yard,,,Westminster,http://whitecube.com/#,10033550744,E09000033,St James's,E05013806,51.50710128,-0.135577762,529488.1213999996,180332.89800000004
Willow Gallery,40 - 41 Duke Street,St James's,,Westminster,http://www.willowgallery.com/#,10033555200,E09000033,St James's,E05013806,51.50683819,-0.136402051,529431.6655000001,180302.18539999984
Blain Southern,4 Hanover Square,,,Westminster,http://www.blainsouthern.com/#,10033556658,E09000033,West End,E05013808,51.51334583,-0.141434251,529064.0686999997,181016.96380000003
Albemarle Gallery,49 Albemarle Street,,,Westminster,http://www.albemarlegallery.com/#,10033567550,E09000033,St James's,E05013806,51.5075163,-0.139625012,529206.0900999997,180371.90249999985
Rosenfeld Porcini,37 Rathbone Street,,,Westminster,http://rosenfeldporcini.com/#,10033569652,E09000033,West End,E05013808,51.5180099,-0.134411482,529538.1156000001,181548.01099999994
Lisson Gallery 1,67 Lisson St,Marylebone,,Westminster,http://www.lissongallery.com/#,10033571495,E09000033,Hyde Park,E05013796,51.52057634,-0.166555495,527300.8684999999,181777.04560000077
London Print Studio,425 Harrow Rd,,,Westminster,http://www.londonprintstudio.org.uk/#,10033572217,E09000033,Harrow Road,E05013795,51.52517449,-0.203914024,524696.5778999999,182224.10199999996
Eykyn Maclean,30 St George Street,,,Westminster,http://www.eykynmaclean.com/#,10033579746,E09000033,West End,E05013808,51.51187604,-0.1411914,529085.0724999998,180853.94930000044
Laurent Delaye Gallery,11 Savile Row,,,Westminster,http://www.laurentdelaye.com/#,10033580791,E09000033,West End,E05013808,51.5104559,-0.13840986,529282.0954,180700.93329999968
Pyms Gallery,9 Mount Street,,,Westminster,http://www.pymsgallery.com/#,10033584285,E09000033,West End,E05013808,51.5098081,-0.146910969,528694.0317000002,180613.9280999992
Imitate Modern,19 Shepherd Market,,,Westminster,http://imitatemodern.com/#,10033585747,E09000033,West End,E05013808,51.50592343,-0.145238341,528821.0494999997,180184.88790000044
Debut Contemporary,82 Westbourne Grove,,,Westminster,http://www.debutcontemporary.com/#,10033585998,E09000033,Bayswater,E05013793,51.51485061,-0.191664496,525574.6858000001,181096.9918000009
Mark Gallery,9 Porchester Place,,,Westminster,http://www.markgallery.co.uk/#,10033586949,E09000033,Hyde Park,E05013796,51.51436604,-0.163950904,527498.8962000003,181090.98000000045
Halcyon Gallery I,144-146 New Bond Street,,,Westminster,http://www.halcyongallery.com/#,10033587866,E09000033,West End,E05013808,51.51088789,-0.142399088,529004.0647,180741.9383000005
PM/AM,259-269 Old Marylebone Road,,,Westminster,http://www.pmam.org/#,10033588738,E09000033,Marylebone,E05013801,51.51772196,-0.165185374,527403.8825000003,181462.01590000093
Graham Hunter Gallery,81 Baker Street,,,Westminster,http://www.grahamhuntergallery.co.uk/#,10033590107,E09000033,Marylebone,E05013801,51.5194382,-0.155342499,528081.9549000002,181670.0307
Sims Reed Gallery,The Economist Building,30 Bury Street,,Westminster,http://gallery.simsreed.com/#,10033591023,E09000033,St James's,E05013806,51.50638098,-0.137207443,529377.0698999995,180249.92039999925
Getty Images Gallery,46 Eastcastle Street,,,Westminster,http://www.gettyimagesgallery.com/#,10033592323,E09000033,West End,E05013808,51.51580253,-0.137557597,529326.0947000002,181296.98939999938
Sadie Coles HQ,62 Kingly Street,Mayfair,,Westminster,http://www.sadiecoles.com/#,10033594510,E09000033,West End,E05013808,51.51179933,-0.137490282,529342.1007000003,180851.94769999944
Waddington Custot Galleries,11 Cork Street,,,Westminster,http://www.waddingtoncustot.com/#,10033594958,E09000033,West End,E05013808,51.50960001,-0.140015737,529173.0844,180602.9243999999
Heartbreak,17 Bulstrode Street,,,Westminster,http://www.heart-break.co.uk/#,10033596047,E09000033,Marylebone,E05013801,51.51712289,-0.14938174,528502.0031000003,181423.00510000065
Berrd Jacobson Gallery,6 Cork Street,,,Westminster,http://www.jacobsongallery.com/#,10033601869,E09000033,West End,E05013808,51.51003691,-0.140343849,529149.0812999997,180650.9297000002
St Petersburg Gallery,5A Cork St,Mayfair,,Westminster,http://www.saintpetersburggallery.com/#,10033601869,E09000033,West End,E05013808,51.51003691,-0.140343849,529149.0812999997,180650.9297000002
Michael Werner Gallery,22 Upper Brook Street,,,Westminster,http://www.michaelwerner.com/#,10033602320,E09000033,West End,E05013808,51.51084502,-0.154493399,528164.9725000001,180715.94150000066
Workplace Gallery,61 Conduit Street,,,Westminster,http://www.workplacegallery.co.uk/#,10033604984,E09000033,West End,E05013808,51.51217866,-0.13929091,529216.0866,180890.9517000001
Paradise Row,74 Newman Street,,,Westminster,http://www.paradiserow.com/#,10033614774,E09000033,West End,E05013808,51.51711828,-0.1343326,529546.1173999999,181449.00129999965
Edel Assanti,74A Newman Street,,,Westminster,http://www.edelassanti.com/#,10033614780,E09000033,West End,E05013808,51.51711828,-0.1343326,529546.1173999999,181449.00129999965
Rook & Raven,7 Rathbone Place,,,Westminster,http://www.rookandraven.co.uk/#,10033616135,E09000033,West End,E05013808,51.51631722,-0.131467958,529747.1403000001,181364.9927999992
Partners & Mucciaccia,45 Dover Street,,,Westminster,http://partnersandmucciaccia.net/#,10033616760,E09000033,St James's,E05013806,51.50734591,-0.140222845,529165.0857999995,180351.90069999918
James Hyman Fine Art,5 Saville Row,,,Westminster,http://www.jameshymanfineart.com/#,10033619032,E09000033,West End,E05013808,51.51009342,-0.138237271,529295.0971999997,180660.9297000002
Hauser & Wirth 2,23 Saville Row,,,Westminster,http://www.hauserwirth.com/#,10033621621,E09000033,West End,E05013808,51.511485,-0.139218286,529223.0880000005,180813.94400000013
Great Western Studios,65 Alfred Street,,,Westminster,http://www.greatwesternstudios.com/#,10033624231,E09000033,Westbourne,E05013809,51.52068971,-0.194734461,525345.6546,181741.0535000004
Aktis Gallery,10-11 Park Place,,,Westminster,http://aktis-gallery.co.uk/#,10033625370,E09000033,St James's,E05013806,51.50574266,-0.13837141,529298.1019000001,180176.8836000003
"Pertwee,  Anderson & Gold",15 Bateman Street,,,Westminster,http://www.pertweeandersongold.com/#,10033628259,E09000033,West End,E05013808,51.51345343,-0.130662675,529811.1501000002,181047.96299999952
David Gill,2-4 King Street,,,Westminster,http://www.davidgillgallery.com/#,10033629513,E09000033,St James's,E05013806,51.50626107,-0.135338243,529507.1244000001,180239.88910000026
Whitfield Fine Art,1st floor,23 Dering Street,,Westminster,http://www.whitfieldfineart.com/#,10033630031,E09000033,West End,E05013808,51.51374527,-0.14394044,528889.0491000004,181056.9693
Thomas Dane Gallery,11 Duke Street,,,Westminster,http://www.thomasdanegallery.com/#,10033630669,E09000033,St James's,E05013806,51.50681063,-0.135964335,529462.1189000001,180299.89409999922
Victoria Miro Gallery II,14 St George Street,,,Westminster,http://www.victoria-miro.com/#,10033631243,E09000033,West End,E05013808,51.51238451,-0.14206434,529023.0652999999,180908.95380000025
Alison Jacques Gallery,16-18 Berners Street,,,Westminster,http://www.alisonjacquesgallery.com/,10033631411,E09000033,West End,E05013808,51.51696659,-0.134973061,529502.1128000002,181431.00060000084
Fold,158 New Cavendish Street,,,Camden,http://www.foldgallery.com/#,10033632030,E09000007,Bloomsbury,E05013653,51.52002532,-0.137861027,529293.0866,181766.03339999914
Annely Juda Fine Art,4th floor,23 Dering Street,,Westminster,http://www.annelyjudafineart.co.uk/#,10033633944,E09000033,West End,E05013808,51.51374527,-0.14394044,528889.0491000004,181056.9693
Gagosian Gallery 2,17-19 Davies Street,,,Westminster,http://www.gagosian.com/#,10033634159,E09000033,West End,E05013808,51.51054271,-0.146160507,528744.0363999996,180696.9364
The Sunday Painter,1st Floor,12-16 Blenheim Grove,,Southwark,http://www.thesundaypainter.co.uk/#,10090286666,E09000028,Rye Lane,E05011113,51.46921688,-0.06761387,534315.6618999997,176242.49990000017
Beers London,1 Baldwin Street,,,Hackney,http://beerslondon.com/#,10090548970,E09000012,Hoxton West,E05009378,51.52649653,-0.087306703,532781.4658000004,182576.1015000008
Pangolin London,90 York Way,,,Islington,http://www.pangolinlondon.com/#,10090550427,E09000019,Caledonian,E05013700,51.53448925,-0.119966009,530493.2106999997,183406.1713999994
William Benington,20 Arlington Way,,,Islington,http://williambeningtongallery.co.uk/#,10091004086,E09000019,St Peter's & Canalside,E05013711,51.52968989,-0.104519048,531578.3344999999,182900.12030000053
Maestro Arts,One Eastfields Avenue,,,Wandsworth,http://www.maestroarts.com/#,10091499728,E09000032,Thamesfield,E05014022,51.46135157,-0.196558984,525381.6431,175139.42060000077
Plus One Gallery,89-91 Pimlico Road,,,Wandsworth,http://www.plusonegallery.com/#,10091504329,E09000032,Falconbrook,E05014012,51.46263131,-0.183334547,526296.7346000001,175304.41939999908
Son Gallery,Unit 9C,133 Copeland Road,,Southwark,http://cargocollective.com/songallery/About,10091666064,E09000028,Rye Lane,E05011113,51.46949183,-0.06415312,534555.2131000003,176279.42669999972
ICN,96-98 Leord Street,,,Hackney,http://www.icn-global.com/#,10091782215,E09000012,Hoxton East & Shoreditch,E05009377,51.52407657,-0.080104287,533288.1209000004,182320.09469999932
Amstel Art Gallery,7 St George Wharf,,,Lambeth,http://amstelart.com/#,10091846195,E09000022,Vauxhall,E05014117,51.48484375,-0.124961977,530288.2182,177876.65750000067
Pace London 1,6 Burlington Gardens,,,Westminster,http://www.pacegallery.com/#,10091853844,E09000033,West End,E05013808,51.50915382,-0.138535006,529277.0963000003,180555.91970000044
Asia House,63 New Cavendish Street,,,Westminster,http://asiahouse.org/#,10091858261,E09000033,West End,E05013808,51.51919745,-0.144641359,528825.0362,181662.02600000054
Coningsby Gallery,30 Tottenham Street,Fitzrovia,,Camden,https://www.coningsbygallery.com/#,10091859525,E09000007,Bloomsbury,E05013653,51.51985559,-0.13453787,529524.1120999996,181753.0304000005
Blackhall Studios,73 Leord Street,,,Hackney,http://www.blackallstudios.com/#,10091941036,E09000012,Hoxton East & Shoreditch,E05009377,51.5243398,-0.081356182,533200.5115999999,182347.08620000072
Newport Street,3 Newport Street,,,Lambeth,http://www.newportstreetgallery.com/#,10093376049,E09000022,Kennington,E05014105,51.49291799,-0.11539545,530929.2915000003,178791.57349999994
Paul McPherson Gallery,77 Lassell Street,,,Greenwich,http://www.paulmcgallery.com/#,100020981999,E09000011,East Greenwich,E05014076,51.48418555,0.00345882,539206.2646000003,178039.6984000001
Galleries Goldstein,"Goodhood, 20 Coronet Street",,,Hackney,http://galleriesgoldstein.com/#,100021034288,E09000012,Hoxton East & Shoreditch,E05009377,51.52671251,-0.080708531,533238.5131000001,182612.1144999992
Danielle Arud,123 Kennington Road,,,Lambeth,http://www.daniellearnaud.com/#,100021856991,E09000022,Kennington,E05014105,51.4942894,-0.108869727,531378.3406999996,178955.75689999945
Caroline Wiseman,26 Lansdowne Gardens,,,Lambeth,http://www.carolinewiseman.com/#,100021862472,E09000022,Stockwell West & Larkhall,E05014111,51.47606391,-0.124832425,530322.1984999999,176900.5547000002
Lisson Gallery 2,27 Bell St,Marylebone,,Westminster,http://www.lissongallery.com/#,100022725884,E09000033,Church Street,E05013794,51.52039326,-0.168076534,527195.8573000003,181754.04419999942
Rossi & Rossi,"21 Georgian House,",10 Bury Street,,Westminster,http://www.rossirossi.com/#,100022730755,E09000033,St James's,E05013806,51.50628997,-0.136590877,529420.1147999996,180240.88910000026
Fiumano Fine Art,27 Conught Street,,,Westminster,http://www.fiumanofineart.com/#,100022738339,E09000033,Hyde Park,E05013796,51.51392473,-0.163910995,527502.8970999997,181041.97509999946
CNB Gallery,32 Rivington Street,,,Hackney,http://cnbgallery.com/#,100022932983,E09000012,Hoxton East & Shoreditch,E05009377,51.52534361,-0.080045214,533288.5197999999,182461.09899999946
Red Gallery,3 Rivington Street,,,Hackney,http://www.redgallerylondon.com/#,100022933139,E09000012,Hoxton East & Shoreditch,E05009377,51.52565809,-0.081675622,533174.5076000001,182493.10050000064
Sigl Gallery,32 Paul Street,,,Hackney,http://www.signalgallery.com/#,100022933332,E09000012,Hoxton East & Shoreditch,E05009377,51.52304389,-0.082405439,533131.5056999996,182201.0691999998
The Residence,229 Victoria Park Road,,,Hackney,http://www.residence-gallery.com/#,100023024966,E09000012,Victoria,E05009386,51.53781866,-0.042557202,535851.7779000001,183917.30509999953
Mercer Chance,253 Hoxton Street,,,Hackney,http://www.mercerchance.co.uk/#,100023135423,E09000012,Hoxton East & Shoreditch,E05009377,51.53336585,-0.078943348,533341.5163000003,183355.19769999944
Daniel Blau,51 Hoxton Square,,,Hackney,http://www.danielblau.com/#,100023135514,E09000012,Hoxton East & Shoreditch,E05009377,51.52666246,-0.08007436,533282.6478000004,182607.7039999999
Waterside Contemporary,2 Clunbury Street,,,Hackney,http://waterside-contemporary.com/#,100023135532,E09000012,Hoxton West,E05009378,51.5315104,-0.083722304,533015.4852,183140.16359999962
renj Art Gallery,94 Alexandra Park Road,,,Haringey,http://www.narenj.co.uk/#,100023143066,E09000014,Alexandra Park,E05013585,51.59785152,-0.137075983,529127.0960999997,190421.91929999925
Highgate Contemporary Art,26 Highgate High Street,,,Camden,http://www.highgateart.com/#,100023196853,E09000007,Highgate,E05013661,51.57011295,-0.144848997,528667.0053000003,187323.57330000028
Morley College Gallery,61 Westminster Bridge Road,,,Southwark,https://www.morleycollege.ac.uk/facilities/the-gallery#,100023225348,E09000028,St George's,E05011114,51.49736611,-0.108367728,531404.3405999998,179298.78879999928
Gasworks Gallery,155 Vauxhall Street,,,Lambeth,http://www.gasworks.org.uk/#,100023230142,E09000022,Kennington,E05014105,51.48462055,-0.113850591,531060.301,177871.6512000002
Blackheath Gallery,34a Tranquil Vale,,,Greenwich,http://www.blackheath-gallery.co.uk/#,100023267656,E09000011,Blackheath Westcombe,E05014073,51.46587877,0.010547457,539754.3483999996,176017.4835000001
Bearspace,152 Deptford High Street,,,Lewisham,http://www.bearspace.co.uk/#,100023280386,E09000023,Deptford,E05013719,51.47898075,-0.024250769,537298.0155999996,177408.6445000004
Foss Fine Art,113b Northcote Road,,,Wandsworth,http://fossfineart.com/#,100023304718,E09000032,Northcote,E05014016,51.45655973,-0.163651714,527680.8650000002,174663.33929999918
Northcote Gallery Battersea,110 Northcote Road,,,Wandsworth,http://www.northcotegallery.com/#,100023304739,E09000032,Northcote,E05014016,51.45636157,-0.164206711,527642.8607999999,174640.33750000037
Kristin Hjellegjerde,533 Old York Road,,,Wandsworth,http://kristinhjellegjerde.com/#,100023326939,E09000032,Wandsworth Town,E05014028,51.45930095,-0.187224359,526035.7043000003,174927.38869999908
John Adams Fine Art,200 Ebury Street,,,Westminster,http://www.johnadamsfineart.com/#,100023346246,E09000033,Knightsbridge & Belgravia,E05013797,51.49045557,-0.151571299,528425.0181999998,178453.72580000013
Eleven,11 Eccleston Street,,,Westminster,http://www.elevenfineart.com/#,100023346410,E09000033,Pimlico North,E05013802,51.49382757,-0.146406592,528774.0563000003,178837.76099999994
The Osborne Studio Gallery,2 Motcomb Street,,,Westminster,http://www.osg.uk.com/#,100023348455,E09000033,Knightsbridge & Belgravia,E05013797,51.49869392,-0.155013173,528162.9848999996,179363.8139999993
La Galleria,30 Royal Opera Arcade,Pall Mall,,Westminster,http://www.lagalleria.org/#,100023349436,E09000033,St James's,E05013806,51.50718811,-0.130299445,529854.1613999996,180351.8967000004
GRAD,3-4a Little Portland Street,,,Westminster,http://www.grad-london.com/#,100023466396,E09000033,West End,E05013808,51.51692373,-0.139068675,529218.0817,181419.0014999993
Stephen Wiltshire Gallery,5 Royal Opera Arcade,,,Westminster,http://www.stephenwiltshire.co.uk/london_gallery.aspx#,100023349482,E09000033,St James's,E05013806,51.50718677,-0.130491755,529840.8200000003,180351.4068
Panter and Hall,27 Bury Street,,,Westminster,http://www.panterandhall.com/#,100023349526,E09000033,St James's,E05013806,51.50661696,-0.131706359,529758.1514999997,180285.89130000025
Alan Cristea Gallery,43 Pall Mall,,,Westminster,http://www.alancristea.com/#,100023349532,E09000033,St James's,E05013806,51.50557485,-0.134602456,529560.1309000002,180164.8816999998
Malcolm Fairley,40 Bury Street,,,Westminster,http://www.malcolmfairley.com/#,100023349671,E09000033,St James's,E05013806,51.50585856,-0.13660848,529420.1151999999,180192.88480000012
Paisnel Gallery,9 Bury Street,,,Westminster,http://www.paisnelgallery.co.uk/#,100023349896,E09000033,St James's,E05013806,51.5062448,-0.136578309,529421.1149000004,180235.8883999996
Sladmore,57 Jermyn Street,,,Westminster,http://www.sladmore.com/#,100023349966,E09000033,St James's,E05013806,51.50724689,-0.13794979,529323.1031,180344.8998000007
Chris Beetles,8 & 10 Ryder Street,,,Westminster,http://www.chrisbeetles.com/#,100023350002,E09000033,St James's,E05013806,51.50661513,-0.136678491,529413.1136999996,180276.89250000007
Photofusion Gallery,17A Electric Ln,Brixton,,Lambeth,http://www.photofusion.org/photography-exhibitions/#,100023388443,E09000022,Brixton Windrush,E05014098,51.46135658,-0.11233368,531232.2725999998,175287.38929999992
Brixton Art Gallery,35 Brixton Station Road,,,Lambeth,http://www.brixtonartgallery.co.uk/#,100023388518,E09000022,Brixton Windrush,E05014098,51.46330407,-0.111518999,531283.2805000003,175505.40909999982
Two Temple Place,2 Temple Place,,,City of London,http://www.twotempleplace.org/#,100023433098,E09000001,Farringdon Without,E05009305,51.51109098,-0.11063857,531207.3060999997,180820.93180000037
Atlas Gallery,49 Dorset Street,,,Westminster,http://www.atlasgallery.com/#,100023460982,E09000033,Marylebone,E05013801,51.51899084,-0.153774859,528191.9671999998,181623.02600000054
Fashion Space Gallery,London College of Fashion,20 John Princes St,,Westminster,http://www.fashionspacegallery.com/#,100023463131,E09000033,West End,E05013808,51.51513066,-0.141693122,529041.0642999997,181214.98310000077
Hay Hill Gallery,35 Baker Street,,,Westminster,http://www.hayhillgallery.com/#,100023463338,E09000033,Marylebone,E05013801,51.51744211,-0.154303249,528159.6552999998,181449.88020000048
A&D Gallery,51 Chiltern Street,,,Westminster,http://www.aanddgallery.com/#,100023463458,E09000033,Marylebone,E05013801,51.5194632,-0.154072901,528169.9643999999,181675.03160000034
Pi Artworks,55 Eastcastle Street,,,Westminster,http://www.piartworks.com/#,100023466780,E09000033,West End,E05013808,51.51590312,-0.13653005,529397.1024000002,181309.9899000004
Pilar Corrias,54 Eastcastle Street,,,Westminster,http://www.pilarcorrias.com/#,100023466935,E09000033,West End,E05013808,51.5158955,-0.136616849,529391.1018000003,181308.98919999972
Art First,21 Eastcastle Street,,,Westminster,http://www.artfirst.co.uk/#,100023466981,E09000033,West End,E05013808,51.51630551,-0.136383892,529406.1029000003,181354.99430000037
ncy Victor,6 Charlotte Pl,Fitzrovia,,Camden,http://www.nancyvictor.com/#,100023467162,E09000007,Bloomsbury,E05013653,51.5182899,-0.134486531,529532.1146999998,181579.0145999994
Gallery Libby Sellers,41-42 Berners Street,,,Westminster,http://www.libbysellers.com/#,100023467596,E09000033,West End,E05013808,51.51770347,-0.136067345,529424.1035000002,181511.00850000046
Ronchini Gallery,22 Dering Street,,,Westminster,http://www.ronchinigallery.com/#,100023470794,E09000033,West End,E05013808,51.51374527,-0.14394044,528889.0491000004,181056.9693
Hauser & Wirth 1,196A Piccadilly,,,Westminster,http://www.hauserwirth.com/#,100023470962,E09000033,St James's,E05013806,51.50823625,-0.135689957,529477.1190999998,180458.90949999914
Anthony Reynolds Gallery,60 Great Marlborough Street,,,Westminster,http://www.anthonyreynolds.com/#,100023471398,E09000033,West End,E05013808,51.51408978,-0.135609492,529466.1118000001,181109.97089999914
Flowers Gallery Central,21 Cork Street,,,Westminster,http://www.flowersgallery.com/#,100023473240,E09000033,West End,E05013808,51.50962705,-0.13945254,529212.0887000002,180606.92459999956
Erskine Hall & Coe,15 Royal Arcade,28 Old Bond St,,Westminster,http://www.erskinehallcoe.com/#,100023473300,E09000033,West End,E05013808,51.50856688,-0.140086644,529171.0851999996,180487.91410000063
David Zwimer,24 Grafton Street,,,Westminster,http://www.davidzwirner.com/#,100023473310,E09000033,West End,E05013808,51.50896583,-0.141425169,529077.0745000001,180529.9185000006
Colghi,15 Old Bond Street,,,Westminster,http://www.colnaghi.com/#,100023473356,E09000033,West End,E05013808,51.50854951,-0.138992012,529247.0935000004,180487.91330000013
Gazelli Art House,39 Dover Street,,,Westminster,http://gazelliarthouse.com/#,100023473417,E09000033,West End,E05013808,51.50781388,-0.140809096,529123.0806999998,180402.9059999995
SprÃ¼th Magers,7 Grafton Street,,,Westminster,http://www.spruethmagers.com/#,100023473419,E09000033,West End,E05013808,51.50948124,-0.142168061,529024.0681999996,180585.92390000075
D-Contemporary,23 Grafton Street,,,Westminster,http://dcontemporary.com/#,100023473421,E09000033,West End,E05013808,51.50902966,-0.141480221,529073.074,180536.91939999908
Erarta Galleries,8 Berkeley Street,,,Westminster,http://www.erartagalleries.com/london.html#,100023473659,E09000033,St James's,E05013806,51.5073958,-0.141099945,529104.0789999999,180355.90240000002
Sladmore Contemporary,32 Bruton Place,,,Westminster,http://www.sladmore.com/#,100023473811,E09000033,West End,E05013808,51.5105464,-0.143551607,528925.0563000003,180701.93510000035
Lefevre Fine Art,31 Bruton Street,,,Westminster,http://www.lefevrefineart.com/#,100023474091,E09000033,West End,E05013808,51.51012443,-0.143597589,528923.0565,180654.93060000055
Sophia Contemporary,11 Grosvenor Street,,,Westminster,http://sophiacontemporary.com/#,100023474136,E09000033,West End,E05013808,51.51165317,-0.144155207,528880.0502000004,180823.9472000003
The Fine Art Society,148 New Bond Street,,,Westminster,http://faslondon.com/#,100023474398,E09000033,West End,E05013808,51.5107591,-0.142216958,529017.0662000002,180727.93740000017
Gimpel Fils,30 Davies Street,,,Westminster,http://www.gimpelfils.com/#,100023474837,E09000033,West End,E05013808,51.51144217,-0.146167228,528741.0351,180796.9456999991
Gallery Ele Shchuki,10 Lees Place,,,Westminster,http://galleryelenashchukina.com/#,100023475032,E09000033,West End,E05013808,51.5116366,-0.15278946,528280.9844000004,180806.94889999926
Sadie Coles HQ Davies Street,1 Davies Street,,,Westminster,http://www.sadiecoles.com/#,100023475710,E09000033,West End,E05013808,51.50805762,-0.149965329,528487.0108000003,180413.9110000003
Hamiltons Gallery,13 Carlos Place,,,Westminster,http://www.hamiltonsgallery.com/#,100023475924,E09000033,West End,E05013808,51.51011892,-0.148368465,528592.0202000001,180645.9321999997
Galeries Bartoux,104 New Bond Street,,,Westminster,http://www.galeries-bartoux.com/en/#,100023476528,E09000033,West End,E05013808,51.51303628,-0.144603469,528845.0449999999,180976.96220000088
Salon Contemporary,82 Westbourne Grove,,,Westminster,http://www.saloncontemporary.com/#,100023482451,E09000033,Bayswater,E05013793,51.51485061,-0.191664496,525574.6858000001,181096.9918000009
Thomas & Paul,20 Bristol Gardens,,,Westminster,http://www.thomasandpaul.com/#,100023513233,E09000033,Little Venice,E05013799,51.52256197,-0.184352468,526060.7313000001,181967.0702999998
Greenwich Printmakers Gallery,1a Greenwich Market,,,Greenwich,http://www.greenwich-printmakers.org.uk/#,100023537574,E09000011,Greenwich Park,E05014081,51.48085705,-0.007576419,538450.1617999999,177648.67049999908
The Invisible Line,"87 Dalston Lane,",,,Hackney,http://www.whitechapelgallery.org/first-thursdays/galleries/invisible-line-gallery/,100023545364,E09000012,Dalston,E05009370,51.54735022,-0.067405863,534100.6113,184931.41569999978
Fishbar,176 Dalston Lane,,,Hackney,http://fishbar.ph/#,100023545393,E09000012,Hackney Central,E05009372,51.54769047,-0.063496726,534370.6419000002,184976.4257999994
Rowing,2 Leswin Place,,,Hackney,http://www.rowingprojects.com/#,100023546708,E09000012,Stoke Newington,E05009385,51.55752194,-0.070682623,533843.6131999996,186056.52290000021
ContiniArtUK,105 New Bond Street,,,Westminster,http://www.continiartuk.com/#,100023608426,E09000033,West End,E05013808,51.51295402,-0.144520329,528851.0456999997,180967.9609999992
Max Wigram Gallery,106 New Bond Street,,,Westminster,http://www.maxwigram.com/#,100023608426,E09000033,West End,E05013808,51.51295402,-0.144520329,528851.0456999997,180967.9609999992
Timothy Taylor Gallery,15 Carlos Place,,,Westminster,http://www.timothytaylorgallery.com/#,100023616387,E09000033,West End,E05013808,51.51009059,-0.148283137,528598.0208999999,180642.9316000007
Andor Gallery,237 Hackney Road,,,Tower Hamlets,http://www.creativeandorcultural.com/#,100023649875,E09000030,Weavers,E05009335,51.53081191,-0.068553471,534069.5937999999,183090.1877999995
EXHIBIT at Golden Lane Estate,20 Goswell Road,,,City of London,http://www.exhibit-goldenlane.com/#,200000072012,E09000001,Cripplegate,E05009302,51.52193065,-0.095773228,532207.4099000003,182053.03759999946
The Sassoon Gallery,Arch 213 Blenheim Grove,Peckham,,Southwark,http://www.thesassoongallery.co.uk/#,200003492347,E09000028,Rye Lane,E05011113,51.46897371,-0.068548339,534251.4733999996,176213.74620000087
Crypt Museum,Byward Street,,,Tower Hamlets,http://www.allhallowsbythetower.org.uk/visit/crypt/,200000075582,E09000030,St Katharine's & Wapping,E05009330,51.50881823,-0.0775982,533506.5596000003,180627.91569999978
Brocket Gallery,16 Windmill Row,,,Lambeth,http://www.brocketgallery.com/#,200000468294,E09000022,Kennington,E05014105,51.48650486,-0.110229078,531306.3293000003,178087.67170000076
Orso Major Gallery,19 Lower Marsh,,,Lambeth,http://www.orsomajor.com/#,200000471760,E09000022,Waterloo & South Bank,E05014118,51.5000865,-0.111425214,531184.3139000004,179595.8183999993
Man & Eve,119-120 Lower Marsh,,,Lambeth,http://www.manandeve.co.uk/#,200000471832,E09000022,Waterloo & South Bank,E05014118,51.500296,-0.11158947,531172.3124000002,179618.82090000063
Clapham Art Gallery,Unit 02,40-48 Bromellâ€™s Road,,Lambeth,http://www.claphamartgallery.com/#,200000520874,E09000022,Clapham East,E05014100,51.46213347,-0.136720207,529536.0779999997,175330.3936999999
Victoria Miro Gallery I,16 Wharf Road,,,Hackney,http://www.victoria-miro.com/#,200002432213,E09000012,Hoxton West,E05009378,51.52981876,-0.093410366,532348.4576000003,182934.47890000045
Bischoff/Weiss,14a Hay Hill,,,Westminster,http://www.bischoffweiss.com/#,200002817730,E09000033,West End,E05013808,51.50849929,-0.142063888,529034.0702999998,180476.91339999996
Poppy Sebire,All Hallows Hall,6 Copperfield Street,,Southwark,http://www.poppysebire.com/#,200003353342,E09000028,Borough & Bankside,E05011095,51.5026559,-0.095683504,532269.4303000001,179909.84100000001
White Cube,144-152 Bermondsey Street,,,Southwark,http://whitecube.com/#,200003362685,E09000028,London Bridge & West Bermondsey,E05011104,51.49893711,-0.081068884,533294.5466999998,179522.80110000074
Flat Time House,210 Bellenden Road,,,Southwark,http://flattimeho.org.uk/#,200003391772,E09000028,Rye Lane,E05011113,51.46558419,-0.072576615,533981.6162999999,175829.45820000023
Arch Collective,Arch 12,Raymouth Road,,Southwark,http://www.archcollective.co.uk/#,200003401561,E09000028,North Bermondsey,E05011106,51.49160932,-0.057705715,534937.7329000002,178750.73839999922
Menier Gallery,51 Southwark Street,,,Southwark,http://www.meniergallery.co.uk/#,200003495859,E09000028,Borough & Bankside,E05011095,51.50411689,-0.092610677,532478.4524999997,180077.85529999994
Jerwood Space Gallery,171 Union Street,,,Southwark,http://www.jerwoodspace.co.uk/#,200003496580,E09000028,Borough & Bankside,E05011095,51.50309902,-0.09749519,532142.4156999998,179955.84699999914
Hanh Barry Gallery,"Unit 9i, 133 Copeland Road",,,Southwark,http://www.hannahbarry.com/#,200003497923,E09000028,Rye Lane,E05011113,51.46949183,-0.06415312,534555.2131000003,176279.42669999972
The Wapping Project Bankside,65 Hopton Street,,,Southwark,http://thewappingprojectbankside.com/#,200003498823,E09000028,Borough & Bankside,E05011095,51.50693554,-0.100592454,531916.3881999999,180376.8861999996
Contemporary Applied Arts,6 Paddington Street,W1U 5QG,,Westminster,http://www.caa.org.uk/#,100023463691,E09000033,Marylebone,E05013801,51.520921,-0.15255372,528271.2642000001,181839.80069999956
Cardi Gallery London,22 Grafton Street,,,Westminster,https://cardigallery.com/,100023473432,E09000033,West End,E05013808,51.509603,-0.14314012,528956.2721999995,180597.7522
Maureen Paley,60 Three Colts Lane,E2 6GQ,,Tower Hamlets,http://www.maureenpaley.com/#,See notes,E09000030,St Peter's,E05009331,51.52459,-0.05566,534982.2490999997,182422.01300000027
Arebyte,Java House,7 Botanic Square,,Tower Hamlets,http://www.arebyte.com/#,6703964,E09000030,Blackwall & Cubitt Town,E05009318,51.511286,0.005352869,539255.1113,181056.8370999992
Modern Art,7 Bury Street,London,,Westminster,,100023350006,E09000033,St James's,E05013806,51.506691,-0.13811417,529313.2693999996,180282.7940999996
Michael Hoppen Gallery,"Unit 10, Pall Mall Deposit",124-128 Barlby Road,,Kensington and Chelsea,http://www.michaelhoppengallery.com/#,217101233,E09000020,Dalgarno,E05009394,51.523233,-0.21889938,523662.33249999955,181982.79609999992
London Mithraeum Bloomberg SPACE,12 Wallbrook,EC4N 8AA,,City of London,http://www.bloombergspace.com/#,200000074797,E09000001,Cordwainer,E05009300,51.51242,-0.090595407,532594.2105999999,181004.81289999932
Parasol unit,32 Fitzroy Square,W1T 6EX,,Camden,http://www.parasol-unit.org/#,5087335,E09000007,Bloomsbury,E05013653,51.522404,-0.14057255,529098.2496999996,182025.7628000006
Five Years,Unit 2B1,Boothby Road,,Islington,http://www.fiveyears.org.uk/#,5300030666,E09000019,Junction,E05013707,51.565714,-0.13163513,529595.2081000004,186857.6958000008
Rocket Gallery,4-6 Sheep Lane,E8 4QS ,,Hackney,http://www.rocketgallery.com/#,10008322480,E09000012,London Fields,E05009381,51.535021,-0.060076278,534645.1319000004,183573.83860000037
Unit G Gallery,Vittoria Wharf,10 Stour Road,,Tower Hamlets,http://unitg.london/gallery/#,See notes,E09000030,Bow East,E05009319,51.53968,-0.02122,537325.8561000004,184164.05450000055
BSMT Space,529 Kingsland Road,E8 4AR,,Hackney,http://www.bsmt.co.uk/#,100023018345,E09000012,De Beauvoir,E05009371,51.54575,-0.075975007,533511.1579,184737.78079999983
Workplace Gallery,40 Margaret Street,W1G 0JH,,Westminster,http://www.workplacegallery.co.uk/#,100023466896,E09000033,West End,E05013808,51.516225,-0.14275555,528964.2603000002,181334.80409999937
Paradise Row,2 Bourdon Street,W1K 3PA,,Westminster,http://www.paradiserow.com/#,10033627127,E09000033,West End,E05013808,51.510661,-0.14688727,528693.2734000003,180708.8133000005
Edel Assanti,1B Little Titchfield Street,W1W 7BU,,Westminster,http://www.edelassanti.com/#,10033537536,E09000033,West End,E05013808,51.51803,-0.14092365,529086.2571,181538.74939999916
Muccaccia Gallery London,21 Dering Street,W1S 1AL,,Westminster,http://partnersandmucciaccia.net/#,10033550603,E09000033,West End,E05013808,51.514255,-0.14554521,528776.2655999996,181110.82939999923
James Hyman Fine Art,48 & 50 Maddox Street,W1S 1AY,,Westminster,http://www.jameshymanfineart.com/#,10033613168,E09000033,West End,E05013808,51.512573,-0.14385525,528898.2680000002,180926.7611999996
Aktis Gallery,50 Jermyn Street,SW1Y 6LX,,Westminster,http://aktis-gallery.co.uk/#,100023350003,E09000033,St James's,E05013806,51.507933,-0.13875522,529265.2695000004,180419.77449999936
The Sunday Painter,117-119 South Lambeth Road,SW8 1XA,,Lambeth,http://www.thesundaypainter.co.uk/#,10094054400,E09000022,Oval,E05014108,51.479165,-0.12345154,530409.2582,177247.8574000001
Beers London,51 Little Britain,EC1A 7BH,,City of London,http://beerslondon.com/#,95515159,E09000001,Farringdon Within,E05009304,51.518353,-0.099874759,531933.2143999999,181647.80260000005
Plus One Gallery,The Piper Building,Peterborough Road,,Hammersmith and Fulham,http://www.plusonegallery.com/#,See notes,E09000013,Palace & Hurlingham,E05013744,51.4659,-0.19315,525605.9681000002,175651.04209999926
Pace London 1,5 Hanover Square,W1S 1HQ,,Westminster,http://www.pacegallery.com/#,10033619140,E09000033,West End,E05013808,51.513919,-0.14309434,528947.2649999997,181077.77740000002
Highgate Contemporary Art,"Unit B307, The Chocolate Factory",5 Clarendon Road,,Haringey,http://www.highgateart.com/#,100023656707,E09000014,Noel Park,E05013595,51.594564,-0.11491639,530671.2534999996,190095.68820000067
Eleven,17 Gothic Road,Twickenham,,Richmond upon Thames,http://www.elevenfineart.com/#,100022336038,E09000027,West Twickenham,E05013790,51.442456,-0.3492755,514820.5190000003,172788.04509999976
La Galleria,298 Garratt Lane,Earlsfield,,Wandsworth,http://www.lagalleria.org/#,121045946,E09000032,Wandle,E05014026,51.444332,-0.19064344,525839.3022999996,173256.96880000085
Stephen Wiltshire Gallery,22 Palace Court,W2 4HU,,Westminster,http://www.stephenwiltshire.co.uk/london_gallery.aspx#,100023480490,E09000033,Bayswater,E05013793,51.511535,-0.19195961,525563.3234999999,180727.78350000083
Panter and Hall,11-12 Pall Mall,SW1Y 5LU,,Westminster,http://www.panterandhall.com/#,100023349526,E09000033,St James's,E05013806,51.507127,-0.13331222,529645.2648999998,180339.76510000043
Art First,The Forge,15 St Mary's Walk,,Lambeth,http://www.artfirst.co.uk/#,100023229968,E09000022,Kennington,E05014105,51.493655,-0.10849388,531406.2529999996,178885.8850999996
The Fine Art Society,25 Carby Street,W1F 7DE,,Westminster,http://faslondon.com/#,100023471189,E09000033,West End,E05013808,51.513413,-0.13894984,529236.2599999998,181028.81350000016
Timothy Taylor Gallery,15 Bolton Street,W1J 8BG,,Westminster,http://www.timothytaylorgallery.com/#,100023476347,E09000033,West End,E05013808,51.507277,-0.14443075,528873.2753999997,180336.82689999975
Andor Gallery,19 Ridley Road,E8 2NP,,Hackney,http://www.creativeandorcultural.com/#,10008464632,E09000012,Dalston,E05009370,51.54844,-0.073827857,533652.1606999999,185040.8406000007
Adrian Sassoon Gallery,14 Rutland Gate,SW7 1BB,,Westminster,http://www.thesassoongallery.co.uk/#,100023377613,E09000033,Knightsbridge & Belgravia,E05013797,51.501174,-0.16868269,527207.3126999997,179615.77930000052
Five Years,4 Holly Grove,SE15 5DF,,Southwark,http://www.hannahbarry.com/#,200003397260,E09000028,Rye Lane,E05011113,51.470288,-0.069648394,534171.2185000004,176357.87829999998
Rhodes Contemporary Art,3-5 Swallow Street,WC2H 8DA,,Camden,https://rhodescontemporaryart.com/,5066491,E09000007,Holborn & Covent Garden,E05013662,51.515427,-0.12764022,530015.2450000001,181272.7865999993
Catharine Miller Gallery,Hollywood Road Gallery,12 Hollywood Road,SW10 9HY,Kensington and Chelsea,https://www.catharinemiller.com/,217040769,E09000020,Redcliffe,E05009402,51.486038,-0.18471524,526136.3459000001,177904.91669999994
Frith Street Gallery Soho Square,60 Frith Street,W1D 3JJ,,Westminster,https://www.frithstreetgallery.com/,100023472257,E09000033,West End,E05013808,51.514213,-0.13215783,529705.2520000003,181129.77940000035
Pontone Gallery,74 Newman Street,W1T 3DB,,Westminster,https://pontonegallery.com/,10033614780,E09000033,West End,E05013808,51.517627,-0.1359386,529433.2522999998,181502.7324000001
Kristin Hjellegjerde Gallery (London Bridge),2 Melior Place,SE1 3SZ,,Southwark,https://kristinhjellegjerde.com/,No UPRN,E09000028,London Bridge & West Bermondsey,E05011104,51.50237,-0.08427,533062.3733000001,179898.71470000036
Sadie Coles HQ Brury Street,8 Bury Street,SW1Y 6AB,,Westminster,http://www.sadiecoles.com/#,100023349895,E09000033,St James's,E05013806,51.506691,-0.13811417,529313.2693999996,180282.7940999996
Ronchini Gallery,22 Dering Street,W1S 1AN,,Westminster,https://www.ronchinigallery.com/,No UPRN,E09000033,West End,E05013808,51.51416,-0.14626,528726.9384000003,181099.00889999978
Gaglirdi Gallery,509 King's Road,SW10 0TX,,Kensington and Chelsea,https://www.gagliardigallery.org/,217106780,E09000020,Chelsea Riverside,E05009391,51.480809,-0.18390032,526207.3355999999,177324.84080000035
Tanya Baxter Contemporary,436 King's Road,SW10 0LJ,,Kensington and Chelsea,https://tanyabaxtercontemporary.com/,217103526,E09000020,Stanley,E05009405,51.483214,-0.17777014,526626.3329999996,177602.8574000001
Eclectic Gallery,16 Newman Street,W1T 1PB,,Westminster,https://eclecticgallery.co.uk/,100023467662,E09000033,West End,E05013808,51.517255,-0.13514665,529489.2515000002,181462.7653000001
Hales London,7 Bethl Green Road,E1 6LA,,Hackney,https://halesgallery.com/,No UPRN,E09000012,Hoxton East & Shoreditch,E05009377,51.52373,-0.07622,533558.5795,182288.63939999975
Herald St (Shoreditch),2 Herald Street,E2 6JT,,Tower Hamlets,http://www.heraldst.com/,6176877,E09000030,St Peter's,E05009331,51.524865,-0.0555633,534988.1436999999,182452.7725000009
Herald St (Camden),43 Museum Street,WC1A 1LY,,Camden,http://www.heraldst.com/,5087447,E09000007,Bloomsbury,E05013653,51.517728,-0.12532617,530169.2401999999,181532.7697999999
Ojiri Gallery,29 Charlotte Road,EC2A 3PB,,Hackney,http://www.ojirigallery.com/,100022932998,E09000012,Hoxton East & Shoreditch,E05009377,51.525371,-0.081375219,533196.1826999998,182461.72250000015
Kate MacGarry,27 Old Nichol Street,E2 7HR,,Tower Hamlets,https://www.katemacgarry.com/,6004160,E09000030,Weavers,E05009335,51.524699,-0.075435373,533610.1721999999,182397.82630000077
Annka Kultys Gallery,Unit 9,472 Hackney Road,E2 9EQ,Tower Hamlets,http://www.annkakultys.com/,No UPRN,E09000030,St Peter's,E05009331,51.53214,-0.05829,534777.5198999997,183256.74929999933
Yield Gallery,Floor 2,8 Denmark Streets,WC2H 8LS,Camden,https://www.yieldgallery.com/,No UPRN,E09000007,Holborn & Covent Garden,E05013662,51.51513,-0.12946,529889.8298000004,181236.53140000068
Gallery Different,14 Percy Street,W1T 1DR,,Camden,https://www.gallerydifferent.co.uk/,5048677,E09000007,Bloomsbury,E05013653,51.518344,-0.13294012,529639.2474999996,181587.76640000008
Eden Gallery,103 New Bond Street,W1S 1ST,,Westminster,https://www.eden-gallery.com/,100023476668,E09000033,West End,E05013808,51.513602,-0.14634997,528722.2684000004,181036.8004999999
Delahunty Fine Art,29 Bruton St,W1J 6QP,,Westminster,http://www.delahuntyfineart.com/,100023474061,E09000033,West End,E05013808,51.51078,-0.14473518,528842.2698999997,180725.8292999994
Albermarle Gallery,Lower Ground Floor,74 Newman Street,W1T 3DB,Westminster,https://albemarlegallery.com/,10033614780,E09000033,West End,E05013808,51.517627,-0.1359386,529433.2522999998,181502.7324000001
ONEROOM Gallery,9 French Place,E1 6JB ,,Hackney,https://www.oneroomgallery.co.uk/,100021042272,E09000012,Hoxton East & Shoreditch,E05009377,51.525593,-0.078425034,533400.1764000002,182491.78460000083
Zari Gallery,73 Newman Street,W1T 3EJ,,Westminster,https://zarigallery.co.uk,100023459622,E09000033,West End,E05013808,51.517664,-0.13600915,529428.2527999999,181506.72220000066
Tsivrikos Shake,97 New Bond Street,W1S 1SN,,Westminster,https://www.tsivrikosshake.com/,10033598933,E09000033,West End,E05013808,51.513874,-0.14646865,528713.2673000004,181066.8387000002
Carlos Ishikawa,"Unit 4, Cook's Yard",88 Mile End Road,,Tower Hamlets,https://www.carlosishikawa.com/,6362222,E09000030,Stepney Green,E05009334,51.520049,-0.0520063,535249.1478000004,181923.78020000085
New Art Projects ,6D Sheep Ln,London,,Hackney,https://newartprojects.com/,10008322482,E09000012,London Fields,E05009381,51.535021,-0.060076278,534645.1319000004,183573.83860000037
Almine Rech,Broadbent House,Grosvenor Hill,London,Westminster,https://www.alminerech.com/,100023474128,E09000033,West End,E05013808,51.511655,-0.14664516,528707.2725999998,180819.77280000038
Dellasposa,2a Bathurst St,Tyburnia,London,Westminster,https://www.dellasposa.com/,100023477996,E09000033,Hyde Park,E05013796,51.512872,-0.17492953,526741.3021,180905.7882000003
Belmacz,45 Davies Street,London,,Westminster,http://belmacz.com/,100023474960,E09000033,West End,E05013808,51.512411,-0.14840153,528583.2737999996,180900.75650000013
Arcadia Missa,35 Duke Street,London,,Westminster,https://arcadiamissa.com/,10033571076,E09000033,West End,E05013808,51.515025,-0.15159604,528354.2714999998,181185.83430000022
Sarah Myerscough Gallery,The Old Boathouse,1 White Hart Lane,,Richmond upon Thames,https://www.sarahmyerscough.com/,100023308237,E09000027,Mortlake & Barnes Common,E05013783,51.470772,-0.25548509,521263.4035,176087.8925999999
Felix & Spear,71 St. Mary's Road,London ,,Ealing,https://www.felixandspear.com/,12083138,E09000009,Ealing Common,E05013521,51.504988,-0.30515836,517725.46160000004,179811.82770000026
Studio West,"Unit 1, 216 Kensington Park Road",London,,Kensington and Chelsea,https://studiowest.art/,See notes,E09000020,Colville,E05009392,51.5164,-0.20607,524570.9562999997,181244.6905000005
The Muse,269 Portobello Road,,,Kensington and Chelsea,https://themuseat269.london/,See notes,E09000020,Colville,E05009392,51.51792,-0.20683,524514.0824999996,181412.42559999973
Cecilia Brunson Projects,2G Royal Oak Yard,Bermondsey Street,,Southwark,https://www.ceciliabrunsonprojects.com/,10009800248,E09000028,London Bridge & West Bermondsey,E05011104,51.498986,-0.082382679,533203.2185000004,179525.84630000032
Corvi-Mora,1a Kempsford Road (off Wincott Street),London,,Lambeth,https://www.corvi-mora.com/,100023229773,E09000022,Kennington,E05014105,51.491182,-0.1085242,531411.2538000001,178610.83060000092
EMALIN,1 Holywell Lane,London,,Hackney,https://emalin.co.uk/,100022933086,E09000012,Hoxton East & Shoreditch,E05009377,51.523871,-0.077589364,533463.1766999997,182301.81980000064
Goodman Gallery,26 Cork Street,London,,Westminster,https://www.goodman-gallery.com/,10033640464,E09000033,West End,E05013808,51.510257,-0.14126892,529084.2685000002,180673.77339999937
Gossamer Fog,BST 186a Deptford High Street,London,,Lewisham,https://www.gossamerfog.com/,100023280536,E09000023,Deptford,E05013719,51.480444,-0.026114803,537164.1920999996,177567.86309999973
greengrassi,1a Kempsford Road,London,,Lambeth,https://www.greengrassi.com/,100023229773,E09000022,Kennington,E05014105,51.491182,-0.1085242,531411.2538000001,178610.83060000092
HackelBury Fine Art,4 Launceston Place,London,,Kensington and Chelsea,https://hackelbury.co.uk/,217106588,E09000020,Queen's Gate,E05009401,51.499033,-0.18536596,526055.3322000001,179348.86180000007
Hazlitt Holland-Hibbert,37-38 Bury Street,London,,Westminster,www.hh-h.com,100023349899,E09000033,St James's,E05013806,51.506479,-0.13835337,529297.2699999996,180258.7971999999
Hignell Gallery,12 - 14 Shepherd Street,London,,Westminster,https://hignellgallery.com/,10033623042,E09000033,West End,E05013808,51.506319,-0.14699138,528698.2803999996,180225.7946000006
Huxley-Parlour,3-5 Swallow Street,London,,Westminster,https://huxleyparlour.com/,10033625765,E09000033,West End,E05013808,51.509189,-0.13743589,529353.2659999998,180561.77199999988
Jack Bell,13 Mason's Yard,London,,Westminster,https://www.jackbellgallery.com/,100023349684,E09000033,St James's,E05013806,51.507762,-0.13704737,529384.2673000004,180403.77410000004
JD Malat Gallery,30 Davies Street,London,,Westminster,https://jdmalat.com/,100023474837,E09000033,West End,E05013808,51.511952,-0.14777164,528628.2723000003,180850.82090000063
Karsten Schubert London,"Room 2, 44 Lexington Street",London,,Westminster,https://www.karstenschubert.com/,100023470026,E09000033,West End,E05013808,51.513081,-0.13619624,529428.2593999999,180996.75650000013
KÖNIG London,259 Old Marylebone Road,London,,Westminster,https://www.koeniggalerie.com/,100023070729,E09000033,Marylebone,E05013801,51.518231,-0.16678788,527291.2839000002,181515.83579999954
LAMB,32 St. George Street,London,,Westminster,https://www.lamb-arts.com/,100023469526,E09000033,West End,E05013808,51.512205,-0.1427317,528977.2662000004,180887.81680000015
Luxembourg + Co.,2 Savile Row,London,,Westminster,https://luxembourgco.com/,100023473107,E09000033,West End,E05013808,51.510409,-0.13949018,529207.2652000003,180693.81189999916
LGDR,22 Old Bond Street,London,,Westminster,https://lgdr.com/,100023473368,E09000033,West End,E05013808,51.509455,-0.14114305,529095.2690000003,180584.81189999916
Lyndsey Ingram,20 Bourdon Street,London,,Westminster,https://lyndseyingram.com/,See notes,E09000033,West End,E05013808,51.51115,-0.14527,528804.1158999996,180766.03319999948
Maddox Gallery,9 Maddox Street,Mayfair,London,Westminster,https://maddoxgallery.com/,100023470853,E09000033,West End,E05013808,51.51331,-0.14156259,529055.2651000004,181012.7533999998
MASSIMODECARLO,55 South Audley Street,London,,Westminster,https://www.massimodecarlo.com/,100023475695,E09000033,West End,E05013808,51.509755,-0.1521696,528329.2810000004,180598.79800000042
Mazzoleni,15 Old Bond St,London,,Westminster,https://mazzoleniart.com/,100023473356,E09000033,West End,E05013808,51.50906,-0.14059713,529134.2675000001,180541.8496000003
MMX Gallery,448 New Cross Road,London,,Lewisham,https://mmxgallery.com/,100021991067,E09000023,Deptford,E05013719,51.475247,-0.029348836,536955.2037000004,176983.91119999997
mother's tankstation,58-64 Three Colts Lane,London,,Tower Hamlets,http://www.motherstankstation.com/,See notes,E09000030,St Peter's,E05009331,51.52449,-0.05565,534983.2384000001,182410.91110000014
hmad Projects,2 Cork St,London,,Westminster,https://nahmadprojects.com/,10033547503,E09000033,West End,E05013808,51.510547,-0.14194887,529036.2676999997,180704.82379999943
Opera Gallery,134 New Bond Street,London,,Westminster,https://www.operagallery.com/,100023476548,E09000033,West End,E05013808,51.511972,-0.14447058,528857.2677999996,180858.84669999965
Parafin Gallery,18 Woodstock Street,London,,Westminster,http://parafin.co.uk/,100023469717,E09000033,West End,E05013808,51.513926,-0.14748981,528642.2681999998,181070.82729999907
Patrick Heide Contemporary Art,11 Church Street,London,,Westminster,https://www.patrickheide.com/,100022735483,E09000033,Church Street,E05013794,51.524383,-0.16864545,527145.2795000002,182196.7226999998
Paul Stolper,31 Museum Street,London,,Camden,https://www.paulstolper.com/,5159442,E09000007,Bloomsbury,E05013653,51.51791,-0.12603937,530119.2408999996,181551.74129999988
Pippy Houldsworth Gallery,6 Heddon Street,London,,Westminster,https://www.houldsworth.co.uk/,100023470637,E09000033,West End,E05013808,51.511055,-0.13942061,529210.2653999999,180765.7706000004
Project tive Informant,Dressage Court,48 Three Colts Lane ,,Tower Hamlets,https://projectnativeinformant.com/,6708732,E09000030,St Peter's,E05009331,51.524428,-0.056302719,534938.1445000004,182402.81210000068
Richard Saltoun Gallery,41 Dover Street,London,,Westminster,https://www.richardsaltoun.com/,100023473379,E09000033,West End,E05013808,51.50805,-0.14212252,529031.2706000004,180426.84860000014
Rodeo,12a Bourdon Street,London,,Westminster,https://rodeo-gallery.com/,100023474156,E09000033,West End,E05013808,51.51093,-0.14568023,528776.2708,180740.8476999998
Seen Fifteen,"Studio DG1, The Bussey Building",Copeland Park,133 Copeland Road,Southwark,http://seenfifteen.com/,200003497923,E09000028,Rye Lane,E05011113,51.469999,-0.065772976,534441.2204,176332.84869999997
Seventeen,270-276 Kingsland Road (Entrance on Acton Mews),London,,Hackney,http://www.seventeengallery.com/,100023018169,E09000012,Haggerston,E05009375,51.53785,-0.076250515,533515.1539000003,183858.76659999974
Simon Lee Gallery,12 Berkeley Street,London,,Westminster,https://www.simonleegallery.com/,100023473526,E09000033,West End,E05013808,51.508216,-0.14298037,528971.2729000002,180443.79729999974
Stephen Friedman Gallery,25-28 Old Burlington Street,London,,Westminster,https://www.stephenfriedman.com/,100023473210,E09000033,West End,E05013808,51.510608,-0.14125465,529084.2669000002,180712.83019999973
Stern Pissarro Gallery,66 St. James's Street,London,,Westminster,,100023336904,E09000033,St James's,E05013806,51.506071,-0.13924901,529236.2706000004,180211.84679999948
TAFETA,91 Great Russell Street,London,,Camden,https://www.tafeta.com/,See notes,E09000007,Bloomsbury,E05013653,51.51794,-0.12734,530028.9200999998,181552.76769999973
Thaddeus Ropac,Ely House,37 Dover Street,,Westminster,https://ropac.net/,100023473416,E09000033,West End,E05013808,51.508497,-0.14253664,529001.2713000001,180475.82609999925
The Approach,47 Approach Road,London,,Tower Hamlets,https://theapproach.co.uk/,6040399,E09000030,St Peter's,E05009331,51.531359,-0.051826309,535228.1262999997,183181.8270999994
San Mei Gallery,39a Loughborough Road,,,Lambeth,https://www.sanmeigallery.co.uk/,10094054829,E09000022,Myatt's Fields,E05014107,51.470868,-0.10854377,531468.2265999997,176351.8552000001
Fitztrovia Chapel,Fitzroy Place,2 Pearson Square,,Westminster,https://www.fitzroviachapel.org/,10033628103,E09000033,West End,E05013808,51.518969,-0.13833416,529263.2529999996,181647.73409999907
The Gallery of Everything,4 Chiltern Street,,,Westminster,https://www.gallevery.com/,100023463187,E09000033,Marylebone,E05013801,51.518587,-0.15455076,528139.2708999999,181576.76070000045
TJ Boulting,59 Riding House Street,,,Westminster,https://www.tjboulting.com/,100023620820,E09000033,West End,E05013808,51.519301,-0.13940168,529188.2528999997,181682.76960000023
Union Pacific,17 Goulston Street,,,Tower Hamlets,https://unionpacific.co.uk/,6001918,E09000030,Spitalfields & Banglatown,E05009333,51.51604,-0.074993225,533666.1867000004,181435.7413999997
Vigo Gallery,7-8 Masons Yard,St. James's,,Westminster,https://www.vigogallery.com/,10033538227,E09000033,St James's,E05013806,51.507811,-0.13730475,529366.2680000002,180408.7684000004
Yamamoto Keiko Rochaix,19 Goulston Street,,,Tower Hamlets,https://yamamotokeiko.com/,6002479,E09000030,Spitalfields & Banglatown,E05009333,51.51604,-0.074993225,533666.1867000004,181435.7413999997
Knight Webb Gallery,58 Battersea Bridge Rd,,,Wandsworth,https://www.knightwebbgallery.com/,100023300510,E09000032,St Mary's,E05014018,51.478596,-0.17049448,527144.3125,177101.92090000026
JGM Gallery,24 Howie St,,,Wandsworth,https://www.jgmgallery.com/,10094189970,E09000032,Battersea Park,E05014010,51.479244,-0.16938845,527219.3130000001,177175.89939999953
Quantum Contemporary Art,The Imperial Laundry,87 Warriner Gardens,,Wandsworth,https://www.quantumart.co.uk/,See notes,E09000032,Battersea Park,E05014010,51.47422,-0.15817,528012.3322999999,176636.75310000032
London Glassblowing ,62-66 Bermondsey Street,,,Southwark,https://londonglassblowing.co.uk/,200003362734,E09000028,London Bridge & West Bermondsey,E05011104,51.501615,-0.082574898,533182.2156999996,179817.84100000001
Moarain House,223 Cambridge Heath Road,E2 0EL,,Tower Hamlets,https://www.moarainhouse.com/,6179213,E09000030,St Peter's,E05009331,51.524971,-0.055429054,534997.1424000002,182464.80790000036
Guts Gallery ,"Unit 2, Sidings House",10 Andre Street,Lower Clapton,Hackney,https://gutsgallery.co.uk/,10008348250,E09000012,Hackney Central,E05009372,51.550799,-0.062563985,534426.1639,185323.81289999932
Unit London,3 Hanover Square,Mayfair,,Westminster,https://unitlondon.com/,100023469499,E09000033,West End,E05013808,51.513457,-0.14289693,528962.2664999999,181026.74990000017
Sid Motion Gallery,24a Perth Centre,Hatcham Road,,Southwark,https://sidmotiongallery.co.uk/,No UPRN,E09000028,Old Kent Road,E05011109,51.48388,-0.05488,535156.7397999996,177896.4559000004
Indigo + Madder,Kirkman House,12 - 14 Whitfield Street,,Camden,https://indigoplusmadder.com/,5161102,E09000007,Bloomsbury,E05013653,51.519403,-0.13392022,529568.2459000004,181703.79429999925
Bosse & Baum,Unit BGC,"Ground Floor, Bussey Building", 133 Rye Lane,Southwark,https://www.bosseandbaum.com/,200003497923,E09000028,Rye Lane,E05011113,51.469999,-0.065772976,534441.2204,176332.84869999997
Alice Black,46 Mortimer St,London,,Westminster,https://www.aliceblackart.com/,100023466831,E09000033,West End,E05013808,51.517909,-0.14065473,529105.2562999995,181525.76799999923
Taymour Grahne - Holland Park,10 Portland Road,London,,Kensington and Chelsea,https://taymourgrahne.com/,217106980,E09000020,Norland,E05009398,51.507294,-0.20796417,524464.3453000002,180228.86429999955
Taymour Grahne - Holland Park,1 Lonsdale Road,London,,Kensington and Chelsea,https://taymourgrahne.com/,217113069,E09000020,Colville,E05009392,51.515206,-0.19969792,525016.3269999996,181122.7708999999
Taymour Grahne Projects - The Artist Room,52 Lonsdale Road,London,,Kensington and Chelsea,https://taymourgrahne.com/,217055450,E09000020,Colville,E05009392,51.514732,-0.20159024,524886.3282000003,181066.83330000006
DADA Gallery,4 Cromwell Place,London,,Kensington and Chelsea,https://thedadagallery.com/,217021416,E09000020,Brompton & Hans Town,E05009389,51.495116,-0.17460158,526813.3263999997,178931.86060000025
IONE & MANN,4 Cromwell Place,London,,Kensington and Chelsea,https://www.ioneandmann.com/,217021416,E09000020,Brompton & Hans Town,E05009389,51.495116,-0.17460158,526813.3263999997,178931.86060000025
Addis Fine Art,21 Eastcastle St,London,,Westminster,https://addisfineart.com/,100023466981,E09000033,West End,E05013808,51.516815,-0.13798962,529293.2540999996,181408.8147
ammann // projects,4 Cromwell Place,London,,Kensington and Chelsea,https://www.ammann-projects.com/,217021416,E09000020,Brompton & Hans Town,E05009389,51.495116,-0.17460158,526813.3263999997,178931.86060000025
Amanda Wilkinson Gallery,"1st Floor, 18 Brewer St",London,,Westminster,https://amandawilkinsongallery.com/,100023470041,E09000033,West End,E05013808,51.51235,-0.13430933,529561.2570000002,180918.8041999992
3812 Gallery,21 Ryder Street,,,Westminster,https://www.3812gallery.com/,100023350004,E09000033,St James's,E05013806,51.5066,-0.13857901,529281.2692,180271.85429999977
Bartha Contemporary,7 Ledbury Mews North,London,,Kensington and Chelsea,https://www.barthacontemporary.com/,217052551,E09000020,Colville,E05009392,51.513711,-0.19952628,525032.3282000003,180956.81680000015
AALondon Gallery,24 Devonshire Road,Chiswick,,Hounslow,https://www.aalondongallery.com/,200002819253,E09000018,Chiswick Homefields,E05013610,51.491728,-0.25567924,521194.4227,178417.91379999928
Black Box Projects,"4 Cromwell Place, Gallery 3",London,,Kensington and Chelsea,https://blackboxprojects.art/,217021416,E09000020,Brompton & Hans Town,E05009389,51.495116,-0.17460158,526813.3263999997,178931.86060000025
Ben Hunter,44 Duke Street,London,,Westminster,https://www.benhunter.gallery/,10033533700,E09000033,St James's,E05013806,51.506981,-0.13768445,529342.2690000003,180315.8010000009
Berntson Bhattacharjee Gallery,4 Cromwell Place,London,,Kensington and Chelsea,https://www.bbgallery.art/,217021416,E09000020,Brompton & Hans Town,E05009389,51.495116,-0.17460158,526813.3263999997,178931.86060000025
Castor,Kirkman House,12 - 14 Whitfield Street,,Camden,https://www.castor.gallery/,5161102,E09000007,Bloomsbury,E05013653,51.519403,-0.13392022,529568.2459000004,181703.79429999925
Claas Reiss,96 Robert Street,London,,Camden,https://claasreiss.com/,5006981,E09000007,Regent's Park,E05013668,51.528678,-0.14324357,528895.2446999997,182718.73530000076
Cooke Latham,41 Parkgate Road,London,,Wandsworth,https://www.cookelathamgallery.com/,10090501557,E09000032,Battersea Park,E05014010,51.479149,-0.16736167,527360.3109999998,177168.85539999977
CØPPERFIELD,6 Copperfield Street,London,,Southwark,https://www.copperfieldgallery.com/,200003353342,E09000028,Borough & Bankside,E05011095,51.503167,-0.097293305,532156.2300000004,179963.77050000057
Darren Flook/Freehouse,106 Great Portland St.,London,,Westminster,https://freehouse54.com/,100023466457,E09000033,West End,E05013808,51.519292,-0.14221278,528993.2549999999,181676.8144000005
Doyle Wham,91a Rivington Street,London,,Hackney,https://www.doylewham.com/,100022933107,E09000012,Hoxton East & Shoreditch,E05009377,51.526368,-0.07853656,533390.1760999998,182577.76239999942
Eve Leibe,5 Dalston Lane,London,,Tower Hamlets,https://www.eveleibegallery.com/,6718547,E09000030,Bow East,E05009319,51.539715,-0.023450254,537171.0953000002,184163.76999999955
Galerie Max Hetzler,"First Floor, 41 Dover Street
",London,,Westminster,www.maxhetzler.com,See notes,E09000033,West End,E05013808,51.5081,-0.14205,529036.1617999999,180432.53639999963
Grove Collective,9b Battersea Square,London,,Wandsworth,https://grovecollective.co/,See notes,E09000032,St Mary's,E05014018,51.47539,-0.17529,526820.1979,176737.09750000015
Hollybush Gardens,1–2 Warner Yard,London,,Camden,https://hollybushgardens.co.uk/,5193849,E09000007,Holborn & Covent Garden,E05013662,51.523176,-0.11122059,531132.2205999997,182163.74960000068
Holtermann Fine Art,30 Cork Street,London,,Westminster,https://www.holtermannfineart.com/,10033572344,E09000033,West End,E05013808,51.510531,-0.14151718,529066.2676999997,180703.80509999953
Josh Lilley,40-46 Riding House Street,London,,Westminster,https://joshlilleygallery.com/,100023468646,E09000033,West End,E05013808,51.519056,-0.13928193,529197.2538000001,181655.73650000058
Lehmann Maupin,1 Cromwell Place,London,,Kensington and Chelsea,https://www.lehmannmaupin.com/,217021409,E09000020,Brompton & Hans Town,E05009389,51.494873,-0.17458248,526815.3262999998,178904.8716000002
LUNGLEY Gallery,2nd Floor,53 Great Portland Street,,Westminster,https://lungleygallery.com/,100023466648,E09000033,West End,E05013808,51.517477,-0.14176774,529029.2581000002,181475.76779999956
MAMOTH,3 Endsleigh Street,London,,Camden,https://www.mamoth.co.uk/,5020599,E09000007,Bloomsbury,E05013653,51.526241,-0.13080065,529765.2364999996,182469.7092000004
Studio M ,Rochelle School,Friars Mount House,7 Playground Garde,Tower Hamlets,https://www.maureenpaley.com/,6180242,E09000030,Weavers,E05009335,51.525775,-0.074150215,533696.1687000003,182519.82679999992
Maximilian William ,47 Mortimer Street,London,,Westminster,https://maximillianwilliam.com/,10033604688,E09000033,West End,E05013808,51.517823,-0.13918806,529207.2545999996,181518.7907999996
NiCOLETTi,12A Vyner Street,London,,Tower Hamlets,https://nicoletticontemporary.com/,6023255,E09000030,St Peter's,E05009331,51.534309,-0.056184619,534917.1277000001,183501.8339000009
Niru Ratm,"First Floor, 23 Ganton Street",London,,Westminster,www.niruratnam.com,100023471033,E09000033,West End,E05013808,51.512796,-0.13920555,529220.2630000003,180959.75129999965
No.9 Cork Street,9 Cork Street,London,,Westminster,https://www.frieze.com/no9-cork-street,10033647382,E09000033,West End,E05013808,51.510235,-0.14158686,529062.2688999996,180670.7667999994
PATERSON ZEVI,"Flat 1, 41 Davies Street",London,,Westminster,https://patersonzevi.com/,No UPRN,E09000033,West End,E05013808,51.51226,-0.14836,528586.5805000002,180884.03800000064
Pilar Corrias Savile Row,2 Savile Row,W1S 3PA,,Westminster,http://www.pilarcorrias.com/#,100023473107,E09000033,West End,E05013808,51.510409,-0.13949018,529207.2652000003,180693.81189999916
PUBLIC Gallery,91 Middlesex Street,London,,City of London,https://publicgallery.co/,100022951101,E09000001,Portsoken,E05009308,51.516258,-0.076713646,533546.1862000003,181456.8417000007
Saatchi Yates,6 Cork Street,London,,Westminster,https://saatchiyates.com/,100023473145,E09000033,West End,E05013808,51.51034,-0.14195728,529036.2687999997,180681.7904000003
SEAGER,Distillery Tower,2 Mill Lane,,Lewisham,https://seagergallery.com/,10090785511,E09000023,Brockley,E05013716,51.473662,-0.023354832,537376.2061999999,176818.8861999996
Sim Smith,6 Camberwell Passage,London,,Southwark,https://www.sim-smith.com/,10093342310,E09000028,Camberwell Green,E05011096,51.474801,-0.094326691,532444.2220999999,176814.80980000086
Soft Opening,6 Minerva Street,London,,Tower Hamlets,https://www.softopening.london/,6143359,E09000030,St Peter's,E05009331,51.531598,-0.059731586,534679.1374000004,183193.8200000003
South Parade,Enclave 9,50 Resolution Way,Deptford,Lewisham,https://www.southparade.biz/,10090784821,E09000023,Deptford,E05013719,51.478455,-0.024386142,537290.1944000004,177349.92799999937
Sundy,63 Black Prince Rd,London,,Lambeth,https://sundy.co.uk/,100023231008,E09000022,Vauxhall,E05014117,51.491534,-0.11863653,530708.2641000003,178631.88560000062
Tabula Rasa Gallery,"Unit One, 99 East Road",London,,Hackney,https://gallerytabularasa.co.uk/,100023545554,E09000012,Hoxton West,E05009378,51.529782,-0.087158568,532782.1849999996,182941.71979999915
The Artist Room,"Floor 3, 76 Brewer St",London,,Westminster,https://theartistroom.com/,100023470055,E09000033,West End,E05013808,51.511005,-0.13679981,529392.2607000005,180764.83660000004
The Perimeter,20 Brownlow Mews,London,,Camden,https://www.theperimeter.co.uk/,5019327,E09000007,Holborn & Covent Garden,E05013662,51.524061,-0.11594107,530802.2248999998,182253.72199999914
Trafalgar Avenue,29 Trafalgar Avenue,London,,Southwark,https://www.trafalgaravenue.co.uk/,200003398688,E09000028,Old Kent Road,E05011109,51.485689,-0.073808795,533837.2219000002,178062.84970000014
Blue Shop Cottage,113A Grove Lane,London,,Southwark,https://www.blueshopcottage.com/,200003493762,E09000028,Champion Hill,E05011097,51.468397,-0.086473108,533008.2165000001,176116.91630000062
The Lemongrove Gallery,255A Chiswick High Rd,Chiswick,,Hounslow,https://www.thelemongrovegallery.co.uk/,100023491948,E09000018,Chiswick Gunnersbury,E05013609,51.492205,-0.26176883,520770.4288999997,178460.90689999983
Xxijra Hii,Enclave 4,50 Resolution Way,,Lewisham,https://xxijrahii.net/,10090784822,E09000023,Deptford,E05013719,51.478455,-0.024386142,537290.1944000004,177349.92799999937
OPEN Ealing,"Unit 14, School Lane Dickens Yard",,,Ealing,https://openealing.com,12181007,E09000009,Ealing Broadway,E05013520,51.513877,-0.3060391,517641.4472000003,180798.90609999932
