PK,NOMBRE,DESCRIPCION-ENTIDAD,HORARIO,TRANSPORTE,DESCRIPCION,ACCESIBILIDAD,CONTENT-URL,NOMBRE-VIA,CLASE-VIAL,TIPO-NUM,NUM,LOCALIDAD,PROVINCIA,CODIGO-POSTAL,COD-BARRIO,BARRIO,BARRIO_WIKIDATA,COD-DISTRITO,DISTRITO,DISTRITO_WIKIDATA,COORDENADA-X,COORDENADA-Y,LATITUD,LONGITUD,TELEFONO,EMAIL,TIPO
134929,Centro Concertado de Atención a las Adicciones (CCAD) Cáritas Madrid,"El CCAD Cáritas que forma parte de la red del Instituto de Adicciones de la Ciudad de Madrid, presta una atención personalizada individual y/o grupal en régimen ambulatorio a las personas que presentan problemas de abuso o dependencia del alcohol y de otras drogas.","De lunes a viernes mañanas de 9 a 14 horas, tardes de 15:30 a 18 horas","Bus: 9, 73, N2Metro: Alfonso XIII (L4), Prosperidad (L4) Bicicletas:  Servicio Bicimad, para consultar la estación más cercana, acceda al mapa de geolocalización de las estaciones.",,1,http://www.madrid.es/sites/v/index.jsp?vgnextchannel=bfa48ab43d6bb410VgnVCM100000171f5a0aRCRD&vgnextoid=13ba654d9d91f010VgnVCM2000000c205a0aRCRD,SANTA HORTENSIA,CALLE,V,1,MADRID,MADRID,28002,2,Prosperidad,https://wikidata.org/entity/Q4776,5,Chamartín,https://wikidata.org/entity/Q1766348,443159,4477482,4,04E+16,-3,67E+16,917 440 599,tto.adicciones@caritasmadrid.org,/contenido/entidadesYorganismos/CentrosAtencionMedica/CentrosAsistenciaDrogodependientes
53123,Centro Concertado de Atención a las Adicciones (CCAD) Casa de Campo (Cruz Roja),"El CCAD  Casa de Campo que forma parte de la red del Instituto de Adicciones de la Ciudad de Madrid, presta una atención personalizada individual y/o grupal en régimen ambulatorio a las personas que presentan problemas de abuso o dependencia del alcohol y de otras drogas.",De lunes a viernes de 9 a 17 horas,"Bus: 31, 33, 36, 39, 65, 138 Metro:Puerta del Angel (L6), Lago (L10) Bicicletas:  Servicio Bicimad, para consultar la estación más cercana, acceda al mapa de geolocalización de las estaciones.",Forma de acceso: directo,1,http://www.madrid.es/sites/v/index.jsp?vgnextchannel=bfa48ab43d6bb410VgnVCM100000171f5a0aRCRD&vgnextoid=97d3598d1351c010VgnVCM1000000b205a0aRCRD,PORTUGAL,AVENIDA,V,0,MADRID,MADRID,28011,2,Barrio de Puerta del Ángel,https://wikidata.org/entity/Q31142,10,Latina,https://wikidata.org/entity/Q794954,438577,4474219,4,04E+15,-3,72E+16,914 799 499,,/contenido/entidadesYorganismos/CentrosAtencionMedica/CentrosAsistenciaDrogodependientes
11867,Centro de Atención a las Adicciones (CAD) de Arganzuela,,Horario ordinario:   De septiembre a junio:   De lunes a jueves de 8:30 a 19:30 horas Viernes de 8:30 a 14:30 horas   Horario verano:  Del 15 al 30 de junio y del 1 al 15 de septiembre  De lunes a jueves de 8 a 19:30 horas  Viernes de 8 a 14:00 horas     Del 1 de julio al 31 de agosto  De lunes a viernes 8:30 a 13:45,"Bus: 6 , 8 , 18 , 19 , 22 , 45 , 47 , 76 , 78 , 79 , 85 , 86 , 88 , 123 , 148 , 247Metro: Legazpi (L 3 y L 6) Bicicletas:  Servicio Bicimad, para consultar la estación más cercana, acceda al mapa de geolocalización de las estaciones.","Forma de acceso: directo, a través de los servicios municipales, servicios de salud o entidades comunitarias.  Ámbito de actuación:  Distrito de Arganzuela Distrito de Centro Distrito de Retiro Distrito de Salamanca",1,http://www.madrid.es/sites/v/index.jsp?vgnextchannel=bfa48ab43d6bb410VgnVCM100000171f5a0aRCRD&vgnextoid=de74d4985261c010VgnVCM1000000b205a0aRCRD,CHOPERA,PASEO,V,12,MADRID,MADRID,28045,3,La Chopera,https://wikidata.org/entity/Q3773750,2,Arganzuela,https://wikidata.org/entity/Q2000929,440757,4471619,4,04E+15,-3,70E+16,915 886 186,cadarganzuela@madrid.es,/contenido/entidadesYorganismos/CentrosAtencionMedica/CentrosAsistenciaDrogodependientes
11887,Centro de Atención a las Adicciones (CAD) de Hortaleza,,Horario ordinario:   De septiembre a junio:   De lunes a jueves de 8:30 a 19:30 horas Viernes de 8:30 a 14:30 horas   Horario verano:  Del 15 al 30 de junio y del 1 al 15 de septiembre  De lunes a jueves de 8 a 19:30 horas Viernes de 8 a 14:00 horas   Del 1 de julio al 31 de agosto  De lunes a viernes de 8:30 a 13:45 horas,"Bus: 73, 87, 104, 112, 120, 125, 153, 172Metro: Mar de Cristal (L4, L8) Bicicletas:  Servicio Bicimad, para consultar la estación más cercana, acceda al mapa de geolocalización de las estaciones.","Acceso: directo, a través de los servicios municipales, servicios de salud o entidades comunitarias  Ámbito de actuación:  Distrito de Hortaleza Distrito de Chamartín Distrito de Barajas Distrito Ciudad Lineal los barrios: San Juan Bautista, Colina, Atalaya y Costillares",1,http://www.madrid.es/sites/v/index.jsp?vgnextchannel=bfa48ab43d6bb410VgnVCM100000171f5a0aRCRD&vgnextoid=25a4d4985261c010VgnVCM1000000b205a0aRCRD,MINAYA,CALLE,V,7,MADRID,MADRID,28043,3,Canillas,https://wikidata.org/entity/Q9694341,16,Hortaleza,https://wikidata.org/entity/Q1928529,446072,4479929,4,05E+16,-3,64E+15,913 822 530,cadhortaleza@madrid. es,/contenido/entidadesYorganismos/CentrosAtencionMedica/CentrosAsistenciaDrogodependientes
11862,Centro de Atención a las Adicciones (CAD) de Latina,,Horario ordinario:   De septiembre a junio:   De lunes a jueves de 8:30 a 19:30 horas Viernes de 8:30 a 14:30 horas   Horario verano:  Del 15 al 30 de junio y del 1 al 15 de septiembre  De lunes a jueves de 8 a 19:30 horas Viernes de 8 a 14:00 horas   Del 1 de julio al 31 de agosto  De lunes a viernes de 8:30 a 13:45 horas,"Bus: 25 , 31, 138Metro: Laguna (L 6), Casa de Campo (L 10)","Acceso: directo, a traves de los servicios municipales, servicios de salud o entidades comunitarias  Ámbito de actuación:  Distrito de Latina Distrito de Moncloa - Aravaca: barrios de Arg&amp,uuml,elles, Plantío, Aravaca y Casa de Campo Distrito Carabanchel: barrios de San Isidro, Vista Alegre y Puerta Bonita.",1,http://www.madrid.es/sites/v/index.jsp?vgnextchannel=bfa48ab43d6bb410VgnVCM100000171f5a0aRCRD&vgnextoid=7bc4d4985261c010VgnVCM1000000b205a0aRCRD,CAMARENA,CALLE,V,10,MADRID,MADRID,28047,4,Aluche,https://wikidata.org/entity/Q31140,10,Latina,https://wikidata.org/entity/Q794954,435820,4471982,4,04E+15,-3,76E+16,917 198 989,cadlatina@madrid.es,/contenido/entidadesYorganismos/CentrosAtencionMedica/CentrosAsistenciaDrogodependientes
11865,Centro de Atención a las Adicciones (CAD) de San Blas,,Horario ordinario:   De septiembre a junio:   De lunes a jueves de 8:30 a 19:30 horas Viernes de 8:30 a 14:30 horas   Horario verano:  Del 15 al 30 de junio y del 1 al 15 de septiembre  De lunes a jueves de 8 a 19:30 horas Viernes de 8 a 14:00 horas   Del 1 de julio al 31 de agosto  De lunes a viernes de 8:30 a 13:45 horas,"Bus: 77, 104, 105, 775Metro: Suances (L 5)","Acceso: directo, a traves de los servicios municipales, servicios de salud o entidades comunitarias  Ámbito de actuación  Distrito de San Blas Distrito de Ciudad Lineal los barrios: Ventas, Pueblo Nuevo, Quintana, Concepción y San Pascual Distrito de Vicálvaro",1,http://www.madrid.es/sites/v/index.jsp?vgnextchannel=bfa48ab43d6bb410VgnVCM100000171f5a0aRCRD&vgnextoid=c1f4d4985261c010VgnVCM1000000b205a0aRCRD,ALCALA,CALLE,V,527,MADRID,MADRID,28027,8,Salvador,https://wikidata.org/entity/Q10367095,20,San Blas-Canillejas,https://wikidata.org/entity/Q2001937,446815,4476892,4,04E+15,-3,63E+16,917 434 771,cadsanblas@madrid.es,/contenido/entidadesYorganismos/CentrosAtencionMedica/CentrosAsistenciaDrogodependientes
11866,Centro de Atención a las Adicciones (CAD) de Tetuán,,Horario ordinario:   De septiembre a junio:   De lunes a jueves de 8:30 a 19:30 horas Viernes de 8:30 a 14:30 horas   Horario verano:  Del 15 al 30 de junio y del 1 al 15 de septiembre  De lunes a jueves de 8 a 19:30 horas Viernes de 8 a 14:00 horas   Del 1 de julio al 31 de agosto  De lunes a viernes de 8:30 a 13:45 horas,"Bus: 42Metro: Ventilla (L-9), Valdeacederas (L-1) Bicicletas:  Servicio Bicimad, para consultar la estación más cercana, acceda al mapa de geolocalización de las estaciones.","Acceso: directo, a través de los servicios municipales, servicios de salud o entidades comunitarias  Ámbito de actuación  Distrito de Tetuán Distrito de Fuencarral-El Pardo Distrito de Chamberí Distrito de Moncloa-Aravaca: Ciudad Universitaria, Valdezarza y Valdemarín",1,http://www.madrid.es/sites/v/index.jsp?vgnextchannel=bfa48ab43d6bb410VgnVCM100000171f5a0aRCRD&vgnextoid=1815d4985261c010VgnVCM1000000b205a0aRCRD,PINOS ALTA,CALLE,V,122,MADRID,MADRID,28029,4,Almenara,https://wikidata.org/entity/Q2265427,6,Tetuán,https://wikidata.org/entity/Q1773540,440529,4480255,4,05E+15,-3,70E+15,913 235 920,cadtetuan@madrid.es,/contenido/entidadesYorganismos/CentrosAtencionMedica/CentrosAsistenciaDrogodependientes
11864,Centro de Atención a las Adicciones (CAD) de Vallecas,,Horario ordinario:   De septiembre a junio:   De lunes a jueves de 8:30 a 19:30 horas Viernes de 8:30 a 14:30 horas   Horario verano:  Del 15 al 30 de junio y del 1 al 15 de septiembre  De lunes a jueves de 8 a 19:30 horas Viernes de 8 a 14:00 horas   Del 1 de julio al 31 de agosto  De lunes a viernes de 8:30 a 13:45 horas,"Bus: 10, 24, 54, 57, 58, 111, 136, 140, 310Metro: Nueva Numancia (L1) Bicicletas:  Servicio Bicimad, para consultar la estación más cercana, acceda al mapa de geolocalización de las estaciones.","Acceso: directo, a traves de los servicios municipales, servicios de salud o entidades comunitarias  Ámbito de actuación  Distrito de Villa de Vallecas Distrito de Puente de Vallecas Distrito de Moratalaz",1,http://www.madrid.es/sites/v/index.jsp?vgnextchannel=bfa48ab43d6bb410VgnVCM100000171f5a0aRCRD&vgnextoid=6e35d4985261c010VgnVCM1000000b205a0aRCRD,CONCORDIA,CALLE,NUM,17,MADRID,MADRID,28053,2,San Diego,https://wikidata.org/entity/Q11946851,13,Puente de Vallecas,https://wikidata.org/entity/Q2003054,443517,4471815,4,04E+15,-3,67E+15,914 801 486,cadvallecas@madrid.es,/contenido/entidadesYorganismos/CentrosAtencionMedica/CentrosAsistenciaDrogodependientes
11863,Centro de Atención a las Adicciones (CAD) de Villaverde,,Horario ordinario:   De septiembre a junio:   De lunes a jueves de 8:30 a 19:30 horas Viernes de 8:30 a 14:30 horas   Horario verano:  Del 15 al 30 de junio y del 1 al 15 de septiembre  De lunes a jueves de 8 a 19:30 horas Viernes de 8 a 14:00 horas   Del 1 de julio al 31 de agosto  De lunes a viernes de 8:30 a 13:45 horas,"Bus: 76Renfe: Cercanías Puente Alcocer Bicicletas:  Servicio Bicimad, para consultar la estación más cercana, acceda al mapa de geolocalización de las estaciones.","Acceso: Directo a través de los servicios municipales, servicios de salud o entidades comunitarias.  Ámbito de Actuación  Distrito de Villaverde. Distrito de Usera. Distrito de Carabanchel, los barrios: Comillas, Opañel, Abrantes y Buenavista",1,http://www.madrid.es/sites/v/index.jsp?vgnextchannel=bfa48ab43d6bb410VgnVCM100000171f5a0aRCRD&vgnextoid=b465d4985261c010VgnVCM1000000b205a0aRCRD,VERDE VIENTO,CALLE,V,16,MADRID,MADRID,28021,1,Villaverde Alto - Casco Histórico de Villaverde,https://wikidata.org/entity/Q390435,17,Villaverde,https://wikidata.org/entity/Q919536,439047,4467110,4,04E+15,-3,72E+15,917 231 110,cadvillaverde@madrid.es,/contenido/entidadesYorganismos/CentrosAtencionMedica/CentrosAsistenciaDrogodependientes
11868,Centro de Atención Integral a Drogodependientes CAID Este,Centro de la red asistencial para las adicciones de la Comunidad de Madrid.,"Lunes a viernes, de 9 a 21 horas.","Metro: San Blas (línea 7).  Bus: 153, 38, 165, 167, 48.",,3,http://www.madrid.es/sites/v/index.jsp?vgnextchannel=bfa48ab43d6bb410VgnVCM100000171f5a0aRCRD&vgnextoid=2385d4985261c010VgnVCM1000000b205a0aRCRD,CIVICA,PLAZA,V,8,MADRID,MADRID,28037,7,Canillejas,https://wikidata.org/entity/Q663013,20,San Blas-Canillejas,https://wikidata.org/entity/Q2001937,447678,4475575,4,04E+15,-3,62E+16,913 064 542 / 913 064 543 / 901 350 350,caideste@salud.madrid.org,/contenido/entidadesYorganismos/CentrosAtencionMedica/CentrosAsistenciaDrogodependientes
11882,Centro de Atención Integral a Drogodependientes CAID Norte,Centro de la red asistencial para las adicciones de la Comunidad de Madrid.,"De lunes a viernes, de 9 a 21 horas.",Metro: Tetuán (línea 1).  Bus: 11.,,3,http://www.madrid.es/sites/v/index.jsp?vgnextchannel=bfa48ab43d6bb410VgnVCM100000171f5a0aRCRD&vgnextoid=91a5d4985261c010VgnVCM1000000b205a0aRCRD,NUESTRA SEÑORA DEL CARMEN,CALLE,V,46,MADRID,MADRID,28039,6,Berruguete,https://wikidata.org/entity/Q11909208,6,Tetuán,https://wikidata.org/entity/Q1773540,440306,4479190,4,05E+16,-3,70E+16,913 980 556 / 901 350 350,caidnorte.agad@salud.madrid.org,/contenido/entidadesYorganismos/CentrosAtencionMedica/CentrosAsistenciaDrogodependientes
11884,Centro de Atención Integral a Drogodependientes CAID Sur-Usera,Centro de la red asistencial para las adicciones de la Comunidad de Madrid.,"Lunes a viernes, de 9 a 21 horas.","Metro: Usera (línea 6).  Bus: 78, 6.  Cercanías Renfe: Doce de Octubre (línea C5).",,3,http://www.madrid.es/sites/v/index.jsp?vgnextchannel=bfa48ab43d6bb410VgnVCM100000171f5a0aRCRD&vgnextoid=00c5d4985261c010VgnVCM1000000b205a0aRCRD,JASPE,CALLE,V,40,MADRID,MADRID,28026,7,Pradolongo,https://wikidata.org/entity/Q10352360,12,Usera,https://wikidata.org/entity/Q953368,439999,4470274,4,04E+16,-3,71E+16,915 003 010 / 915 002 828 / 901 350 350,caiddeusera.agad@salud.madrid.org,/contenido/entidadesYorganismos/CentrosAtencionMedica/CentrosAsistenciaDrogodependientes
5408374,Centro de Atención Integral a Drogodependientes CAID Vallecas,Centro de la red asistencial para las adicciones de la Comunidad de Madrid.,"Lunes a viernes, de 9 a 21 horas.","Metro: Congosto (línea 1).  Bus: 142, 103.",,3,http://www.madrid.es/sites/v/index.jsp?vgnextchannel=bfa48ab43d6bb410VgnVCM100000171f5a0aRCRD&vgnextoid=eaa91657da473210VgnVCM2000000c205a0aRCRD,CINCOVILLAS,CALLE,V,5,MADRID,MADRID,28051,3,Ensanche de Vallecas,https://wikidata.org/entity/Q3847485,18,Villa de Vallecas,https://wikidata.org/entity/Q1947988,446966,4468750,4,04E+15,-3,62E+15,914 942 828 / 901 350 350,caidvallecas@salud.madrid.org,/contenido/entidadesYorganismos/CentrosAtencionMedica/CentrosAsistenciaDrogodependientes
11899,Centro de Atención integral sociosanitaria nocturno,,De lunes a domingo de 21 a 8 horas,Metro: Alonso Martínez  Bus: 21,"Información Complementaria:   Drogodependientes en fase activa, ó en Programa de Metadona Personas sin hogar Pueden pernoctar",1,http://www.madrid.es/sites/v/index.jsp?vgnextchannel=bfa48ab43d6bb410VgnVCM100000171f5a0aRCRD&vgnextoid=a946d4985261c010VgnVCM1000000b205a0aRCRD,HERMANOS ALVAREZ QUINTERO,CALLE,V,3,MADRID,MADRID,28004,4,Justicia,https://wikidata.org/entity/Q1992319,1,Centro,https://wikidata.org/entity/Q1763376,440835,4475437,4,04E+15,-3,70E+15,916 035 651,,/contenido/entidadesYorganismos/CentrosAtencionMedica/CentrosAsistenciaDrogodependientes
5855213,Centro de Atención integral sociosanitario diurno (Cruz Roja),"El Centro de atención integral sociosanitario diurno forma parte de la red del Instituto de Adicciones de la Ciudad de Madrid, presta una atención personalizada individual y/o grupal en régimen ambulatorio a las personas que presentan problemas de abuso o dependencia del alcohol y de otras drogas.",De lunes a viernes de 9 a 17 horas,"Metro: Alonso Martínez, L4, L5, L10",Forma de acceso: directo,1,http://www.madrid.es/sites/v/index.jsp?vgnextchannel=bfa48ab43d6bb410VgnVCM100000171f5a0aRCRD&vgnextoid=c5dc3e042111c210VgnVCM2000000c205a0aRCRD,HERMANOS ALVAREZ QUINTERO,CALLE,V,3,MADRID,MADRID,28004,4,Justicia,https://wikidata.org/entity/Q1992319,1,Centro,https://wikidata.org/entity/Q1763376,440835,4475437,4,04E+15,-3,70E+15,914 291 960,ctdcentro@cruzroja.es,/contenido/entidadesYorganismos/CentrosAtencionMedica/CentrosAsistenciaDrogodependientes
8889,Centro de Diagnóstico Médico,,"Antes de acudir, póngase en contacto telefónico con el centro    Horario de invierno    Citas: de lunes a viernes de 8:30 a 14:30 horas  Consulta de ITS, programa prevención del Sida: horario de admisión de pacientes CON cita previa de lunes a viernes de 8 a 9,30 horas en el teléfono 915885142   Horario de verano    Del 15 de junio al 15 de septiembre: de 8:00 a 14 horas","Metro: Manuel Becerra Bus: 1 , 2 , 12 , 21 , 43 , 48 , 53 , 56 , 74 , 146 , 210 , C",,1,http://www.madrid.es/sites/v/index.jsp?vgnextchannel=bfa48ab43d6bb410VgnVCM100000171f5a0aRCRD&vgnextoid=5a057a7e0a61c010VgnVCM1000000b205a0aRCRD,MONTESA,CALLE,V,22,MADRID,MADRID,28006,5,Lista,https://wikidata.org/entity/Q4779,4,Salamanca,https://wikidata.org/entity/Q1773521,442986,4475588,4,04E+16,-3,67E+16,915 885 100 / 06 (Citas),mspdiagnostico@madrid.es,/contenido/entidadesYorganismos/CentrosAtencionMedica/CentrosPrevencionEnfermedades
9176,Centro de donación de sangre de Cruz Roja,,"De lunes a viernes, de 9 a 20:30 horas.","Metro: Guzman El Bueno (líneas 6 y 7), Cuatro Caminos (líneas 1, 2 y 6).  Bus: 127, 44, 45, C2, F, C1.",,1,http://www.madrid.es/sites/v/index.jsp?vgnextchannel=bfa48ab43d6bb410VgnVCM100000171f5a0aRCRD&vgnextoid=a61f7a7e0a61c010VgnVCM1000000b205a0aRCRD,JUAN MONTALVO,CALLE,V,3,MADRID,MADRID,28040,3,Ciudad Universitaria,https://wikidata.org/entity/Q3319235,9,Moncloa-Aravaca,https://wikidata.org/entity/Q2017682,439802,4477685,4,04E+16,-3,71E+15,914 562 470 / 900 506 819,,/contenido/entidadesYorganismos/CentrosAtencionMedica/OtrosCentrosMedicos
12020383,Centro de donación de sangre de Cruz Roja Fin de Semana,,"Viernes, sábados y domingos: De 10 a 14 y de 17 a 21 horas.     Consultar días de cierre puntuales en su página web.","Metro: Bilbao (líneas 1 y 4), San Bernardo (líneas 2 y 4).  Bus: 149, 3, 37, 147, 21, C03.  Bicimad: Estaciones 4 (calle Manuela Malasaña, 5), 5 (calle Fuencarral, 108).  Aparcamiento: Fuencarral (27), calle Fuencarral entre 111 y 121.",,1,http://www.madrid.es/sites/v/index.jsp?vgnextchannel=bfa48ab43d6bb410VgnVCM100000171f5a0aRCRD&vgnextoid=59ed7ea268d48810VgnVCM1000001d4a900aRCRD,FUENCARRAL,CALLE,V,120,MADRID,MADRID,28010,3,Trafalgar,https://wikidata.org/entity/Q10384027,7,Chamberí,https://wikidata.org/entity/Q1763370,440406,4475715,4,04E+15,-3,70E+15,900 506 819,,/contenido/entidadesYorganismos/CentrosAtencionMedica/OtrosCentrosMedicos
9091,Centro de Especialidades Periférico Argüelles,,,"Metro: Arg&amp,uuml,elles (líneas 3, 4 y 6), Ventura Rodríguez (línea 3).  Bus: 62, 74.  Bicimad: Estación 114 (calle Quintana 13).  Aparcamiento: Marqués de Urquijo (63) calle Marqués de Urquijo entre calle Princesa y calle Juan Álvarez Mendizábal.",,3,http://www.madrid.es/sites/v/index.jsp?vgnextchannel=bfa48ab43d6bb410VgnVCM100000171f5a0aRCRD&vgnextoid=4e657a7e0a61c010VgnVCM1000000b205a0aRCRD,QUINTANA,CALLE,V,11,MADRID,MADRID,28008,2,Argüelles,https://wikidata.org/entity/Q64874,9,Moncloa-Aravaca,https://wikidata.org/entity/Q2017682,439158,4475489,4,04E+15,-3,72E+15,913 445 022,,/contenido/entidadesYorganismos/CentrosAtencionMedica/CentrosEspecialidadesMedicas
9093,Centro de Especialidades Periférico Avenida de Portugal,,,"Metro: Alto de Extremadura (línea 6).  Bus: 31, 33, 36, 39, 65.  Bicimad: Estación 326 (calle Francisco de Tejada, 1).","Este Centro presta atención continuada como centro de continuidad de cuidados de enfermería sábados, domingos y festivos de 9 a 21 horas.",3,http://www.madrid.es/sites/v/index.jsp?vgnextchannel=bfa48ab43d6bb410VgnVCM100000171f5a0aRCRD&vgnextoid=d0857a7e0a61c010VgnVCM1000000b205a0aRCRD,PORTUGAL,AVENIDA,V,155,MADRID,MADRID,28011,2,Barrio de Puerta del Ángel,https://wikidata.org/entity/Q31142,10,Latina,https://wikidata.org/entity/Q794954,437399,4473658,4,04E+15,-3,74E+16,917 042 697,,/contenido/entidadesYorganismos/CentrosAtencionMedica/CentrosEspecialidadesMedicas
9095,Centro de Especialidades Periférico Carabanchel,,,"Metro: Carabanchel Alto (línea 11).  Bus: 108, 118, 121, 131, 47.","Este Centro presta atención continuada como centro de continuidad de cuidados de enfermería de lunes a viernes de 21 a 8 horas y los sábados, domingos y festivos 24 horas.",3,http://www.madrid.es/sites/v/index.jsp?vgnextchannel=bfa48ab43d6bb410VgnVCM100000171f5a0aRCRD&vgnextoid=63957a7e0a61c010VgnVCM1000000b205a0aRCRD,AGUACATE,CALLE,V,13,MADRID,MADRID,28044,6,Buenavista,https://wikidata.org/entity/Q953929,11,Carabanchel,https://wikidata.org/entity/Q1001991,436498,4469315,4,04E+15,-3,75E+16,915 085 731 (información),,/contenido/entidadesYorganismos/CentrosAtencionMedica/CentrosEspecialidadesMedicas
6869784,Centro de Especialidades Periférico Emigrantes,,,"Metro: Mar de Cristal (líneas 4 y 8).  Bus: 104, 171, T11, 153, 112, 125, 120, 172, 87.",,3,http://www.madrid.es/sites/v/index.jsp?vgnextchannel=bfa48ab43d6bb410VgnVCM100000171f5a0aRCRD&vgnextoid=219b06517038d310VgnVCM2000000c205a0aRCRD,AREQUIPA,CALLE,V,30,MADRID,MADRID,28043,3,Canillas,https://wikidata.org/entity/Q9694341,16,Hortaleza,https://wikidata.org/entity/Q1928529,446052,4479973,4,05E+15,-3,64E+15,913 816 088,,/contenido/entidadesYorganismos/CentrosAtencionMedica/CentrosEspecialidadesMedicas
136605,Centro de Especialidades Periférico Federica Montseny,,,"Metro: Miguel Hernández (línea 1).  Bus: 103, 142, 143, 54, 58, 144.  Bicimad: Estación 435 (calle San Claudio, 154).","Este centro presta atención continuada como centro de atención continuada médica de lunes a viernes de 21 a 8 horas y los sábados, domingos y festivos 24 horas.",3,http://www.madrid.es/sites/v/index.jsp?vgnextchannel=bfa48ab43d6bb410VgnVCM100000171f5a0aRCRD&vgnextoid=f3c215a11a81c010VgnVCM1000000b205a0aRCRD,ALBUFERA,AVENIDA,V,285,MADRID,MADRID,28038,4,Palomeras Sureste,https://wikidata.org/entity/Q10343901,13,Puente de Vallecas,https://wikidata.org/entity/Q2003054,445702,4470966,4,04E+14,-3,64E+15,913 808 426 / 913 808 427,,/contenido/entidadesYorganismos/CentrosAtencionMedica/CentrosEspecialidadesMedicas
9085,Centro de Especialidades Periférico Hermanos García Noblejas,,,"Metro: O'Donnell (línea 6).  Bus: C2, 143, 156, 2, 30, 56, 71, C1, E4, E5.  Bicimad: Estaciones 101 (calle Jorge Juan, 131) y 183 (calle Hermosilla, 135).","Este centro es dependiente del Hospital Universitario de La Princesa y se atienden los pacientes de forma ambulatoria en consulta externa de diferentes especialidades, así como tratamientos rehabilitadores, extracciones sanguíneas y otras técnicas diagnósticas y terapéuticas. Este Centro presta atención continuada como centro de continuidad de cuidados de enfermería sábados, domingos y festivos de 9 a 21 horas.",2,http://www.madrid.es/sites/v/index.jsp?vgnextchannel=bfa48ab43d6bb410VgnVCM100000171f5a0aRCRD&vgnextoid=88b57a7e0a61c010VgnVCM1000000b205a0aRCRD,DOCTOR ESQUERDO,CALLE,V,45,MADRID,MADRID,28028,3,Fuente del Berro,https://wikidata.org/entity/Q3814564,4,Salamanca,https://wikidata.org/entity/Q1773521,443287,4474984,4,04E+15,-3,67E+16,915 742 187 / 915 742 389,,/contenido/entidadesYorganismos/CentrosAtencionMedica/CentrosEspecialidadesMedicas
40266,Centro de Especialidades Periférico José Marvá,,,"Metro: Valdeacederas (línea 1).  Bus: 124, 66, 49.  Bicimad: Estación 207 (Azucenas, 1).",,3,http://www.madrid.es/sites/v/index.jsp?vgnextchannel=bfa48ab43d6bb410VgnVCM100000171f5a0aRCRD&vgnextoid=0d51598d1351c010VgnVCM1000000b205a0aRCRD,BRAVO MURILLO,CALLE,V,317,MADRID,MADRID,28020,5,Valdeacederas,https://wikidata.org/entity/Q10388711,6,Tetuán,https://wikidata.org/entity/Q1773540,440930,4479429,4,05E+15,-3,70E+15,917 277 070,,/contenido/entidadesYorganismos/CentrosAtencionMedica/CentrosEspecialidadesMedicas
9092,Centro de Especialidades Periférico Modesto Lafuente,,,"Metro: Alonso Cano (línea 7), Gregorio Marañón (líneas 7 y 10).  Bus: 5, 12, 45.  Bicimad: Estación 129 (calle José Abascal, 33).",,3,http://www.madrid.es/sites/v/index.jsp?vgnextchannel=bfa48ab43d6bb410VgnVCM100000171f5a0aRCRD&vgnextoid=1bc57a7e0a61c010VgnVCM1000000b205a0aRCRD,MODESTO LAFUENTE,CALLE,V,21,MADRID,MADRID,28003,5,Ríos Rosas,https://wikidata.org/entity/Q10366270,7,Chamberí,https://wikidata.org/entity/Q1763370,440951,4476834,4,04E+15,-3,70E+15,917 042 810,,/contenido/entidadesYorganismos/CentrosAtencionMedica/CentrosEspecialidadesMedicas
9081,Centro de Especialidades Periférico Moratalaz,,,"Metro: Pavones (línea 9).  Bus: 20, 30, 32, 71, 8, 142, 140, 144, E4.  Bicimad: Estación 221 (calle Hacienda de Pavones, 342).",,3,http://www.madrid.es/sites/v/index.jsp?vgnextchannel=bfa48ab43d6bb410VgnVCM100000171f5a0aRCRD&vgnextoid=30f57a7e0a61c010VgnVCM1000000b205a0aRCRD,HACIENDA DE PAVONES,CALLE,V,348,MADRID,MADRID,28030,1,Pavones,https://wikidata.org/entity/Q71760,14,Moratalaz,https://wikidata.org/entity/Q2076109,446215,4472330,4,04E+16,-3,63E+16,917 733 141,,/contenido/entidadesYorganismos/CentrosAtencionMedica/CentrosEspecialidadesMedicas
9096,Centro de Especialidades Periférico Orcasitas,,,"Bus: 116, 121, 131, 6, 60, 78, 81.  Bicimad: Estación 386 (avenida de los Poblados, 130).",,3,http://www.madrid.es/sites/v/index.jsp?vgnextchannel=bfa48ab43d6bb410VgnVCM100000171f5a0aRCRD&vgnextoid=c2067a7e0a61c010VgnVCM1000000b205a0aRCRD,CESTONA,CALLE,V,3,MADRID,MADRID,28041,1,Orcasitas,https://wikidata.org/entity/Q3773941,12,Usera,https://wikidata.org/entity/Q953368,439381,4469367,4,04E+16,-3,71E+15,913 415 262 (Admisión) / 913 417 266 (Atención al paciente),,/contenido/entidadesYorganismos/CentrosAtencionMedica/CentrosEspecialidadesMedicas
9086,Centro de Especialidades Periférico Pedro González Bueno (San Blas),,,"Metro: Simancas (línea 7), Alsacia (línea 2).  Bus: 38, 4, 48, 70, 109, 165, 167.  Bicimad: Estación 490 (Hermanos García Noblejas, 158).",,3,http://www.madrid.es/sites/v/index.jsp?vgnextchannel=bfa48ab43d6bb410VgnVCM100000171f5a0aRCRD&vgnextoid=0d467a7e0a61c010VgnVCM1000000b205a0aRCRD,HERMANOS GARCIA NOBLEJAS,CALLE,V,89,MADRID,MADRID,28037,3,Amposta,https://wikidata.org/entity/Q11905392,20,San Blas-Canillejas,https://wikidata.org/entity/Q2001937,446800,4474947,4,04E+15,-3,63E+15,913 040 760,,/contenido/entidadesYorganismos/CentrosAtencionMedica/CentrosEspecialidadesMedicas
7559224,Centro de Especialidades Periférico Pontones FJD,,,"Metro: Puerta de Toledo (línea 5).  Bus: C2, 17, 41, C1, 148, 3, 18, 23, 35, 60, C03, 002.  Bicimad: Estación 45 (glorieta Puerta de Toledo, 1).  Aparcamiento: Puerta Toledo (64), glorieta Puerta de Toledo con vuelta a Capitán Salazar Martínez.",,3,http://www.madrid.es/sites/v/index.jsp?vgnextchannel=bfa48ab43d6bb410VgnVCM100000171f5a0aRCRD&vgnextoid=697c1f93c06f6410VgnVCM2000000c205a0aRCRD,SEGOVIA,RONDA,V,52,MADRID,MADRID,28005,1,Imperial,https://wikidata.org/entity/Q3773740,2,Arganzuela,https://wikidata.org/entity/Q2000929,439524,4473155,4,04E+16,-3,71E+16,914 182 988,,/contenido/entidadesYorganismos/CentrosAtencionMedica/CentrosEspecialidadesMedicas
10158869,Centro de Especialidades Periférico Vicente Soldevilla,,,Bus: 24.,,3,http://www.madrid.es/sites/v/index.jsp?vgnextchannel=bfa48ab43d6bb410VgnVCM100000171f5a0aRCRD&vgnextoid=a64db04bcce97510VgnVCM2000001f4a900aRCRD,SIERRA DE ALQUIFE,CALLE,V,8,MADRID,MADRID,28053,2,San Diego,https://wikidata.org/entity/Q11946851,13,Puente de Vallecas,https://wikidata.org/entity/Q2003054,443383,4471142,4,04E+15,-3,67E+15,Información: 914 771 643 / 917 798 801 Citaciones: 914 789 899,,/contenido/entidadesYorganismos/CentrosAtencionMedica/CentrosSalud
9097,Centro de Especialidades Periférico Villaverde Cruce,,,"Metro: Villaverde Bajo - Cruce (línea 3).  Bus: 59, 79, 116, 130, 18, 22, 23.",,3,http://www.madrid.es/sites/v/index.jsp?vgnextchannel=bfa48ab43d6bb410VgnVCM100000171f5a0aRCRD&vgnextoid=22767a7e0a61c010VgnVCM1000000b205a0aRCRD,ALCARRIA,CALLE,V,4,MADRID,MADRID,28021,5,Los Ángeles,https://wikidata.org/entity/Q390462,17,Villaverde,https://wikidata.org/entity/Q919536,441042,4466784,4,03E+15,-3,69E+15,917 987 000,,/contenido/entidadesYorganismos/CentrosAtencionMedica/CentrosEspecialidadesMedicas
163279,Centro de Patología Dual,"Unidad hospitalaria de apoyo donde se realiza el abordaje terapéutico integral tanto de la psicopatología concomitante como de la conducta adictiva, en coordinación con el equipo del centro de atención.",,"Metro: Arturo Soria, Avda de la Paz Bus: 9, 70, 72, 73, Bicicletas:  Servicio Bicimad, para consultar la estación más cercana, acceda al mapa de geolocalización de las estaciones.","El Centro de Patología Dual da respuesta a determinados perfiles cada vez más numerosos dentro de la población drogodependiente, aquellos que presentan un trastorno mental asociado a su problema de adicción. Este centro se concibe como una unidad hospitalaria de apoyo dónde se realiza el abordaje terapéutico integral tanto de la psicopatología concomitante como de la conducta adictiva, de pacientes que requieran un proceso de contención y estabilización intensivo de su patología a fin de poder facilitarles una buena evolución en el tratamiento, en coordinación con el equipo del centro de atención   CENTRO DE DÍA DE PATOLOGÍA DUAL    Ofrece una segunda etapa abierta, para los/las pacientes dados de alta de la Unidad de Patología Dual, en un contexto terapéutico de hospital de día, con las mismas características de entorno hospitalario e intervención intensiva que el dispositivo de ingreso. Conecta los dos enfoques clásicos: residencial y ambulatorio.",1,http://www.madrid.es/sites/v/index.jsp?vgnextchannel=bfa48ab43d6bb410VgnVCM100000171f5a0aRCRD&vgnextoid=c2169475d381c010VgnVCM1000000b205a0aRCRD,LOPEZ DE HOYOS,CALLE,NUM,259,MADRID,MADRID,28043,7,Colina,https://wikidata.org/entity/Q18475981,15,Ciudad Lineal,https://wikidata.org/entity/Q1763694,443946,4478671,4,05E+15,-3,66E+16,914 156 000,,/contenido/entidadesYorganismos/CentrosAtencionSocial/CentrosRehabilitacionPsicosocial
183742,Centro de Prevención de Deterioro Cognitivo,Su objetivo fundamental es el diagnóstico precoz y el tratamiento de las personas que tienen Deterioro Cognitivo Leve. Su orientación es preventiva y a esta prevención van dirigidas sus actividades. Para acceder a este servicio se deberá acudir previamente al Centro Municipal de Salud Comunitaria de su Distrito donde decidirán si procede su derivación al Centro de Prevención de Deterioro Cognitivo.,"Antes de acudir, póngase en contacto telefónico con el centro   Horario de invierno   Lunes, miércoles y viernes de 9 a 14 horas Martes y jueves de 10 a 14 horas   Semana de San Isidro: 8:30 a 14 horas   Horario de verano    Del 15 de junio al 15 de septiembre: de 8:30 a 14 horas","Metro: Manuel Becerra (Líneas 2 y 6), Lista (Línea 4) Bus: C1, C2, 1, 2, 12, 15, 21, 26, 29, 30, 38, 43, 48, 53, 56, 61, 63, 120, 71, 74, 106, 110, 143, 146, 152, 210. Bicicletas:  Servicio Bicimad, para consultar la estación más cercana, acceda al mapa de geolocalización de las estaciones.","Población a la que se dirige:   Personas mayores de 65 años para evaluar su memoria y detectar de forma precoz trastornos de memoria relacionadas con la edad  o Deterioro Cognitivo Leve. Familiares de los pacientes con Deterioro Cognitivo No son usuarios del centro: pacientes con alteración cognitiva por Traumatismo craneoencefálico, accidentes cerebrovasculares, cirugía de cerebro por cualquier causa, etc. Tampoco se realizan  intervención en los casos de demencia (Alzheimer u otras) o de personas que tengan  tratamiento para la demencia El Centro no realiza informes para dependencia, ni otros similares.   El Centro está formado por un equipo interdisciplinar de profesionales:   Neurología Neuropsicología Psiquiatría Psicología Medicina General Enfermería Trabajo Social Terapeuta Ocupacional Auxiliar Sanitario Administración",1,http://www.madrid.es/sites/v/index.jsp?vgnextchannel=bfa48ab43d6bb410VgnVCM100000171f5a0aRCRD&vgnextoid=492338d60b41c010VgnVCM2000000c205a0aRCRD,MONTESA,CALLE,V,22,MADRID,MADRID,28006,5,Lista,https://wikidata.org/entity/Q4779,4,Salamanca,https://wikidata.org/entity/Q1773521,442986,4475588,4,04E+16,-3,67E+16,"915 885 801              
915 885 810",mspcognitiva@madrid.es,/contenido/entidadesYorganismos/CentrosAtencionMedica/CentrosPrevencionEnfermedades
177645,Centro de Prevención de Riesgos Laborales Fabiola de Mora y Aragón,,Consulta previa cita.,Metro: Francos RodríguezBus: 64,,1,http://www.madrid.es/sites/v/index.jsp?vgnextchannel=bfa48ab43d6bb410VgnVCM100000171f5a0aRCRD&vgnextoid=d3f41c7a2c61c010VgnVCM1000000b205a0aRCRD,DEHESA DE LA VILLA,CARRETERA,V,1,MADRID,MADRID,28040,3,Ciudad Universitaria,https://wikidata.org/entity/Q3319235,9,Moncloa-Aravaca,https://wikidata.org/entity/Q2017682,438892,4478863,4,05E+15,-3,72E+16,915 883 176 / 915 883 178,,/contenido/entidadesYorganismos/CentrosAtencionMedica/CentrosPrevencionEnfermedades
12020008,Centro de Rehabilitación Psicosocial San Enrique,,Consultal telefónicamente.,"Metro: Estrecho (línea 1).  Bus: 126, 124, 66.  Bicimad: Estación 155 (calle San Germán, 57).  Aparcamiento: Presidente Carmona (33), avenida Presidente Carmona.",,3,http://www.madrid.es/sites/v/index.jsp?vgnextchannel=bfa48ab43d6bb410VgnVCM100000171f5a0aRCRD&vgnextoid=86de3f292ec48810VgnVCM1000001d4a900aRCRD,SAN ENRIQUE,CALLE,V,20,MADRID,MADRID,28020,2,Cuatro Caminos,https://wikidata.org/entity/Q5824684,6,Tetuán,https://wikidata.org/entity/Q1773540,440656,4478602,4,05E+14,-3,70E+15,915 794 723 / 915 794 711,,/contenido/entidadesYorganismos/CentrosAtencionMedica/CentrosSaludMental
8984,Centro de Salud Abrantes,,,"Metro: Abrantes (línea 11).  Bus: 108, 47, 116, E1.",,3,http://www.madrid.es/sites/v/index.jsp?vgnextchannel=bfa48ab43d6bb410VgnVCM100000171f5a0aRCRD&vgnextoid=50677a7e0a61c010VgnVCM1000000b205a0aRCRD,ABRANTES,AVENIDA,V,55,MADRID,MADRID,28025,7,Abrantes,https://wikidata.org/entity/Q3773949,11,Carabanchel,https://wikidata.org/entity/Q1001991,438251,4470308,4,04E+16,-3,73E+15,915 650 770,,/contenido/entidadesYorganismos/CentrosAtencionMedica/CentrosSalud
139416,Centro de Salud Adelfas,,,"Metro: Pacífico (líneas 1 y 6).  Bus: 310, 8, 136, 10, 156, 56, 141, 24, 37, 54, 57.  Bicimad: Estación 78 (calle Cerro de la Plata, 2).",,3,http://www.madrid.es/sites/v/index.jsp?vgnextchannel=bfa48ab43d6bb410VgnVCM100000171f5a0aRCRD&vgnextoid=5ce0ba61e681c010VgnVCM1000000b205a0aRCRD,CIUDAD DE BARCELONA,AVENIDA,V,190,MADRID,MADRID,28007,2,Adelfas,https://wikidata.org/entity/Q3774001,3,Retiro,https://wikidata.org/entity/Q2002296,442752,4472478,4,04E+16,-3,67E+15,914 340 348,,/contenido/entidadesYorganismos/CentrosAtencionMedica/CentrosSalud
9052,Centro de Salud Alameda,,,"Metro: Antón Martín (línea 1), Estación del Arte (línea 1).  Bus: 001, 10, 14, 27, 34, 37, 45, C03.  Cercanías Renfe: Atocha (líneas C1, C2, C3, C4, C4b, C5, C7, y C10).  Bicimad: Estaciones 67 (calle Almadén 28), 27 (calle Jesús, 1), 68 (calle Espalter, 1).  Aparcamientos: Sánchez Bustillo (37), calle Sánchez Bustillo, Cortes (46), plaza de las Cortes.",,3,http://www.madrid.es/sites/v/index.jsp?vgnextchannel=bfa48ab43d6bb410VgnVCM100000171f5a0aRCRD&vgnextoid=e2777a7e0a61c010VgnVCM1000000b205a0aRCRD,ALAMEDA,CALLE,V,5,MADRID,MADRID,28014,3,Cortes,https://wikidata.org/entity/Q2535637,1,Centro,https://wikidata.org/entity/Q1763376,441133,4473725,4,04E+14,-3,69E+16,914 203 802,,/contenido/entidadesYorganismos/CentrosAtencionMedica/CentrosSalud
9076,Centro de Salud Alameda de Osuna,,,"Metro: Alameda de Osuna (línea 5).  Bus: 101, 114, 166, 112, 115, 151.",,3,http://www.madrid.es/sites/v/index.jsp?vgnextchannel=bfa48ab43d6bb410VgnVCM100000171f5a0aRCRD&vgnextoid=75877a7e0a61c010VgnVCM1000000b205a0aRCRD,CARABELA,CALLE,V,7,MADRID,MADRID,28042,1,Alameda de Osuna,https://wikidata.org/entity/Q760737,21,Barajas,https://wikidata.org/entity/Q807230,450255,4478462,4,05E+13,-3,59E+15,913 296 458,,/contenido/entidadesYorganismos/CentrosAtencionMedica/CentrosSalud
8985,Centro de Salud Alcalá de Guadaira,,,"Metro: Buenos Aires (línea 1).  Bus: 10.  Bicimad: Estación 428 (avenida de la Albufera, 136).",,3,http://www.madrid.es/sites/v/index.jsp?vgnextchannel=bfa48ab43d6bb410VgnVCM100000171f5a0aRCRD&vgnextoid=08977a7e0a61c010VgnVCM1000000b205a0aRCRD,ALCALA DE GUADAIRA,CALLE,V,4,MADRID,MADRID,28018,3,Palomeras Bajas,https://wikidata.org/entity/Q10343902,13,Puente de Vallecas,https://wikidata.org/entity/Q2003054,444215,4471207,4,04E+14,-3,66E+15,917 783 562,,/contenido/entidadesYorganismos/CentrosAtencionMedica/CentrosSalud
21018,Centro de Salud Almendrales,,,"Metro: Almendrales (línea 3).  Bus: 78, 6.  Cercanías Renfe: Doce de Octubre (línea C5).",,3,http://www.madrid.es/sites/v/index.jsp?vgnextchannel=bfa48ab43d6bb410VgnVCM100000171f5a0aRCRD&vgnextoid=99d0e35bba51c010VgnVCM2000000c205a0aRCRD,VISITACION,CALLE,V,5,MADRID,MADRID,28026,4,Almendrales,https://wikidata.org/entity/Q9604761,12,Usera,https://wikidata.org/entity/Q953368,440437,4470393,4,04E+15,-3,70E+15,915 001 160,,/contenido/entidadesYorganismos/CentrosAtencionMedica/CentrosSalud
9053,Centro de Salud Andrés Mellado,,,"Metro: Moncloa (líneas 3 y 6), Islas Filipinas (línea 7), Arg&amp,uuml,elles (líneas 3, 4 y 6).  Bus: 16, 61, 2.  Bicimad: Estación 199 (Fernando el Católico, 61).",,3,http://www.madrid.es/sites/v/index.jsp?vgnextchannel=bfa48ab43d6bb410VgnVCM100000171f5a0aRCRD&vgnextoid=9aa77a7e0a61c010VgnVCM1000000b205a0aRCRD,ANDRES MELLADO,CALLE,V,37,MADRID,MADRID,28015,1,Gaztambide,https://wikidata.org/entity/Q10288587,7,Chamberí,https://wikidata.org/entity/Q1763370,439397,4476221,4,04E+14,-3,71E+16,915 446 020,,/contenido/entidadesYorganismos/CentrosAtencionMedica/CentrosSalud
31645,Centro de Salud Ángela Uriarte,,,"Bus: 144, 57.  Cercanías Renfe: Asamblea de Madrid (líneas C2, C7 y Regional).  Bicimad: Estación 420 (calle de Candilejas, 5).","Este Centro de Salud presta atención continuada como centro de continuidad de cuidados de enfermería de lunes a viernes de 21 a 8 horas y los sábados, domingos y festivos 24 horas.",3,http://www.madrid.es/sites/v/index.jsp?vgnextchannel=bfa48ab43d6bb410VgnVCM100000171f5a0aRCRD&vgnextoid=a4c5b3e42751c010VgnVCM2000000c205a0aRCRD,CANDILEJAS,CALLE,V,66,MADRID,MADRID,28018,3,Palomeras Bajas,https://wikidata.org/entity/Q10343902,13,Puente de Vallecas,https://wikidata.org/entity/Q2003054,443621,4470378,4,04E+15,-3,66E+16,917 851 030,,/contenido/entidadesYorganismos/CentrosAtencionMedica/CentrosSalud
8957,Centro de Salud Aquitania,,,"Metro: Alsacia (línea 2).  Bus: 106, 140, 159, E2.",,3,http://www.madrid.es/sites/v/index.jsp?vgnextchannel=bfa48ab43d6bb410VgnVCM100000171f5a0aRCRD&vgnextoid=2db77a7e0a61c010VgnVCM1000000b205a0aRCRD,AQUITANIA,CALLE,V,22,MADRID,MADRID,28032,4,Arcos,https://wikidata.org/entity/Q9627876,20,San Blas-Canillejas,https://wikidata.org/entity/Q2001937,447587,4474411,4,04E+16,-3,62E+15,913 135 323,,/contenido/entidadesYorganismos/CentrosAtencionMedica/CentrosSalud
9001,Centro de Salud Aravaca,,,"Bus:   160, 161.   Aparcamiento: Corona Boreal (6) plaza Corona Boreal y calle Marqués Camarines.",,3,http://www.madrid.es/sites/v/index.jsp?vgnextchannel=bfa48ab43d6bb410VgnVCM100000171f5a0aRCRD&vgnextoid=bfc77a7e0a61c010VgnVCM1000000b205a0aRCRD,RIAZA,CALLE,V,5,MADRID,MADRID,28023,7,Aravaca,https://wikidata.org/entity/Q3314682,9,Moncloa-Aravaca,https://wikidata.org/entity/Q2017682,433724,4478713,4,05E+15,-3,78E+14,913 573 486 / 913 574 502,,/contenido/entidadesYorganismos/CentrosAtencionMedica/CentrosSalud
10144881,Centro de Salud Argüelles,,,"Metro: Arg&amp,uuml,elles (líneas 3, 4 y 6), Ventura Rodríguez (línea 3).  Bus: 62, 74.  Bicimad: Estación 114 (calle Quintana, 13).  Aparcamiento: Marqués de Urquijo (63) entre calle Princesa y calle Juan Álvarez Mendizabal.",,3,http://www.madrid.es/sites/v/index.jsp?vgnextchannel=bfa48ab43d6bb410VgnVCM100000171f5a0aRCRD&vgnextoid=20b54841aa567510VgnVCM2000001f4a900aRCRD,QUINTANA,CALLE,V,11,MADRID,MADRID,28008,2,Argüelles,https://wikidata.org/entity/Q64874,9,Moncloa-Aravaca,https://wikidata.org/entity/Q2017682,439158,4475489,4,04E+15,-3,72E+15,915 594 898,,/contenido/entidadesYorganismos/CentrosAtencionMedica/CentrosSalud
34973,Centro de Salud Arroyo Medialegua,,,"Metro: Vinateros (línea 9).  Bus: 71, 113.  Bicimad: Estaciones 218 (calle Camino de los Vinateros, 28), 458 (calle del Arrroyo Belincoso, 26).",,3,http://www.madrid.es/sites/v/index.jsp?vgnextchannel=bfa48ab43d6bb410VgnVCM100000171f5a0aRCRD&vgnextoid=37d5b3e42751c010VgnVCM2000000c205a0aRCRD,ARROYO DE LA MEDIA LEGUA,CALLE,V,35,MADRID,MADRID,28030,4,Media Legua,https://wikidata.org/entity/Q9031035,14,Moratalaz,https://wikidata.org/entity/Q2076109,444483,4473711,4,04E+15,-3,65E+15,913 280 257,,/contenido/entidadesYorganismos/CentrosAtencionMedica/CentrosSalud
9007,Centro de Salud Artilleros,,,"Metro: Vicálvaro (línea 9).  Bus: 100, 130, 106, 4, E3, E5.",,3,http://www.madrid.es/sites/v/index.jsp?vgnextchannel=bfa48ab43d6bb410VgnVCM100000171f5a0aRCRD&vgnextoid=d4f77a7e0a61c010VgnVCM1000000b205a0aRCRD,ARTILLEROS,PASEO,V,31,MADRID,MADRID,28032,1,Casco Histórico de Vicálvaro,https://wikidata.org/entity/Q16544374,19,Vicálvaro,https://wikidata.org/entity/Q589403,448330,4472973,4,04E+15,-3,61E+16,917 768 011,,/contenido/entidadesYorganismos/CentrosAtencionMedica/CentrosSalud
9039,Centro de Salud Avenida de Aragón,,,"Metro: Ciudad Lineal (línea 5).  Bus: 104, 77, 105, 38, 4, 48, 70, 109, 113.",,3,http://www.madrid.es/sites/v/index.jsp?vgnextchannel=bfa48ab43d6bb410VgnVCM100000171f5a0aRCRD&vgnextoid=93154b6faa61c010VgnVCM1000000b205a0aRCRD,ALCALA,CALLE,V,425,MADRID,MADRID,28027,3,Quintana,https://wikidata.org/entity/Q71810,15,Ciudad Lineal,https://wikidata.org/entity/Q1763694,445966,4476598,4,04E+15,-3,64E+16,913 201 068 / 913 201 472,,/contenido/entidadesYorganismos/CentrosAtencionMedica/CentrosSalud
8953,Centro de Salud Barajas,,,"Metro: Barajas (Línea 8).  Bus: 105, 115, 166.","Este Centro de Salud presta atención continuada como centro de continuidad de cuidados de enfermería sábados, domingos y festivos de 9 a 21 horas.",3,http://www.madrid.es/sites/v/index.jsp?vgnextchannel=bfa48ab43d6bb410VgnVCM100000171f5a0aRCRD&vgnextoid=77084b6faa61c010VgnVCM1000000b205a0aRCRD,LOGROÑO,AVENIDA,V,319,MADRID,MADRID,28042,4,Timón,https://wikidata.org/entity/Q10382570,21,Barajas,https://wikidata.org/entity/Q807230,450675,4480268,4,05E+15,-3,58E+15,913 291 767,,/contenido/entidadesYorganismos/CentrosAtencionMedica/CentrosSalud
8958,Centro de Salud Barrio del Pilar,,,"Metro: Barrio del Pilar (línea 9).  Bus: 147.  Bicimad: Estaciones 575 (calle Ginzo de Limia, 36), 573 (calle Melchor Fernández Almagro, 16).",,3,http://www.madrid.es/sites/v/index.jsp?vgnextchannel=bfa48ab43d6bb410VgnVCM100000171f5a0aRCRD&vgnextoid=0a184b6faa61c010VgnVCM1000000b205a0aRCRD,FINISTERRE,CALLE,V,18,MADRID,MADRID,28029,5,La Paz,https://wikidata.org/entity/Q5869740,8,Fuencarral-El Pardo,https://wikidata.org/entity/Q656196,440501,4481036,4,05E+15,-3,70E+15,913 149 777,,/contenido/entidadesYorganismos/CentrosAtencionMedica/CentrosSalud
9031,Centro de Salud Baviera,,,"Metro: Cartagena (línea 7), Parque de las Avenida (línea 7).  Bus: 74.  BiciMad: Estación 241 (Avenida de Camilo José Cela, 23).",,3,http://www.madrid.es/sites/v/index.jsp?vgnextchannel=bfa48ab43d6bb410VgnVCM100000171f5a0aRCRD&vgnextoid=9c284b6faa61c010VgnVCM1000000b205a0aRCRD,PINTOR MORENO CARBONERO,CALLE,V,21,MADRID,MADRID,28028,4,La Guindalera,https://wikidata.org/entity/Q3814559,4,Salamanca,https://wikidata.org/entity/Q1773521,443347,4476701,4,04E+15,-3,67E+16,917 267 178,,/contenido/entidadesYorganismos/CentrosAtencionMedica/CentrosSalud
9006,Centro de Salud Benita Ávila,,,"Metro: Pinar del Rey (línea 8).  Bus: 87, 73.  Bicimad: Estación 523 (calle de la Carretera de Canillas, 40).",,3,http://www.madrid.es/sites/v/index.jsp?vgnextchannel=bfa48ab43d6bb410VgnVCM100000171f5a0aRCRD&vgnextoid=2f384b6faa61c010VgnVCM1000000b205a0aRCRD,BENITA AVILA,CALLE,V,26,MADRID,MADRID,28043,3,Canillas,https://wikidata.org/entity/Q9694341,16,Hortaleza,https://wikidata.org/entity/Q1928529,444858,4479588,4,05E+15,-3,65E+16,913 882 915,,/contenido/entidadesYorganismos/CentrosAtencionMedica/CentrosSalud
8939,Centro de Salud Bucodental,,"Antes de acudir, póngase en contacto telefónico con el centro    Horario de invierno: De 8 a 14 horas  Semana de San Isidro: 8:30 a 14 horas  Del 3 al 26 de agosto cerrado","Metro: Ciudad de los Ángeles salida calle Tertulia (L 3) Bus: 22, 23, 59, 85, 79 y 123 Renfe: Villaverde Bajo",,1,http://www.madrid.es/sites/v/index.jsp?vgnextchannel=bfa48ab43d6bb410VgnVCM100000171f5a0aRCRD&vgnextoid=08784b6faa61c010VgnVCM1000000b205a0aRCRD,FELICIDAD,AVENIDA,V,17,MADRID,MADRID,28041,4,Los Rosales,https://wikidata.org/entity/Q10319807,17,Villaverde,https://wikidata.org/entity/Q919536,441347,4467878,4,04E+15,-3,69E+15,"Recepción: 915 88 87 80                                
Secretaría: 914 80 10 40",mspbucodental@madrid.es,/contenido/entidadesYorganismos/CentrosAtencionMedica/CentrosPrevencionEnfermedades
8945,Centro de Salud Buenos Aires,,,"Metro: Buenos Aires (línea 1).  Bus: 141, 143, 54.",,3,http://www.madrid.es/sites/v/index.jsp?vgnextchannel=bfa48ab43d6bb410VgnVCM100000171f5a0aRCRD&vgnextoid=9a884b6faa61c010VgnVCM1000000b205a0aRCRD,PIO FELIPE,CALLE,V,26,MADRID,MADRID,28038,6,Numancia,https://wikidata.org/entity/Q10338144,13,Puente de Vallecas,https://wikidata.org/entity/Q2003054,444537,4471709,4,04E+15,-3,65E+15,913 033 200,,/contenido/entidadesYorganismos/CentrosAtencionMedica/CentrosSalud
8959,Centro de Salud Bustarviejo,,,"Metro: Valdeacederas (línea 1), Tetuán (línea 1).  Bus: 124, 66.  Bicimad: Estación 207 (Azucenas, 1).",,3,http://www.madrid.es/sites/v/index.jsp?vgnextchannel=bfa48ab43d6bb410VgnVCM100000171f5a0aRCRD&vgnextoid=2d984b6faa61c010VgnVCM1000000b205a0aRCRD,BUSTARVIEJO,CALLE,V,5,MADRID,MADRID,28020,3,Castillejos,https://wikidata.org/entity/Q11913212,6,Tetuán,https://wikidata.org/entity/Q1773540,441038,4479298,4,05E+15,-3,70E+15,915 720 998,,/contenido/entidadesYorganismos/CentrosAtencionMedica/CentrosSalud
8975,Centro de Salud Cáceres,,,"Metro: Delicias (línea 3).  Bus: 19, 247, 45, 47, 59, 8, 85, 86.  Cercanías Renfe: Delicias (Líneas C1 y C10).  Bicimad: Estaciones 164 (Paseo de las Delicias 94), 172 (calle Bustamante, 1).",,3,http://www.madrid.es/sites/v/index.jsp?vgnextchannel=bfa48ab43d6bb410VgnVCM100000171f5a0aRCRD&vgnextoid=bfa84b6faa61c010VgnVCM1000000b205a0aRCRD,CACERES,CALLE,V,4,MADRID,MADRID,28045,5,Las Delicias,https://wikidata.org/entity/Q3773736,2,Arganzuela,https://wikidata.org/entity/Q2000929,441029,4472232,4,04E+16,-3,69E+15,915 309 112,,/contenido/entidadesYorganismos/CentrosAtencionMedica/CentrosSalud
7651785,Centro de Salud Campo de la Paloma,,,"Bus: 310, 10, 144, 57.  Bicimad: Estación 433 (calle de Villalobos, 28).",,3,http://www.madrid.es/sites/v/index.jsp?vgnextchannel=bfa48ab43d6bb410VgnVCM100000171f5a0aRCRD&vgnextoid=02b588575dca8410VgnVCM2000000c205a0aRCRD,VILLALOBOS,CALLE,V,14,MADRID,MADRID,28018,4,Palomeras Sureste,https://wikidata.org/entity/Q10343901,13,Puente de Vallecas,https://wikidata.org/entity/Q2003054,444993,4470359,4,04E+15,-3,65E+16,917 789 613,,/contenido/entidadesYorganismos/CentrosAtencionMedica/CentrosSalud
51700,Centro de Salud Canal de Panamá,,,"Metro: Barrio de la Concepción (línea 7).  Bus: 122, 53.  Aparcamiento: Verdaguer y García (44), calle Verdaguer y García.",,3,http://www.madrid.es/sites/v/index.jsp?vgnextchannel=bfa48ab43d6bb410VgnVCM100000171f5a0aRCRD&vgnextoid=e3e2598d1351c010VgnVCM1000000b205a0aRCRD,VERDAGUER Y GARCIA,CALLE,V,56,MADRID,MADRID,28027,5,San Pascual,https://wikidata.org/entity/Q165612,15,Ciudad Lineal,https://wikidata.org/entity/Q1763694,444653,4476944,4,04E+16,-3,65E+15,914 032 154,,/contenido/entidadesYorganismos/CentrosAtencionMedica/CentrosSalud
7651324,Centro de Salud Carabanchel Alto,,,"Metro: La Peseta (línea 11).  Bus: 118, 155, 35, E1.",,3,http://www.madrid.es/sites/v/index.jsp?vgnextchannel=bfa48ab43d6bb410VgnVCM100000171f5a0aRCRD&vgnextoid=8443c71485ca8410VgnVCM2000000c205a0aRCRD,CARABANCHEL ALTO,AVENIDA,V,150,MADRID,MADRID,28054,6,Buenavista,https://wikidata.org/entity/Q953929,11,Carabanchel,https://wikidata.org/entity/Q1001991,435971,4468168,4,04E+15,-3,75E+15,915 115 793,,/contenido/entidadesYorganismos/CentrosAtencionMedica/CentrosSalud
8965,Centro de Salud Caramuel,,,"Metro: Puerta del Ángel (línea 6).  Bus: 138.  Bicimad: Estación 224 (calle Caramuel, 51).",,3,http://www.madrid.es/sites/v/index.jsp?vgnextchannel=bfa48ab43d6bb410VgnVCM100000171f5a0aRCRD&vgnextoid=d4d84b6faa61c010VgnVCM1000000b205a0aRCRD,FUENTEOVEJUNA,CALLE,V,17,MADRID,MADRID,28011,2,Barrio de Puerta del Ángel,https://wikidata.org/entity/Q31142,10,Latina,https://wikidata.org/entity/Q794954,438230,4473423,4,04E+16,-3,73E+16,914 635 879 / 914 798 262,,/contenido/entidadesYorganismos/CentrosAtencionMedica/CentrosSalud
9050,Centro de Salud Casa de Campo,,,"Bus: 41, 75, 46.  Bicimad: Estación 314 (avenida de Valladolid, 47G, 47).",,3,http://www.madrid.es/sites/v/index.jsp?vgnextchannel=bfa48ab43d6bb410VgnVCM100000171f5a0aRCRD&vgnextoid=67e84b6faa61c010VgnVCM1000000b205a0aRCRD,RIBERA DEL MANZANARES,CALLE,V,113,MADRID,MADRID,28008,1,Casa de Campo,https://wikidata.org/entity/Q16302441,9,Moncloa-Aravaca,https://wikidata.org/entity/Q2017682,438061,4475708,4,04E+15,-3,73E+15,915 473 628 / 915 590 035,,/contenido/entidadesYorganismos/CentrosAtencionMedica/CentrosSalud
9032,Centro de Salud Castelló,,,"Metro: Núñez de Balboa (líneas 5 y 9), Velázquez (línea 4), Lista (línea 4).  Bus: 29, 52, 1, 74.  Bicimad: Estaciones 109 (calle José Ortega y Gasset, 30) y 87 (calle Ayala, 44).  Aparcamiento: Velázquez Ayala (42) calle Velázquez y calle Ayala.",,3,http://www.madrid.es/sites/v/index.jsp?vgnextchannel=bfa48ab43d6bb410VgnVCM100000171f5a0aRCRD&vgnextoid=f9f84b6faa61c010VgnVCM1000000b205a0aRCRD,CASTELLO,CALLE,V,63,MADRID,MADRID,28001,1,Recoletos,https://wikidata.org/entity/Q3814551,4,Salamanca,https://wikidata.org/entity/Q1773521,442206,4475561,4,04E+16,-3,68E+15,915 778 118,,/contenido/entidadesYorganismos/CentrosAtencionMedica/CentrosSalud
9054,Centro de Salud Cea Bermúdez,,,"Metro: Canal (líneas 2 y 7).  Bus: 2, 12.  Bicimad: Estaciones 202 (calle Santander esquina con avenida de Filipinas), 201 (calle José Abascal, 2), 245 (calle Galileo, 63), 131 (calle Bravo Murillo, 44).",,3,http://www.madrid.es/sites/v/index.jsp?vgnextchannel=bfa48ab43d6bb410VgnVCM100000171f5a0aRCRD&vgnextoid=1f194b6faa61c010VgnVCM1000000b205a0aRCRD,CEA BERMUDEZ,CALLE,V,10,MADRID,MADRID,28003,6,Vallehermoso,https://wikidata.org/entity/Q6122685,7,Chamberí,https://wikidata.org/entity/Q1763370,440030,4476713,4,04E+15,-3,71E+16,915 349 755,,/contenido/entidadesYorganismos/CentrosAtencionMedica/CentrosSalud
8966,Centro de Salud Cebreros,,,"Metro: Lucero (línea 6).  Bus: 36, 39, 65, 33.  Bicimad: Estación 327 (calle El Greco, 27).",,3,http://www.madrid.es/sites/v/index.jsp?vgnextchannel=bfa48ab43d6bb410VgnVCM100000171f5a0aRCRD&vgnextoid=a1394b6faa61c010VgnVCM1000000b205a0aRCRD,CEBREROS,CALLE,V,74,MADRID,MADRID,28011,3,Lucero,https://wikidata.org/entity/Q31162,10,Latina,https://wikidata.org/entity/Q794954,436487,4473063,4,04E+13,-3,75E+15,914 642 716,,/contenido/entidadesYorganismos/CentrosAtencionMedica/CentrosSalud
9028,Centro de Salud Cerro Almodóvar,,,"Bus: 145, 63, 58.",,3,http://www.madrid.es/sites/v/index.jsp?vgnextchannel=bfa48ab43d6bb410VgnVCM100000171f5a0aRCRD&vgnextoid=34494b6faa61c010VgnVCM1000000b205a0aRCRD,FUENTESPINA,CALLE,V,2,MADRID,MADRID,28031,2,Santa Eugenia,https://wikidata.org/entity/Q390463,18,Villa de Vallecas,https://wikidata.org/entity/Q1947988,448673,4470158,4,04E+16,-3,60E+15,913 311 836,,/contenido/entidadesYorganismos/CentrosAtencionMedica/CentrosSalud
8960,Centro de Salud Ciudad de los Periodistas,,,"Metro: Herrera Oria (línea 9).  Bus: 134, 49, 133, 67, 124, 127.",,3,http://www.madrid.es/sites/v/index.jsp?vgnextchannel=bfa48ab43d6bb410VgnVCM100000171f5a0aRCRD&vgnextoid=eb794b6faa61c010VgnVCM1000000b205a0aRCRD,VALENCIA DE DON JUAN,CALLE,V,1,MADRID,MADRID,28034,5,La Paz,https://wikidata.org/entity/Q5869740,8,Fuencarral-El Pardo,https://wikidata.org/entity/Q656196,440052,4481806,4,05E+16,-3,71E+15,917 303 399,,/contenido/entidadesYorganismos/CentrosAtencionMedica/CentrosSalud
8951,Centro de Salud Ciudad Jardín,,,"Metro: Alfonso XIII (línea 4).  Bus: 73, 9.",,3,http://www.madrid.es/sites/v/index.jsp?vgnextchannel=bfa48ab43d6bb410VgnVCM100000171f5a0aRCRD&vgnextoid=c6594b6faa61c010VgnVCM1000000b205a0aRCRD,PANTOJA,CALLE,V,3,MADRID,MADRID,28002,3,Ciudad Jardín,https://wikidata.org/entity/Q3773744,5,Chamartín,https://wikidata.org/entity/Q1766348,443142,4477625,4,04E+16,-3,67E+16,915 194 411,,/contenido/entidadesYorganismos/CentrosAtencionMedica/CentrosSalud
9065,Centro de Salud Comillas,,,"Metro: Marqués de Vadillo (línea 5).  Bus: 55, 60.  Bicimad: Estación 228 (calle San Delfín, 9).",,3,http://www.madrid.es/sites/v/index.jsp?vgnextchannel=bfa48ab43d6bb410VgnVCM100000171f5a0aRCRD&vgnextoid=7e894b6faa61c010VgnVCM1000000b205a0aRCRD,EDUARDO MARQUINA,CALLE,V,33,MADRID,MADRID,28019,1,Comillas,https://wikidata.org/entity/Q955844,11,Carabanchel,https://wikidata.org/entity/Q1001991,439740,4471543,4,04E+15,-3,71E+16,914 605 100,,/contenido/entidadesYorganismos/CentrosAtencionMedica/CentrosSalud
9040,Centro de Salud Daroca,,,"Metro: El Carmen (línea 5).  Bus: 106, 110, 210, 146, 38.  Bicimad: Estación 188 (Avenida Daroca, 2).",,3,http://www.madrid.es/sites/v/index.jsp?vgnextchannel=bfa48ab43d6bb410VgnVCM100000171f5a0aRCRD&vgnextoid=01a94b6faa61c010VgnVCM1000000b205a0aRCRD,DAROCA,AVENIDA,V,4,MADRID,MADRID,28017,1,Ventas,https://wikidata.org/entity/Q71762,15,Ciudad Lineal,https://wikidata.org/entity/Q1763694,444189,4475770,4,04E+15,-3,66E+15,913 553 004,,/contenido/entidadesYorganismos/CentrosAtencionMedica/CentrosSalud
9064,Centro de Salud Delicias,,,"Metro: Palos de la Frontera (línea 3).  Bus: 19, 45, 86, 27, 55, 247, 47, 8, 59, 6, 85, 102.  Cercanías Renfe: Atocha (líneas C1, C2, C3, C4, C4b, C5, C7, C10).  Bicimad: Estaciones 120 (calle Palos de la Frontera 27), 168 (paseo Santa María de la cabeza, 29).",,3,http://www.madrid.es/sites/v/index.jsp?vgnextchannel=bfa48ab43d6bb410VgnVCM100000171f5a0aRCRD&vgnextoid=93b94b6faa61c010VgnVCM1000000b205a0aRCRD,DELICIAS,CALLE,V,5,MADRID,MADRID,28045,6,Palos de la Frontera,https://wikidata.org/entity/Q521009,2,Arganzuela,https://wikidata.org/entity/Q2000929,441017,4472863,4,04E+15,-3,70E+16,914 678 962,,/contenido/entidadesYorganismos/CentrosAtencionMedica/CentrosSalud
31598,Centro de Salud Doctor Castroviejo,,,"Metro: Antonio Machado (línea 7).  Bus: 42, 127, 132.  Bicimad: Estación 599 (calle La Cabrera sin número).",,3,http://www.madrid.es/sites/v/index.jsp?vgnextchannel=bfa48ab43d6bb410VgnVCM100000171f5a0aRCRD&vgnextoid=c9e5b3e42751c010VgnVCM2000000c205a0aRCRD,CANDIDO MATEOS,CALLE,V,11,MADRID,MADRID,28035,3,Peñagrande,https://wikidata.org/entity/Q3319582,8,Fuencarral-El Pardo,https://wikidata.org/entity/Q656196,439135,4480478,4,05E+15,-3,72E+16,913 739 500,,/contenido/entidadesYorganismos/CentrosAtencionMedica/CentrosSalud
9020,Centro de Salud Doctor Cirajas,,,"Metro: Ciudad Lineal (línea 5), Pueblo Nuevo (líneas 5 y 7).  Bus: 105, 38, 4, 48, 70.  Bicimad: Estación 477 (calle de los Misterios, 1).",,3,http://www.madrid.es/sites/v/index.jsp?vgnextchannel=bfa48ab43d6bb410VgnVCM100000171f5a0aRCRD&vgnextoid=26c94b6faa61c010VgnVCM1000000b205a0aRCRD,DOCTOR CIRAJAS,CALLE,V,20,MADRID,MADRID,28017,2,Pueblo Nuevo,https://wikidata.org/entity/Q71753,15,Ciudad Lineal,https://wikidata.org/entity/Q1763694,446074,4476487,4,04E+15,-3,64E+15,913 221 540,,/contenido/entidadesYorganismos/CentrosAtencionMedica/CentrosSalud
9014,Centro de Salud el Espinillo,,,"Metro: Ciudad de los Ángeles (línea 3).  Bus: 123, 23.  Bicimad: Estación 398 (avenida de Orovilla, 53).",,3,http://www.madrid.es/sites/v/index.jsp?vgnextchannel=bfa48ab43d6bb410VgnVCM100000171f5a0aRCRD&vgnextoid=4be94b6faa61c010VgnVCM1000000b205a0aRCRD,OROVILLA,AVENIDA,V,53,MADRID,MADRID,28041,4,Los Rosales,https://wikidata.org/entity/Q10319807,17,Villaverde,https://wikidata.org/entity/Q919536,441479,4467795,4,04E+15,-3,69E+15,913 180 775,,/contenido/entidadesYorganismos/CentrosAtencionMedica/CentrosSalud
9011,Centro de Salud El Pardo,,,Bus:601.,,3,http://www.madrid.es/sites/v/index.jsp?vgnextchannel=bfa48ab43d6bb410VgnVCM100000171f5a0aRCRD&vgnextoid=ddf94b6faa61c010VgnVCM1000000b205a0aRCRD,CARLOS MORLA LYNCH,CALLE,V,2,MADRID,MADRID,28048,1,El Pardo,https://wikidata.org/entity/Q3314337,8,Fuencarral-El Pardo,https://wikidata.org/entity/Q656196,434187,4485593,4,05E+15,-3,78E+16,913 760 233,,/contenido/entidadesYorganismos/CentrosAtencionMedica/CentrosSalud
34480,Centro de Salud Eloy Gonzalo,,,"Metro: Quevedo (línea 2), Iglesia (línea 1).  Bus: 3, 16, 61, 149.  Bicimad: Estación 126 (Calle General Álvarez de Castro, 2).  Aparcamiento: Olavide (52) plaza de Olavide.",,3,http://www.madrid.es/sites/v/index.jsp?vgnextchannel=bfa48ab43d6bb410VgnVCM100000171f5a0aRCRD&vgnextoid=5cf5b3e42751c010VgnVCM2000000c205a0aRCRD,ELOY GONZALO,CALLE,V,24,MADRID,MADRID,28010,3,Trafalgar,https://wikidata.org/entity/Q10384027,7,Chamberí,https://wikidata.org/entity/Q1763370,440508,4476180,4,04E+16,-3,70E+16,915 932 300,,/contenido/entidadesYorganismos/CentrosAtencionMedica/CentrosSalud
8977,Centro de Salud Embajadores,,,"Metro: Embajadores (línea 3), Acacias (línea 5).  Bus: 148, 60, 78, 55, 59, 6, 85, E1.  Cercanías Renfe: Embajadores (línea C5).  Bicimad: Estación 121 (Paseo Santa María de la Cabeza, 58).",,3,http://www.madrid.es/sites/v/index.jsp?vgnextchannel=bfa48ab43d6bb410VgnVCM100000171f5a0aRCRD&vgnextoid=601a4b6faa61c010VgnVCM1000000b205a0aRCRD,CARDENAL SOLIS,CALLE,V,6,MADRID,MADRID,28012,6,Palos de la Frontera,https://wikidata.org/entity/Q521009,2,Arganzuela,https://wikidata.org/entity/Q2000929,440647,4472617,4,04E+15,-3,70E+16,914 671 200,,/contenido/entidadesYorganismos/CentrosAtencionMedica/CentrosSalud
5647268,Centro de Salud Ensanche de Vallecas,,,"Metro: Congosto (línea 1).  Bus: 142, 103.",,3,http://www.madrid.es/sites/v/index.jsp?vgnextchannel=bfa48ab43d6bb410VgnVCM100000171f5a0aRCRD&vgnextoid=78f1a1832ebf7210VgnVCM1000000b205a0aRCRD,CINCOVILLAS,CALLE,V,1,MADRID,MADRID,28051,3,Ensanche de Vallecas,https://wikidata.org/entity/Q3847485,18,Villa de Vallecas,https://wikidata.org/entity/Q1947988,447041,4468832,4,04E+16,-3,62E+15,913 852 255,,/contenido/entidadesYorganismos/CentrosAtencionMedica/CentrosSalud
7651810,Centro de Salud Entrevías,,,"Bus: 103, 111, 24.  Cercanías Renfe: Asamblea de Madrid (líneas C2, C7 y Regional).  Bicimad: Estación 423 (avenida de Entrevías, 56).",,3,http://www.madrid.es/sites/v/index.jsp?vgnextchannel=bfa48ab43d6bb410VgnVCM100000171f5a0aRCRD&vgnextoid=537fec621fca8410VgnVCM1000000b205a0aRCRD,DE LA CAMPIÑA,CALLE,V,,MADRID,MADRID,28053,1,Entrevías,https://wikidata.org/entity/Q71756,13,Puente de Vallecas,https://wikidata.org/entity/Q2003054,443138,4470060,4,04E+15,-3,67E+15,915 073 030,,/contenido/entidadesYorganismos/CentrosAtencionMedica/CentrosSalud
9005,Centro de Salud Espronceda,,,"Metro: Ríos Rosas (línea 1), Alonso Cano (línea 7), Gregorio Marañón (líneas 7 y 10).  Bus: 5, 12, 45.  Bicimad: Estación 129 (calle José Abascal, 33).","Este Centro de Salud presta atención continuada como centro de continuidad de cuidados de enfermería de lunes a viernes de 21 a 8 horas y los sábados, domingos y festivos 24 horas.",3,http://www.madrid.es/sites/v/index.jsp?vgnextchannel=bfa48ab43d6bb410VgnVCM100000171f5a0aRCRD&vgnextoid=853a4b6faa61c010VgnVCM1000000b205a0aRCRD,ESPRONCEDA,CALLE,V,24,MADRID,MADRID,28003,5,Ríos Rosas,https://wikidata.org/entity/Q10366270,7,Chamberí,https://wikidata.org/entity/Q1763370,440910,4476884,4,04E+15,-3,70E+16,913 994 149,,/contenido/entidadesYorganismos/CentrosAtencionMedica/CentrosSalud
62770,Centro de Salud Estrecho de Corea,,,"Metro: Barrio de la Concepción (línea 7).  Bus: 21, 146, 48.  Bicimad: Estación 229 (calle José del Hierro, 5).  Aparcamiento: Corazón de María II (3), calle Corazón de María (final de la calle).",,3,http://www.madrid.es/sites/v/index.jsp?vgnextchannel=bfa48ab43d6bb410VgnVCM100000171f5a0aRCRD&vgnextoid=0903598d1351c010VgnVCM1000000b205a0aRCRD,ESTRECHO DE COREA,CALLE,V,1,MADRID,MADRID,28027,4,Concepción,https://wikidata.org/entity/Q11915156,15,Ciudad Lineal,https://wikidata.org/entity/Q1763694,445048,4476788,4,04E+15,-3,65E+16,914 073 714,,/contenido/entidadesYorganismos/CentrosAtencionMedica/CentrosSalud
8942,Centro de Salud Federica Montseny,,,"Metro: Miguel Hernández (línea 1).  Bus: 103, 142, 143, 54, 58, 144.  Bicimad: Estación 435 (calle San Claudio, 154).",,3,http://www.madrid.es/sites/v/index.jsp?vgnextchannel=bfa48ab43d6bb410VgnVCM100000171f5a0aRCRD&vgnextoid=184a4b6faa61c010VgnVCM1000000b205a0aRCRD,ALBUFERA,AVENIDA,V,285,MADRID,MADRID,28038,4,Palomeras Sureste,https://wikidata.org/entity/Q10343901,13,Puente de Vallecas,https://wikidata.org/entity/Q2003054,445702,4470966,4,04E+14,-3,64E+15,913 909 975,,/contenido/entidadesYorganismos/CentrosAtencionMedica/CentrosSalud
9017,Centro de Salud Fuencarral,,,"Metro: Fuencarral (línea 10).  Bus: 137, 66, 124.","Este Centro de Salud presta atención continuada como centro de continuidad de cuidados de enfermería sábados, domingos y festivos de 9 a 21 horas.",3,http://www.madrid.es/sites/v/index.jsp?vgnextchannel=bfa48ab43d6bb410VgnVCM100000171f5a0aRCRD&vgnextoid=aa5a4b6faa61c010VgnVCM1000000b205a0aRCRD,ISLA DE JAVA,CALLE,V,53,MADRID,MADRID,28034,6,Valverde,https://wikidata.org/entity/Q31132,8,Fuencarral-El Pardo,https://wikidata.org/entity/Q656196,441882,4482563,4,05E+15,-3,69E+15,917 293 471,,/contenido/entidadesYorganismos/CentrosAtencionMedica/CentrosSalud
9012,Centro de Salud Fuentelarreina,,,"Bus: 67, 82.",,3,http://www.madrid.es/sites/v/index.jsp?vgnextchannel=bfa48ab43d6bb410VgnVCM100000171f5a0aRCRD&vgnextoid=3d6a4b6faa61c010VgnVCM1000000b205a0aRCRD,ALFONSO RODRIGUEZ CASTELAO,CALLE,V,17,MADRID,MADRID,28035,3,Peñagrande,https://wikidata.org/entity/Q3319582,8,Fuencarral-El Pardo,https://wikidata.org/entity/Q656196,437800,4481539,4,05E+15,-3,73E+16,913 738 448,,/contenido/entidadesYorganismos/CentrosAtencionMedica/CentrosSalud
104705,Centro de Salud Gandhi,,,"Metro: García Noblejas (línea 7).  Bus: 109, 38, 4, 48, 70.  Bicimad: Estación 490 (Hermanos García Noblejas, 158).",,3,http://www.madrid.es/sites/v/index.jsp?vgnextchannel=bfa48ab43d6bb410VgnVCM100000171f5a0aRCRD&vgnextoid=918c8899fc81c010VgnVCM1000000b205a0aRCRD,GANDHI,CALLE,V,30,MADRID,MADRID,28017,2,Pueblo Nuevo,https://wikidata.org/entity/Q71753,15,Ciudad Lineal,https://wikidata.org/entity/Q1763694,446424,4475146,4,04E+15,-3,63E+16,913 042 927,,/contenido/entidadesYorganismos/CentrosAtencionMedica/CentrosSalud
44689,Centro de Salud García Noblejas,,,"Metro: Simancas (línea 7), Alsacia (línea 2).  Bus: 38, 4, 48, 70, 109.  Bicimad: Estación 490 (Hermanos Garcia Noblejas, 158).","Este Centro de Salud presta atención continuada como centro de atención continuada médica de lunes a viernes de 21 a 8 horas y los sábados, domingos y festivos 24 horas.",3,http://www.madrid.es/sites/v/index.jsp?vgnextchannel=bfa48ab43d6bb410VgnVCM100000171f5a0aRCRD&vgnextoid=9b13598d1351c010VgnVCM1000000b205a0aRCRD,HERMANOS GARCIA NOBLEJAS,CALLE,V,168,MADRID,MADRID,28037,2,Pueblo Nuevo,https://wikidata.org/entity/Q71753,15,Ciudad Lineal,https://wikidata.org/entity/Q1763694,446737,4474936,4,04E+15,-3,63E+16,913 045 362,,/contenido/entidadesYorganismos/CentrosAtencionMedica/CentrosSalud
43144,Centro de Salud General Fanjul,,,"Bus: 34, 17, 139.  Cercanías Renfe: Las Aguilas (línea C5).",,3,http://www.madrid.es/sites/v/index.jsp?vgnextchannel=bfa48ab43d6bb410VgnVCM100000171f5a0aRCRD&vgnextoid=2e23598d1351c010VgnVCM1000000b205a0aRCRD,LAS AGUILAS,AVENIDA,V,18,MADRID,MADRID,28044,7,Las Águilas,https://wikidata.org/entity/Q5971372,10,Latina,https://wikidata.org/entity/Q794954,434034,4470441,4,04E+16,-3,78E+16,917 063 300,,/contenido/entidadesYorganismos/CentrosAtencionMedica/CentrosSalud
52655,Centro de Salud General Ricardos,,,"Metro: Oporto (líneas 5 y 6), Urgel (línea 5).  Bus: 118, 34, 35, 119.  Bicimad: Estación 352 (calle Algorta, 2).",,3,http://www.madrid.es/sites/v/index.jsp?vgnextchannel=bfa48ab43d6bb410VgnVCM100000171f5a0aRCRD&vgnextoid=b043598d1351c010VgnVCM1000000b205a0aRCRD,GENERAL RICARDOS,CALLE,V,131,MADRID,MADRID,28019,2,Opañel,https://wikidata.org/entity/Q3813756,11,Carabanchel,https://wikidata.org/entity/Q1001991,438193,4471373,4,04E+16,-3,73E+16,914 283 939 / 914 283 940,,/contenido/entidadesYorganismos/CentrosAtencionMedica/CentrosSalud
8986,Centro de Salud Goya,,,"Metro: O'Donnell (línea 6).  Bus: 28, 203, E2, E3, 143, 156, 2, 30, 56, 71, E4, E5.  Bicimad: Estaciones 62 (calle D'Donnell, 50), 101 (calle Jorge Juan, 131).",,3,http://www.madrid.es/sites/v/index.jsp?vgnextchannel=bfa48ab43d6bb410VgnVCM100000171f5a0aRCRD&vgnextoid=529a4b6faa61c010VgnVCM1000000b205a0aRCRD,O'DONNELL,CALLE,V,55,MADRID,MADRID,28009,2,Goya,https://wikidata.org/entity/Q3814578,4,Salamanca,https://wikidata.org/entity/Q1773521,443043,4474755,4,04E+15,-3,67E+16,915 042 210,,/contenido/entidadesYorganismos/CentrosAtencionMedica/CentrosSalud
9024,Centro de Salud Guayaba,,,"Metro: Carabanchel Alto (línea 11).  Bus: 121, 131, 47, 108, 118.",,3,http://www.madrid.es/sites/v/index.jsp?vgnextchannel=bfa48ab43d6bb410VgnVCM100000171f5a0aRCRD&vgnextoid=e4aa4b6faa61c010VgnVCM1000000b205a0aRCRD,ANTONIA RODRIGUEZ SACRISTAN,CALLE,V,4,MADRID,MADRID,28044,6,Buenavista,https://wikidata.org/entity/Q953929,11,Carabanchel,https://wikidata.org/entity/Q1001991,436517,4469439,4,04E+15,-3,75E+15,915 081 004,,/contenido/entidadesYorganismos/CentrosAtencionMedica/CentrosSalud
8967,Centro de Salud Guzmán el Bueno,,,"Metro: Arg&amp,uuml,elles (líneas 3, 4 y 6).  Bus: 2, 002, 21, C03.  Bicimad: Estación 123 (calle Guzmán el Bueno, 1).",,3,http://www.madrid.es/sites/v/index.jsp?vgnextchannel=bfa48ab43d6bb410VgnVCM100000171f5a0aRCRD&vgnextoid=77ba4b6faa61c010VgnVCM1000000b205a0aRCRD,GUZMAN EL BUENO,CALLE,V,11,MADRID,MADRID,28015,1,Gaztambide,https://wikidata.org/entity/Q10288587,7,Chamberí,https://wikidata.org/entity/Q1763370,439473,4475872,4,04E+15,-3,71E+16,915 447 696,,/contenido/entidadesYorganismos/CentrosAtencionMedica/CentrosSalud
8999,Centro de Salud Ibiza,,,"Metro: Ibiza (línea 9).  Bus: 15, 2, 215, 26, 61, 63, C1, C2, 152, 20.  Bicimad: Estación 181 (Ibiza, 18).",,3,http://www.madrid.es/sites/v/index.jsp?vgnextchannel=bfa48ab43d6bb410VgnVCM100000171f5a0aRCRD&vgnextoid=0aca4b6faa61c010VgnVCM1000000b205a0aRCRD,IBIZA,CALLE,V,7,MADRID,MADRID,28009,4,Ibiza,https://wikidata.org/entity/Q15249910,3,Retiro,https://wikidata.org/entity/Q2002296,442484,4474430,4,04E+15,-3,68E+16,915 044 016,,/contenido/entidadesYorganismos/CentrosAtencionMedica/CentrosSalud
8990,Centro de Salud Infanta Mercedes,,,"Metro: Estrecho (línea 1).  Bus: 43, 3.  Bicimad: Estación 152 (Avenida General Perón, 4).  Aparcamiento: Presidente Carmona (33) avenida Presidente Carmona.",,3,http://www.madrid.es/sites/v/index.jsp?vgnextchannel=bfa48ab43d6bb410VgnVCM100000171f5a0aRCRD&vgnextoid=cf7a4b6faa61c010VgnVCM1000000b205a0aRCRD,INFANTA MERCEDES,CALLE,V,7,MADRID,MADRID,28020,2,Cuatro Caminos,https://wikidata.org/entity/Q5824684,6,Tetuán,https://wikidata.org/entity/Q1773540,440692,4478273,4,05E+15,-3,70E+15,914 506 061 / 915 545 504,,/contenido/entidadesYorganismos/CentrosAtencionMedica/CentrosSalud
8993,Centro de Salud Isla de Oza,,,"Bus: 82, 137, 64.",,3,http://www.madrid.es/sites/v/index.jsp?vgnextchannel=bfa48ab43d6bb410VgnVCM100000171f5a0aRCRD&vgnextoid=9cda4b6faa61c010VgnVCM1000000b205a0aRCRD,SAN MARTIN DE PORRES,CALLE,V,6,MADRID,MADRID,28035,3,Ciudad Universitaria,https://wikidata.org/entity/Q3319235,9,Moncloa-Aravaca,https://wikidata.org/entity/Q2017682,438346,4479962,4,05E+15,-3,73E+16,913 738 412,,/contenido/entidadesYorganismos/CentrosAtencionMedica/CentrosSalud
30526,Centro de Salud Jazmín,,,"Metro: Pinar de Chamartín (líneas 1, 4 y ML1).  Bus: 129, 125, 150.  Cercanías Renfe: Fuente de la Mora (líneas C1, C10 y Regional).  Bicimad: Estación 540 (calle de Dulce Chacón sin número).  Aparcamiento: Fuente de la Mora (74) avenida de Manoteras, 1D.",,3,http://www.madrid.es/sites/v/index.jsp?vgnextchannel=bfa48ab43d6bb410VgnVCM100000171f5a0aRCRD&vgnextoid=ee06b3e42751c010VgnVCM2000000c205a0aRCRD,JAZMIN,CALLE,V,33,MADRID,MADRID,28033,9,Costillares,https://wikidata.org/entity/Q331385,15,Ciudad Lineal,https://wikidata.org/entity/Q1763694,443771,4481483,4,05E+15,-3,66E+16,913 832 614,,/contenido/entidadesYorganismos/CentrosAtencionMedica/CentrosSalud
117595,Centro de Salud Joaquín Rodrigo,,,"Bus: 6, 60, 81.  Bicimad: Estaciones 391 (calle Rafaela Ybarra, 22), 387 (calle de Isabelita Usera, 44).",,3,http://www.madrid.es/sites/v/index.jsp?vgnextchannel=bfa48ab43d6bb410VgnVCM100000171f5a0aRCRD&vgnextoid=249c8899fc81c010VgnVCM1000000b205a0aRCRD,MARIANO VELA,CALLE,V,62,MADRID,MADRID,28026,7,Pradolongo,https://wikidata.org/entity/Q10352360,12,Usera,https://wikidata.org/entity/Q953368,439757,4470333,4,04E+15,-3,71E+15,913 920 630,,/contenido/entidadesYorganismos/CentrosAtencionMedica/CentrosSalud
9022,Centro de Salud José María Llanos,,,"Bus: 102, 24.",,3,http://www.madrid.es/sites/v/index.jsp?vgnextchannel=bfa48ab43d6bb410VgnVCM100000171f5a0aRCRD&vgnextoid=2fea4b6faa61c010VgnVCM1000000b205a0aRCRD,CABO MACHICHACO,CALLE,V,62,MADRID,MADRID,28053,1,Entrevías,https://wikidata.org/entity/Q71756,13,Puente de Vallecas,https://wikidata.org/entity/Q2003054,443827,4469194,4,04E+13,-3,66E+16,915 075 060,,/contenido/entidadesYorganismos/CentrosAtencionMedica/CentrosSalud
9090,Centro de Salud José Marvá,,,"Metro: Valdeacederas (línea 1).  Bus: 124, 66, 49.  Bicimad: Estación 207 (Azucenas, 1).",,3,http://www.madrid.es/sites/v/index.jsp?vgnextchannel=bfa48ab43d6bb410VgnVCM100000171f5a0aRCRD&vgnextoid=b10b4b6faa61c010VgnVCM1000000b205a0aRCRD,BRAVO MURILLO,CALLE,V,317,MADRID,MADRID,28020,5,Valdeacederas,https://wikidata.org/entity/Q10388711,6,Tetuán,https://wikidata.org/entity/Q1773540,440930,4479429,4,05E+15,-3,70E+15,915 718 303,,/contenido/entidadesYorganismos/CentrosAtencionMedica/CentrosSalud
190838,Centro de Salud Justicia,,,"Metro: Chueca (línea 5), Alonso Martínez (líneas 4, 5 y 10), Tribunal (líneas 1 y 10).  Bus: 37, 3.  Cercanías Renfe:  Recoletos (líneas C1, C2, C7, C10 y Regional).  Bicimad: Estaciones 7 (calle Hortaleza, 75), 6 (calle Hortaleza, 63), 26 (plaza de las Salesas, 7).  Aparcamiento: Gravina 21 (89), calle Gravina, Garaje Piamonte (96) calle de Piamonte, aparcamiento Escuelas de San Antón (91), Santa Brigida.",,3,http://www.madrid.es/sites/v/index.jsp?vgnextchannel=bfa48ab43d6bb410VgnVCM100000171f5a0aRCRD&vgnextoid=7fe82a9d23d60110VgnVCM1000000b205a0aRCRD,REGUEROS,CALLE,V,3,MADRID,MADRID,28004,4,Justicia,https://wikidata.org/entity/Q1992319,1,Centro,https://wikidata.org/entity/Q1763376,440896,4475104,4,04E+15,-3,70E+15,917 025 483,,/contenido/entidadesYorganismos/CentrosAtencionMedica/CentrosSalud
40204,Centro de Salud La Ventilla,,,"Metro: Ventilla (línea 9).  Bus: 177, 42.  Bicimad: Estacion 296 (calle de Costa Verde, 24).",,3,http://www.madrid.es/sites/v/index.jsp?vgnextchannel=bfa48ab43d6bb410VgnVCM100000171f5a0aRCRD&vgnextoid=4353598d1351c010VgnVCM1000000b205a0aRCRD,ASTURIAS,AVENIDA,V,61,MADRID,MADRID,28029,4,Almenara,https://wikidata.org/entity/Q2265427,6,Tetuán,https://wikidata.org/entity/Q1773540,440752,4480322,4,05E+15,-3,70E+15,913 156 112,,/contenido/entidadesYorganismos/CentrosAtencionMedica/CentrosSalud
8987,Centro de Salud Lagasca,,,"Metro: Avenida de América (línea 4, 6, 7 y 9), Núñez de Balboa (líneas 5 y 9).  Bus: 61, 19, 51, 9.  Bicimad: Estación 190 (calle Velázquez, 91).",,3,http://www.madrid.es/sites/v/index.jsp?vgnextchannel=bfa48ab43d6bb410VgnVCM100000171f5a0aRCRD&vgnextoid=441b4b6faa61c010VgnVCM1000000b205a0aRCRD,LAGASCA,CALLE,V,122,MADRID,MADRID,28006,6,Castellana,https://wikidata.org/entity/Q4781,4,Salamanca,https://wikidata.org/entity/Q1773521,441964,4476329,4,04E+16,-3,68E+15,915 618 463,,/contenido/entidadesYorganismos/CentrosAtencionMedica/CentrosSalud
8971,Centro de Salud Las Águilas,,,"Bus: 34, 155.  Cercanías Renfe: Maestra Justa Freire - Polideportivo Aluche (antigua estación de Fanjul) (línea C5).","Este Centro de Salud presta atención continuada como centro de continuidad de cuidados de enfermería de lunes a viernes de 21 a 8 horas y los sábados, domingos y festivos 24 horas.",3,http://www.madrid.es/sites/v/index.jsp?vgnextchannel=bfa48ab43d6bb410VgnVCM100000171f5a0aRCRD&vgnextoid=d62b4b6faa61c010VgnVCM1000000b205a0aRCRD,JOSE DE CADALSO,CALLE,V,51,MADRID,MADRID,28044,7,Las Águilas,https://wikidata.org/entity/Q5971372,10,Latina,https://wikidata.org/entity/Q794954,434762,4469976,4,04E+16,-3,77E+15,917 059 100,,/contenido/entidadesYorganismos/CentrosAtencionMedica/CentrosSalud
8976,Centro de Salud Las Calesas,,,"Metro: Usera (línea 6).    Bus: 23, 55, 60.     Bicimad:   Estación 222 (calle Eugenio Caxes, 12).",,3,http://www.madrid.es/sites/v/index.jsp?vgnextchannel=bfa48ab43d6bb410VgnVCM100000171f5a0aRCRD&vgnextoid=693b4b6faa61c010VgnVCM1000000b205a0aRCRD,CALESAS,CALLE,V,12,MADRID,MADRID,28026,5,Moscardó,https://wikidata.org/entity/Q11937679,12,Usera,https://wikidata.org/entity/Q953368,440114,4471277,4,04E+15,-3,71E+16,915 001 247,,/contenido/entidadesYorganismos/CentrosAtencionMedica/CentrosSalud
8968,Centro de Salud Las Cortes,,,"Metro: Sevilla (línea 2), Sol (líneas 1, 2 y 3).  Bus: 002, 51, M1, 53, 15, 20, 150, 5, 46.  Cercanías Renfe: Sol (líneas C3, C4 y Regional).  Bicimad: Estaciones 28 (calle Alcalá, 27), 1a y 1b (Puerta del Sol, 1).  Aparcamientos: Sevilla (41) calle Sevilla y calle Alcalá, Hub de Movilidad Canalejas 360 (1239), calle de Alcalá, 17, Cortes (46), plaza de las Cortes, plaza de Santa Ana (77).",,3,http://www.madrid.es/sites/v/index.jsp?vgnextchannel=bfa48ab43d6bb410VgnVCM100000171f5a0aRCRD&vgnextoid=fb4b4b6faa61c010VgnVCM1000000b205a0aRCRD,SAN JERONIMO,CARRERA,V,32,MADRID,MADRID,28014,3,Cortes,https://wikidata.org/entity/Q2535637,1,Centro,https://wikidata.org/entity/Q1763376,440694,4474219,4,04E+15,-3,70E+14,913 690 491,,/contenido/entidadesYorganismos/CentrosAtencionMedica/CentrosSalud
190840,Centro de Salud Lavapiés,,,"Metro: Lavapiés (línea 3), Embajadores (línea 3).  Bus: M1.  Cercanías Renfe: Embajadores (línea C5).  Bicimad: Estaciones 44 (calle Mesón de Paredes 35), 48 (glorieta de Embajadores, 2), 53 (calle Valencia, 1).  Aparcamientos: Agustín Lara (73) plaza Arturo Barea, Casino de la Reina (19), calle Casino, Garaje Amparo (75), calle Amparo.",,3,http://www.madrid.es/sites/v/index.jsp?vgnextchannel=bfa48ab43d6bb410VgnVCM100000171f5a0aRCRD&vgnextoid=d5092a9d23d60110VgnVCM1000000b205a0aRCRD,EMBAJADORES,CALLE,V,41,MADRID,MADRID,28012,2,Embajadores,https://wikidata.org/entity/Q2449844,1,Centro,https://wikidata.org/entity/Q1763376,440274,4473236,4,04E+16,-3,70E+16,915 272 745,,/contenido/entidadesYorganismos/CentrosAtencionMedica/CentrosSalud
8980,Centro de Salud Legazpi,,,"Metro: Legazpi (líneas 3 y 6).  Bus: 148, 156, 62.  Bicimad: Estaciones 235 (calle Sodio, 1B), 270 (calle Teresa López Varcárcel esquina Teniente Coronel Noreña).",,3,http://www.madrid.es/sites/v/index.jsp?vgnextchannel=bfa48ab43d6bb410VgnVCM100000171f5a0aRCRD&vgnextoid=8e5b4b6faa61c010VgnVCM1000000b205a0aRCRD,ANTRACITA,CALLE,V,2,MADRID,MADRID,28045,4,Legazpi,https://wikidata.org/entity/Q3773990,2,Arganzuela,https://wikidata.org/entity/Q2000929,441297,4471237,4,04E+15,-3,69E+16,915 062 326,,/contenido/entidadesYorganismos/CentrosAtencionMedica/CentrosSalud
9068,Centro de Salud Linneo,,,"Metro: Puerta del Ángel (línea 6).  Bus: 36, 50, 62, 31, 65, 138, 25, 33, 39, 41, C1, C2.  Bicimad: Estación 167 (calle Segovia, 45).",,3,http://www.madrid.es/sites/v/index.jsp?vgnextchannel=bfa48ab43d6bb410VgnVCM100000171f5a0aRCRD&vgnextoid=117b4b6faa61c010VgnVCM1000000b205a0aRCRD,LINNEO,CALLE,V,3,MADRID,MADRID,28005,1,Imperial,https://wikidata.org/entity/Q3773740,2,Arganzuela,https://wikidata.org/entity/Q2000929,438877,4473882,4,04E+16,-3,72E+14,913 654 868,,/contenido/entidadesYorganismos/CentrosAtencionMedica/CentrosSalud
6879417,Centro de Salud Londres,,,"Metro: Ventas (línea 2 y 5).  Bus: 74, 53.  Bicimad: Estación 193 (avenida Toreros, 49).",,3,http://www.madrid.es/sites/v/index.jsp?vgnextchannel=bfa48ab43d6bb410VgnVCM100000171f5a0aRCRD&vgnextoid=65925863bf6ad310VgnVCM2000000c205a0aRCRD,LONDRES,CALLE,V,55,MADRID,MADRID,28028,4,La Guindalera,https://wikidata.org/entity/Q3814559,4,Salamanca,https://wikidata.org/entity/Q1773521,443516,4475905,4,04E+16,-3,67E+15,913 611 674,,/contenido/entidadesYorganismos/CentrosAtencionMedica/CentrosSalud
112335,Centro de Salud Los Alpes,,,"Metro: Las Musas (línea 7).  Bus: 140, E2, 38.",,3,http://www.madrid.es/sites/v/index.jsp?vgnextchannel=bfa48ab43d6bb410VgnVCM100000171f5a0aRCRD&vgnextoid=220415a11a81c010VgnVCM1000000b205a0aRCRD,SUECIA,CALLE,V,62,MADRID,MADRID,28022,5,Rosas,https://wikidata.org/entity/Q18880469,20,San Blas-Canillejas,https://wikidata.org/entity/Q2001937,448684,4475434,4,04E+15,-3,60E+16,917 759 109,,/contenido/entidadesYorganismos/CentrosAtencionMedica/CentrosSalud
21025,Centro de Salud Los Ángeles,,,"Metro: Villaverde Bajo Cruce (línea 3).  Bus: 116, 18, 86, 130, 22.  Cercanías Renfe: Puente Alcocer (línea C5).","Este Centro de Salud presta atención continuada como centro de atención continuada médica de lunes a viernes de 21 a 8 horas y los sábados, domingos y festivos 24 horas.",3,http://www.madrid.es/sites/v/index.jsp?vgnextchannel=bfa48ab43d6bb410VgnVCM100000171f5a0aRCRD&vgnextoid=4111e35bba51c010VgnVCM2000000c205a0aRCRD,TOTANES,CALLE,V,1,MADRID,MADRID,28041,5,Los Ángeles,https://wikidata.org/entity/Q390462,17,Villaverde,https://wikidata.org/entity/Q919536,440682,4466979,4,04E+15,-3,70E+16,917 972 509,,/contenido/entidadesYorganismos/CentrosAtencionMedica/CentrosSalud
51699,Centro de Salud Los Cármenes,,,"Metro: Carpetana (línea 6).  Bus: 17, 25.  Bicimad: Estación 323 (calle Gallur, 5).",,3,http://www.madrid.es/sites/v/index.jsp?vgnextchannel=bfa48ab43d6bb410VgnVCM100000171f5a0aRCRD&vgnextoid=d563598d1351c010VgnVCM1000000b205a0aRCRD,VIA CARPETANA,CALLE,V,202,MADRID,MADRID,28047,1,Los Cármenes,https://wikidata.org/entity/Q10319792,10,Latina,https://wikidata.org/entity/Q794954,437443,4472091,4,04E+16,-3,74E+15,914 663 139,,/contenido/entidadesYorganismos/CentrosAtencionMedica/CentrosSalud
4736570,Centro de Salud Los Rosales,,,"Metro: Villaverde Bajo Cruce (línea 3).  Bus: 123, 130, 85.  Cercanías Renfe: Villaverde Bajo (líneas C3, C4 y C4b).",,3,http://www.madrid.es/sites/v/index.jsp?vgnextchannel=bfa48ab43d6bb410VgnVCM100000171f5a0aRCRD&vgnextoid=8c6ca3c5ef0b7110VgnVCM1000000b205a0aRCRD,DIAMANTE,CALLE,V,12,MADRID,MADRID,28021,4,Los Rosales,https://wikidata.org/entity/Q10319807,17,Villaverde,https://wikidata.org/entity/Q919536,441587,4467180,4,04E+15,-3,69E+16,917 230 327,,/contenido/entidadesYorganismos/CentrosAtencionMedica/CentrosSalud
9057,Centro de Salud Los Yébenes,,,"Bus: 31, 25.",,3,http://www.madrid.es/sites/v/index.jsp?vgnextchannel=bfa48ab43d6bb410VgnVCM100000171f5a0aRCRD&vgnextoid=a38b4b6faa61c010VgnVCM1000000b205a0aRCRD,LOS YEBENES,CALLE,V,46,MADRID,MADRID,28047,4,Aluche,https://wikidata.org/entity/Q31140,10,Latina,https://wikidata.org/entity/Q794954,436049,4471909,4,04E+15,-3,75E+14,917 178 412,,/contenido/entidadesYorganismos/CentrosAtencionMedica/CentrosSalud
4577760,Centro de Salud Lucero,,,"Metro: Lucero (línea 6), Laguna (línea 6).  Bus: 55, 138.  Cercanías Renfe: Laguna (Línea C5).",,3,http://www.madrid.es/sites/v/index.jsp?vgnextchannel=bfa48ab43d6bb410VgnVCM100000171f5a0aRCRD&vgnextoid=0c3f32bbaf892110VgnVCM1000000b205a0aRCRD,LA LATINA,CALLE,V,14,MADRID,MADRID,28047,3,Lucero,https://wikidata.org/entity/Q31162,10,Latina,https://wikidata.org/entity/Q794954,436295,4472562,4,04E+15,-3,75E+16,914 798 513 / 914 798 113,,/contenido/entidadesYorganismos/CentrosAtencionMedica/CentrosSalud
8994,Centro de Salud Maqueda,,,"Metro: Campamento (línea 5).  Bus: 121, 25.",,3,http://www.madrid.es/sites/v/index.jsp?vgnextchannel=bfa48ab43d6bb410VgnVCM100000171f5a0aRCRD&vgnextoid=369b4b6faa61c010VgnVCM1000000b205a0aRCRD,SESEÑA,CALLE,V,44,MADRID,MADRID,28024,4,Aluche,https://wikidata.org/entity/Q31140,10,Latina,https://wikidata.org/entity/Q794954,435004,4472057,4,04E+15,-3,77E+16,917 119 112,,/contenido/entidadesYorganismos/CentrosAtencionMedica/CentrosSalud
9019,Centro de Salud Mar Báltico,,,Metro: San Lorenzo (línea 4).  Bus: 72.,"Este Centro de Salud presta atención continuada como centro de continuidad de cuidados de enfermería de lunes a viernes de 21 a 8 horas y los sábados, domingos y festivos 24 horas.",3,http://www.madrid.es/sites/v/index.jsp?vgnextchannel=bfa48ab43d6bb410VgnVCM100000171f5a0aRCRD&vgnextoid=c8ab4b6faa61c010VgnVCM1000000b205a0aRCRD,MAR BALTICO,CALLE,V,2,MADRID,MADRID,28033,4,Pinar del Rey,https://wikidata.org/entity/Q10349788,16,Hortaleza,https://wikidata.org/entity/Q1928529,445548,4480405,4,05E+16,-3,64E+15,913 817 625,,/contenido/entidadesYorganismos/CentrosAtencionMedica/CentrosSalud
8962,Centro de Salud María Auxiliadora,,,"Metro: Francos Rodríguez (línea 7).  Bus: 44, 64 ,126, 127, 132.",,3,http://www.madrid.es/sites/v/index.jsp?vgnextchannel=bfa48ab43d6bb410VgnVCM100000171f5a0aRCRD&vgnextoid=5bbb4b6faa61c010VgnVCM1000000b205a0aRCRD,MARIA AUXILIADORA,CALLE,V,3,MADRID,MADRID,28040,3,Ciudad Universitaria,https://wikidata.org/entity/Q3319235,9,Moncloa-Aravaca,https://wikidata.org/entity/Q2017682,439472,4478795,4,05E+15,-3,71E+16,914 506 951,,/contenido/entidadesYorganismos/CentrosAtencionMedica/CentrosSalud
8981,Centro de Salud Martín de Vargas,,,"Metro: Embajadores (línea 3), Acacias (línea 5).  Bus: 148, 60, 78, 116, 118.  Cercanías Renfe: Embajadores (línea C5).  Bicimad: Estaciones 47 (glorieta de Embajadores, 6), 48 (glorieta de Embajadores, 2).",,3,http://www.madrid.es/sites/v/index.jsp?vgnextchannel=bfa48ab43d6bb410VgnVCM100000171f5a0aRCRD&vgnextoid=edcb4b6faa61c010VgnVCM1000000b205a0aRCRD,MARTIN DE VARGAS,CALLE,V,15,MADRID,MADRID,28005,2,Las Acacias,https://wikidata.org/entity/Q3319190,2,Arganzuela,https://wikidata.org/entity/Q2000929,440435,4472733,4,04E+15,-3,70E+15,915 171 218,,/contenido/entidadesYorganismos/CentrosAtencionMedica/CentrosSalud
8943,Centro de Salud Martínez de la Riva,,,"Metro: Nueva Numancia (línea 1), Portazgo (línea 1).  Bus: 111, 310, 24.  Bicimad: Estaciones 227 (calle Arroyo del Olivar, 6), 429 (calle de Carlos Martín Álvarez, 38).",,3,http://www.madrid.es/sites/v/index.jsp?vgnextchannel=bfa48ab43d6bb410VgnVCM100000171f5a0aRCRD&vgnextoid=70eb4b6faa61c010VgnVCM1000000b205a0aRCRD,MARTINEZ DE LA RIVA,CALLE,V,57,MADRID,MADRID,28053,2,San Diego,https://wikidata.org/entity/Q11946851,13,Puente de Vallecas,https://wikidata.org/entity/Q2003054,443512,4471471,4,04E+15,-3,67E+14,914 772 561,,/contenido/entidadesYorganismos/CentrosAtencionMedica/CentrosSalud
6566847,Centro de Salud Mental Aguacate - Carabanchel,,Consultar telefónicamente.,"Metro: Carabanchel Alto (línea 11).  Bus: 108, 118, 121, 131, 47.",,3,http://www.madrid.es/sites/v/index.jsp?vgnextchannel=bfa48ab43d6bb410VgnVCM100000171f5a0aRCRD&vgnextoid=96f9862f9e3c9310VgnVCM2000000c205a0aRCRD,AGUACATE,CALLE,V,13,MADRID,MADRID,28044,6,Buenavista,https://wikidata.org/entity/Q953929,11,Carabanchel,https://wikidata.org/entity/Q1001991,436498,4469315,4,04E+15,-3,75E+16,914 655 021,csmcarabanchel@salud.madrid.org,/contenido/entidadesYorganismos/CentrosAtencionMedica/CentrosSaludMental
8904,Centro de Salud Mental Ciudad Lineal,,Consultar telefónicamente.,"Metro: Ciudad Lineal (línea 5).  Bus: 105, 38, 4, 48, 70.",,3,http://www.madrid.es/sites/v/index.jsp?vgnextchannel=bfa48ab43d6bb410VgnVCM100000171f5a0aRCRD&vgnextoid=a6ea224e0d61c010VgnVCM1000000b205a0aRCRD,DOCTOR CIRAJAS,CALLE,V,20,MADRID,MADRID,28017,2,Pueblo Nuevo,https://wikidata.org/entity/Q71753,15,Ciudad Lineal,https://wikidata.org/entity/Q1763694,445965,4476279,4,04E+15,-3,64E+16,914 030 715 / 914 030 811 / 913 261 025,,/contenido/entidadesYorganismos/CentrosAtencionMedica/CentrosSaludMental
8915,Centro de Salud Mental de Arganzuela,,Consultar telefónicamente.,"Metro: Puerta de Toledo (línea 5).  Bus: C2, 17, 41, C1, 148, 3, 18, 23, 35, 60, C03, 002.  Bicimad: Estación 45 (glorieta de la Puerta de Toledo, 1).",,3,http://www.madrid.es/sites/v/index.jsp?vgnextchannel=bfa48ab43d6bb410VgnVCM100000171f5a0aRCRD&vgnextoid=477a224e0d61c010VgnVCM1000000b205a0aRCRD,SEGOVIA,RONDA,V,52,MADRID,MADRID,28005,1,Imperial,https://wikidata.org/entity/Q3773740,2,Arganzuela,https://wikidata.org/entity/Q2000929,439524,4473155,4,04E+16,-3,71E+16,914 182 981,,/contenido/entidadesYorganismos/CentrosAtencionMedica/CentrosSaludMental
8916,Centro de Salud Mental de Barajas,,Consultar telefónicamente.,"Metro: Barajas (línea 8).  Bus: 105, 115, 101.",,3,http://www.madrid.es/sites/v/index.jsp?vgnextchannel=bfa48ab43d6bb410VgnVCM100000171f5a0aRCRD&vgnextoid=d98a224e0d61c010VgnVCM1000000b205a0aRCRD,GENERAL,AVENIDA,V,5,MADRID,MADRID,28042,3,Casco Histórico de Barajas,https://wikidata.org/entity/Q9701730,21,Barajas,https://wikidata.org/entity/Q807230,450997,4480426,4,05E+16,-3,58E+16,913 056 017,,/contenido/entidadesYorganismos/CentrosAtencionMedica/CentrosSaludMental
8900,Centro de Salud Mental de Centro,,Consultar telefónicamente.,"Metro: Tirso de Molina (línea 1).  Bus: 26, 32, 6, M1, 002, 50, 65, SE712.  Bicimad: Estaciones 43 (calle Lavapiés, 34), 44 (calle Mesón de Paredes, 35), 40 (plaza del Conde de Romanones, 9).  Aparcamiento: Garaje Centro (68), calle Relatores, 11",,3,http://www.madrid.es/sites/v/index.jsp?vgnextchannel=bfa48ab43d6bb410VgnVCM100000171f5a0aRCRD&vgnextoid=feaa224e0d61c010VgnVCM1000000b205a0aRCRD,CABEZA,CALLE,V,4,MADRID,MADRID,28012,2,Embajadores,https://wikidata.org/entity/Q2449844,1,Centro,https://wikidata.org/entity/Q1763376,440280,4473689,4,04E+15,-3,70E+15,915 271 418 / 915 271 095,,/contenido/entidadesYorganismos/CentrosAtencionMedica/CentrosSaludMental
8912,Centro de Salud Mental de Chamartín,,Consultar telefónicamente.,"Metro: Cartagena (línea 7), Parque de las Avenidas (línea 7).  Bus: 43, 48.  Bicimad: Estación 241 (avenida de Camilo José Cela, 23).",,3,http://www.madrid.es/sites/v/index.jsp?vgnextchannel=bfa48ab43d6bb410VgnVCM100000171f5a0aRCRD&vgnextoid=81ca224e0d61c010VgnVCM1000000b205a0aRCRD,MARQUES DE AHUMADA,CALLE,V,11,MADRID,MADRID,28028,4,La Guindalera,https://wikidata.org/entity/Q3814559,4,Salamanca,https://wikidata.org/entity/Q1773521,443328,4476442,4,04E+16,-3,67E+15,917 131 991,,/contenido/entidadesYorganismos/CentrosAtencionMedica/CentrosSaludMental
8909,Centro de Salud Mental de Chamberí,,Consultar telefónicamente.,"Metro: Alonso Cano (línea 7), Ríos Rosas (línea 1), Gregorio Marañón (líneas 7 y 10).  Bus: 5, 12, 45.  Bicimad: Estación 129 (calle José Abascal, 33).",,3,http://www.madrid.es/sites/v/index.jsp?vgnextchannel=bfa48ab43d6bb410VgnVCM100000171f5a0aRCRD&vgnextoid=14da224e0d61c010VgnVCM1000000b205a0aRCRD,MODESTO LAFUENTE,CALLE,V,21,MADRID,MADRID,28003,5,Ríos Rosas,https://wikidata.org/entity/Q10366270,7,Chamberí,https://wikidata.org/entity/Q1763370,440951,4476834,4,04E+15,-3,70E+15,913 301 841 / 913 304 142,,/contenido/entidadesYorganismos/CentrosAtencionMedica/CentrosSaludMental
37193,Centro de Salud Mental de Latina - Galiana,,Consultar telefónicamente.,"Metro: Puerta del Ángel (línea 6).  Bus: 31, 33, 36, 39, 65, 138.",,3,http://www.madrid.es/sites/v/index.jsp?vgnextchannel=bfa48ab43d6bb410VgnVCM100000171f5a0aRCRD&vgnextoid=6d77444a2951c010VgnVCM2000000c205a0aRCRD,GALIANA,CALLE,V,1,MADRID,MADRID,28011,2,Barrio de Puerta del Ángel,https://wikidata.org/entity/Q31142,10,Latina,https://wikidata.org/entity/Q794954,437933,4473533,4,04E+16,-3,73E+15,915 261 928 / 915 263 368,,/contenido/entidadesYorganismos/CentrosAtencionMedica/CentrosSaludMental
8911,Centro de Salud Mental de Moncloa,,Consultar telefónicamente.,"Metro: Ventura Rodríguez (línea 3), Arg&amp,uuml,elles (líneas 3, 4 y 6).  Bus: 62, 74, 001, 1, 133, 138, 2, 44, C2, 21, C1, 002, C03.  Bicimad: Estación 114 (calle Quintana, 11).",,3,http://www.madrid.es/sites/v/index.jsp?vgnextchannel=bfa48ab43d6bb410VgnVCM100000171f5a0aRCRD&vgnextoid=5e1b224e0d61c010VgnVCM1000000b205a0aRCRD,QUINTANA,CALLE,V,11,MADRID,MADRID,28008,2,Argüelles,https://wikidata.org/entity/Q64874,9,Moncloa-Aravaca,https://wikidata.org/entity/Q2017682,439158,4475489,4,04E+15,-3,72E+15,915 417 267,,/contenido/entidadesYorganismos/CentrosAtencionMedica/CentrosSaludMental
8910,Centro de Salud Mental de Moratalaz,,Consultar telefónicamente.,"Metro: Pavones (línea 9).  Bus: 20, 30, 32, 71, 8, 142, 140, 144, E.  Bicimad: Estación 221 (calle Hacienda de Pavones, 342).",,3,http://www.madrid.es/sites/v/index.jsp?vgnextchannel=bfa48ab43d6bb410VgnVCM100000171f5a0aRCRD&vgnextoid=e03b224e0d61c010VgnVCM1000000b205a0aRCRD,HACIENDA DE PAVONES,CALLE,V,348,MADRID,MADRID,28030,1,Pavones,https://wikidata.org/entity/Q71760,14,Moratalaz,https://wikidata.org/entity/Q2076109,446215,4472330,4,04E+16,-3,63E+16,913 283 209 / 913 283 081,,/contenido/entidadesYorganismos/CentrosAtencionMedica/CentrosSaludMental
8921,Centro de Salud Mental de Salamanca,,Consultar telefónicamente.,"Metro: O&amp,acute,Donnell (línea 6).  Bus: 28, 203, E2, E3, 143, 156, 2, 30, 56, 71, E4, E5.  Bicimad: Estaciones 62 (calle O'Donell, 50), 101 (calle Jorge Juan, 131).",,3,http://www.madrid.es/sites/v/index.jsp?vgnextchannel=bfa48ab43d6bb410VgnVCM100000171f5a0aRCRD&vgnextoid=986b224e0d61c010VgnVCM1000000b205a0aRCRD,O'DONNELL,CALLE,V,55,MADRID,MADRID,28009,2,Goya,https://wikidata.org/entity/Q3814578,4,Salamanca,https://wikidata.org/entity/Q1773521,443043,4474755,4,04E+15,-3,67E+16,915 042 796 / 915 040 034,,/contenido/entidadesYorganismos/CentrosAtencionMedica/CentrosSaludMental
8919,Centro de Salud Mental de Villaverde,,Consultar telefónicamente.,"Metro: Villaverde Bajo-Cruce (línea 3).  Bus: 116, 18, 86, 130, 22.  Cercanías Renfe: Puente Alcocer (línea C5).",,3,http://www.madrid.es/sites/v/index.jsp?vgnextchannel=bfa48ab43d6bb410VgnVCM100000171f5a0aRCRD&vgnextoid=d2bb224e0d61c010VgnVCM1000000b205a0aRCRD,TOTANES,CALLE,V,1,MADRID,MADRID,28041,5,Los Ángeles,https://wikidata.org/entity/Q390462,17,Villaverde,https://wikidata.org/entity/Q919536,440682,4466979,4,04E+15,-3,70E+16,917 955 546,csmvillaverde@salud.madrid.org,/contenido/entidadesYorganismos/CentrosAtencionMedica/CentrosSaludMental
8901,Centro de Salud Mental Fuencarral,,Consultar telefónicamente.,"Metro: Begoña (línea 10)  Bus: 147, 134, 137, 124, 135, 67.",,3,http://www.madrid.es/sites/v/index.jsp?vgnextchannel=bfa48ab43d6bb410VgnVCM100000171f5a0aRCRD&vgnextoid=39fa224e0d61c010VgnVCM1000000b205a0aRCRD,MELCHOR FERNANDEZ ALMAGRO,CALLE,V,1,MADRID,MADRID,28029,5,La Paz,https://wikidata.org/entity/Q5869740,8,Fuencarral-El Pardo,https://wikidata.org/entity/Q656196,441425,4480931,4,05E+15,-3,69E+15,913 238 180,,/contenido/entidadesYorganismos/CentrosAtencionMedica/CentrosSaludMental
8903,Centro de Salud Mental Hortaleza,,Consultar telefónicamente.,"Metro: San Lorenzo (línea 4), Mar de Cristal (líneas 4 y 8).  Bus: 72, 120, 125, 172, 172SF.",,3,http://www.madrid.es/sites/v/index.jsp?vgnextchannel=bfa48ab43d6bb410VgnVCM100000171f5a0aRCRD&vgnextoid=cb0b224e0d61c010VgnVCM1000000b205a0aRCRD,MAR DE KARA,CALLE,V,,MADRID,MADRID,28033,4,Pinar del Rey,https://wikidata.org/entity/Q10349788,16,Hortaleza,https://wikidata.org/entity/Q1928529,445399,4480385,4,05E+15,-3,64E+16,913 818 266 / 913 818 332,,/contenido/entidadesYorganismos/CentrosAtencionMedica/CentrosSaludMental
7902951,Centro de Salud Mental Infanto Juvenil Carabanchel - Usera,,Consultar telefónicamente.,"Metro: Carabanchel Alto (línea 11).  Bus: 121, 131, 47, 108, 118.",,3,http://www.madrid.es/sites/v/index.jsp?vgnextchannel=bfa48ab43d6bb410VgnVCM100000171f5a0aRCRD&vgnextoid=9d9bb458986bb410VgnVCM1000000b205a0aRCRD,ANTONIA RODRIGUEZ SACRISTAN,CALLE,V,4,MADRID,MADRID,28044,6,Buenavista,https://wikidata.org/entity/Q953929,11,Carabanchel,https://wikidata.org/entity/Q1001991,436517,4469439,4,04E+15,-3,75E+15,915 084 398,usminfantojuvenil.hdoc@salud.madrid.org,/contenido/entidadesYorganismos/CentrosAtencionMedica/CentrosSaludMental
5562342,Centro de Salud Mental Latina - Las Águilas,,Consultar telefónicamente.,"Cercanías Renfe: Maestra Justa Freire - Polideportivo Aluche (antigua estación de Fanjul) (línea C5).  Bus: 138, 17, 34.",,3,http://www.madrid.es/sites/v/index.jsp?vgnextchannel=bfa48ab43d6bb410VgnVCM100000171f5a0aRCRD&vgnextoid=dff7891b0ed86210VgnVCM2000000c205a0aRCRD,JOSE DE CADALSO,CALLE,V,,MADRID,MADRID,28044,7,Las Águilas,https://wikidata.org/entity/Q5971372,10,Latina,https://wikidata.org/entity/Q794954,434762,4469976,4,04E+15,-3,77E+16,917 060 061 / 917 062 587,,/contenido/entidadesYorganismos/CentrosAtencionMedica/CentrosSaludMental
8918,Centro de Salud Mental Retiro,,Consultar telefónicamente.,"Metro: Ibiza (línea 9)  Bus: 152, 20, 15, 2, 215, 26, 61, 63, C1, C2.  Bicimad: Estación 61 (calle O'Donell, 28).",,3,http://www.madrid.es/sites/v/index.jsp?vgnextchannel=bfa48ab43d6bb410VgnVCM100000171f5a0aRCRD&vgnextoid=065b224e0d61c010VgnVCM1000000b205a0aRCRD,LOPE DE RUEDA,CALLE,V,43,MADRID,MADRID,28009,4,Ibiza,https://wikidata.org/entity/Q15249910,3,Retiro,https://wikidata.org/entity/Q2002296,442516,4474556,4,04E+15,-3,68E+16,914 008 690 / 914 008 695,,/contenido/entidadesYorganismos/CentrosAtencionMedica/CentrosSaludMental
8905,Centro de Salud Mental San Blas,,Consultar telefónicamente.,"Metro: Simancas (línea 7).  Bus: 109, 28.",,3,http://www.madrid.es/sites/v/index.jsp?vgnextchannel=bfa48ab43d6bb410VgnVCM100000171f5a0aRCRD&vgnextoid=2b7b224e0d61c010VgnVCM1000000b205a0aRCRD,CASTILLO DE UCLES,CALLE,V,35,MADRID,MADRID,28037,1,Simancas,https://wikidata.org/entity/Q10371626,20,San Blas-Canillejas,https://wikidata.org/entity/Q2001937,447140,4475806,4,04E+15,-3,62E+15,913 135 540 / 913 135 541,,/contenido/entidadesYorganismos/CentrosAtencionMedica/CentrosSaludMental
8907,Centro de Salud Mental Tetuán,,Consultal telefónicamente.,"Metro: Cuatro Caminos (líneas 1, 2 y 6), Nuevos Ministerios (línea 6, 8 y 10).  Cercanías Renfe: Nuevos Ministerios (líneas C1, C2, C4, C7, C10 y Regional).  Bus: 149, C1.  Bicimad: Estación 133 (calle Raimundo Fernández Villaverde, 33).",,3,http://www.madrid.es/sites/v/index.jsp?vgnextchannel=bfa48ab43d6bb410VgnVCM100000171f5a0aRCRD&vgnextoid=bd8b224e0d61c010VgnVCM1000000b205a0aRCRD,MAUDES,CALLE,V,32,MADRID,MADRID,28003,5,Ríos Rosas,https://wikidata.org/entity/Q10366270,7,Chamberí,https://wikidata.org/entity/Q1763370,440674,4477400,4,04E+16,-3,70E+16,915 347 363 / 915 349 920,,/contenido/entidadesYorganismos/CentrosAtencionMedica/CentrosSaludMental
8914,Centro de Salud Mental Usera,,Consultar telefónicamente.,"Metro: Almendrales (línea 3).  Bus: 78, 6.",,3,http://www.madrid.es/sites/v/index.jsp?vgnextchannel=bfa48ab43d6bb410VgnVCM100000171f5a0aRCRD&vgnextoid=40ab224e0d61c010VgnVCM1000000b205a0aRCRD,VISITACION,CALLE,V,5,MADRID,MADRID,28026,4,Almendrales,https://wikidata.org/entity/Q9604761,12,Usera,https://wikidata.org/entity/Q953368,440437,4470393,4,04E+15,-3,70E+15,915 001 015,csmusera@salud.madrid.org,/contenido/entidadesYorganismos/CentrosAtencionMedica/CentrosSaludMental
6566703,Centro de Salud Mental Vicálvaro,,Consultar telefónicamente.,"Metro: Vicálvaro (línea 9).  Bus: 100, 106, 4, 130, E3, E5.",,3,http://www.madrid.es/sites/v/index.jsp?vgnextchannel=bfa48ab43d6bb410VgnVCM100000171f5a0aRCRD&vgnextoid=58629a368c3c9310VgnVCM2000000c205a0aRCRD,CALAHORRA,CALLE,V,11,MADRID,MADRID,28032,1,Casco Histórico de Vicálvaro,https://wikidata.org/entity/Q16544374,19,Vicálvaro,https://wikidata.org/entity/Q589403,448008,4473095,4,04E+16,-3,61E+16,917 753 260 / 917 753 262,,/contenido/entidadesYorganismos/CentrosAtencionMedica/CentrosSaludMental
5562302,Centro de Salud Mental Villa de Vallecas,,Consultar telefónicamente.,"Metro: Miguel Hernández (línea 1).  Bus: 144, 54, 103, 142, 143, 58.",,3,http://www.madrid.es/sites/v/index.jsp?vgnextchannel=bfa48ab43d6bb410VgnVCM100000171f5a0aRCRD&vgnextoid=5fa0891b0ed86210VgnVCM2000000c205a0aRCRD,SAN CLAUDIO,CALLE,V,154,MADRID,MADRID,28038,4,Palomeras Sureste,https://wikidata.org/entity/Q10343901,13,Puente de Vallecas,https://wikidata.org/entity/Q2003054,445757,4471100,4,04E+15,-3,64E+15,913 909 953 / 913 909 877,,/contenido/entidadesYorganismos/CentrosAtencionMedica/CentrosSaludMental
176345,Centro de Salud Mirasierra,,,"Metro: Mirasierra (línea 9).  Bus: 49, 64.",,3,http://www.madrid.es/sites/v/index.jsp?vgnextchannel=bfa48ab43d6bb410VgnVCM100000171f5a0aRCRD&vgnextoid=03fb4b6faa61c010VgnVCM1000000b205a0aRCRD,MIRADOR DE LA REINA,CALLE,V,117,MADRID,MADRID,28035,7,Mirasierra,https://wikidata.org/entity/Q31134,8,Fuencarral-El Pardo,https://wikidata.org/entity/Q656196,439100,4482469,4,05E+14,-3,72E+15,913 767 451,,/contenido/entidadesYorganismos/CentrosAtencionMedica/CentrosSalud
8955,Centro de Salud Monóvar,,,"Metro: Hortaleza (línea 4).  Bus: 129, 29, 7, 172.",,3,http://www.madrid.es/sites/v/index.jsp?vgnextchannel=bfa48ab43d6bb410VgnVCM100000171f5a0aRCRD&vgnextoid=950c4b6faa61c010VgnVCM1000000b205a0aRCRD,MONOVAR,CALLE,V,11,MADRID,MADRID,28033,5,Apóstol Santiago,https://wikidata.org/entity/Q11906303,16,Hortaleza,https://wikidata.org/entity/Q1928529,444332,4480963,4,05E+14,-3,66E+14,913 839 535,,/contenido/entidadesYorganismos/CentrosAtencionMedica/CentrosSalud
10759241,Centro de Salud Montesa,,,"Metro: Manuel Becerra (líneas 2 y 6), Lista (línea 4), Diego de León (líneas 4, 5 y 6).  Bus: 12, 210, 43, 48, 56, C1, 1, 74.  Bicimad: Estaciones 145 (calle Ortega y Gasset, 87) y 192 (avenida de los Toreros, 3).",,3,http://www.madrid.es/sites/v/index.jsp?vgnextchannel=bfa48ab43d6bb410VgnVCM100000171f5a0aRCRD&vgnextoid=bc3c855a64315610VgnVCM2000001f4a900aRCRD,MONTESA,CALLE,V,38,MADRID,MADRID,28006,5,Lista,https://wikidata.org/entity/Q4779,4,Salamanca,https://wikidata.org/entity/Q1773521,442999,4475775,4,04E+15,-3,67E+15,913 090 864,,/contenido/entidadesYorganismos/CentrosAtencionMedica/CentrosSalud
9025,Centro de Salud Nuestra Señora de Fátima,,,"Metro: Eugenia de Montijo (línea 5).  Bus: 35, 34.",,3,http://www.madrid.es/sites/v/index.jsp?vgnextchannel=bfa48ab43d6bb410VgnVCM100000171f5a0aRCRD&vgnextoid=ba2c4b6faa61c010VgnVCM1000000b205a0aRCRD,NUESTRA SEÑORA DE FATIMA,AVENIDA,V,93,MADRID,MADRID,28047,4,Vista Alegre,https://wikidata.org/entity/Q3813741,11,Carabanchel,https://wikidata.org/entity/Q1001991,436437,4470112,4,04E+15,-3,75E+14,915 255 643,,/contenido/entidadesYorganismos/CentrosAtencionMedica/CentrosSalud
8947,Centro de Salud Numancia,,,"Bus: 141.  Bicimad: Estación 225 (calle Sierra Toledana, 33).",,3,http://www.madrid.es/sites/v/index.jsp?vgnextchannel=bfa48ab43d6bb410VgnVCM100000171f5a0aRCRD&vgnextoid=4d3c4b6faa61c010VgnVCM1000000b205a0aRCRD,PUERTO DE COTOS,CALLE,V,2,MADRID,MADRID,28038,6,Numancia,https://wikidata.org/entity/Q10338144,13,Puente de Vallecas,https://wikidata.org/entity/Q2003054,444153,4472586,4,04E+16,-3,66E+16,913 287 410,,/contenido/entidadesYorganismos/CentrosAtencionMedica/CentrosSalud
17954,Centro de Salud Orcasitas,,,"Bus: 116, 121, 131, 6, 60, 78, 81.  Bicimad: Estación 386 (avenida de los Poblados, 130).","Este Centro de Salud presta atención continuada como centro de continuidad de cuidados de enfermería sábados, domingos y festivos de 9 a 21 horas.",3,http://www.madrid.es/sites/v/index.jsp?vgnextchannel=bfa48ab43d6bb410VgnVCM100000171f5a0aRCRD&vgnextoid=d321e35bba51c010VgnVCM2000000c205a0aRCRD,CESTONA,CALLE,V,3,MADRID,MADRID,28041,1,Orcasitas,https://wikidata.org/entity/Q3773941,12,Usera,https://wikidata.org/entity/Q953368,439381,4469367,4,04E+16,-3,71E+15,913 412 009,,/contenido/entidadesYorganismos/CentrosAtencionMedica/CentrosSalud
10759192,Centro de Salud Orcasur,,,"Bus: 116, 76.   Cercanías Renfe: Orcasitas (línea C5).  Bicimad: Estación 397 (calle de Moreja, 30).",,3,http://www.madrid.es/sites/v/index.jsp?vgnextchannel=bfa48ab43d6bb410VgnVCM100000171f5a0aRCRD&vgnextoid=b665dfe18de05610VgnVCM1000001d4a900aRCRD,ARENAS DEL REY,CALLE,V,1,MADRID,MADRID,28041,2,Orcasur,https://wikidata.org/entity/Q10341270,12,Usera,https://wikidata.org/entity/Q953368,440513,4468541,4,04E+15,-3,70E+12,913 171 103,,/contenido/entidadesYorganismos/CentrosAtencionMedica/CentrosSalud
9000,Centro de Salud Pacífico,,,"Metro: Conde de Casal (línea 6), Menéndez Pelayo (línea 1).  Bus: 14, 32, 152, 26, 63, C2, 10, C1.  Bicimad: Estaciones 75 (avenida Menéndez Pelayo con calle Poeta Esteban Villegas), 76 (avenida del Mediterráneo, 19).  Aparcamiento: Reyes Magos (35) plaza Reyes Magos.",,3,http://www.madrid.es/sites/v/index.jsp?vgnextchannel=bfa48ab43d6bb410VgnVCM100000171f5a0aRCRD&vgnextoid=f47c4b6faa61c010VgnVCM1000000b205a0aRCRD,REYES MAGOS,CALLE,V,21,MADRID,MADRID,28007,6,Niño Jesús,https://wikidata.org/entity/Q3773746,3,Retiro,https://wikidata.org/entity/Q2002296,442553,4473260,4,04E+14,-3,68E+16,915 017 065,,/contenido/entidadesYorganismos/CentrosAtencionMedica/CentrosSalud
9058,Centro de Salud Palma Norte,,,"Metro: Noviciado (línea 2), San Bernardo (líneas 2 y 4).  Bus: 147, 3, 002.  Bicimad: Estación 15 (calle Norte, 8).",,3,http://www.madrid.es/sites/v/index.jsp?vgnextchannel=bfa48ab43d6bb410VgnVCM100000171f5a0aRCRD&vgnextoid=26254b6faa61c010VgnVCM1000000b205a0aRCRD,PALMA,CALLE,V,59,MADRID,MADRID,28015,5,Universidad,https://wikidata.org/entity/Q10387767,1,Centro,https://wikidata.org/entity/Q1763376,439995,4475350,4,04E+15,-3,71E+16,915 214 578,,/contenido/entidadesYorganismos/CentrosAtencionMedica/CentrosSalud
8997,Centro de Salud Párroco Julio Morate,,,"Metro: Delicias (línea 3).  Bus: 148, 6, 78, 59, 85, 19, 247, 45, 47, 8, 86.  Cercanías Renfe: Delicias (líneas C1 y C10).  Bicimad: Estación 175 (Jaime el Conquistador, 30).",,3,http://www.madrid.es/sites/v/index.jsp?vgnextchannel=bfa48ab43d6bb410VgnVCM100000171f5a0aRCRD&vgnextoid=878c4b6faa61c010VgnVCM1000000b205a0aRCRD,PARROCO JULIO MORATE,CALLE,V,3,MADRID,MADRID,28045,3,La Chopera,https://wikidata.org/entity/Q3773750,2,Arganzuela,https://wikidata.org/entity/Q2000929,440687,4472079,4,04E+16,-3,70E+16,914 736 822,,/contenido/entidadesYorganismos/CentrosAtencionMedica/CentrosSalud
8972,Centro de Salud Pascual Rodríguez,,,"Metro: Lucero (línea 6).  Bus: 138, 31.  Bicimad: Estación 324 (calle de las Higueras, 49).",La libre elección de este centro se realiza en el Centro de Salud Lucero.,3,http://www.madrid.es/sites/v/index.jsp?vgnextchannel=bfa48ab43d6bb410VgnVCM100000171f5a0aRCRD&vgnextoid=1a9c4b6faa61c010VgnVCM1000000b205a0aRCRD,PASCUAL RODRIGUEZ,CALLE,V,21,MADRID,MADRID,28011,3,Lucero,https://wikidata.org/entity/Q31162,10,Latina,https://wikidata.org/entity/Q794954,436928,4473075,4,04E+15,-3,74E+15,914 646 445,,/contenido/entidadesYorganismos/CentrosAtencionMedica/CentrosSalud
10759171,Centro de Salud Paseo Imperial,,,"Metro: Pirámides (línea 5).  Bus: 23, 35, 18, 36, 62, 116, 118, 119, 34.  Cercanías Renfe: Pirámides (líneas C1 y C10).  Bicimad: Estación 169 (calle Toledo, 181).","Este Centro de Salud presta atención continuada como centro de atención continuada médica de lunes a viernes de 21 a 8 horas y los sábados, domingos y festivos 24 horas.",3,http://www.madrid.es/sites/v/index.jsp?vgnextchannel=bfa48ab43d6bb410VgnVCM100000171f5a0aRCRD&vgnextoid=8762dfe18de05610VgnVCM1000001d4a900aRCRD,TOLEDO,CALLE,V,180,MADRID,MADRID,28005,1,Imperial,https://wikidata.org/entity/Q3773740,2,Arganzuela,https://wikidata.org/entity/Q2000929,439381,4472578,4,04E+14,-3,71E+16,913 640 762,,/contenido/entidadesYorganismos/CentrosAtencionMedica/CentrosSalud
8946,Centro de Salud Pavones,,,"Metro: Pavones (línea 9).  Bus: 71, 8, E4, 30.  Bicimad: Estación 455 (calle Luis de Hoyos Sainz, 198).","Este Centro de Salud presta atención continuada como centro de continuidad de cuidados de enfermería de lunes a viernes de 21 a 8 horas y los sábados, domingos y festivos 24 horas.",3,http://www.madrid.es/sites/v/index.jsp?vgnextchannel=bfa48ab43d6bb410VgnVCM100000171f5a0aRCRD&vgnextoid=3fbc4b6faa61c010VgnVCM1000000b205a0aRCRD,HACIENDA DE PAVONES,CALLE,V,271,MADRID,MADRID,28030,1,Pavones,https://wikidata.org/entity/Q71760,14,Moratalaz,https://wikidata.org/entity/Q2076109,446612,4472260,4,04E+15,-3,63E+15,913 016 261,,/contenido/entidadesYorganismos/CentrosAtencionMedica/CentrosSalud
8948,Centro de Salud Peña Prieta,,,"Metro: Puente de Vallecas (línea 1).  Bus: 113, 141, 8, 111, 58, 37, 56, 148, 10, 24, 310, 136, 54, 57.  Bicimad: Estación 179 (avenida de la Albufera, 6).",,3,http://www.madrid.es/sites/v/index.jsp?vgnextchannel=bfa48ab43d6bb410VgnVCM100000171f5a0aRCRD&vgnextoid=c1dc4b6faa61c010VgnVCM1000000b205a0aRCRD,ALTOS DE CABREJAS,CALLE,V,4,MADRID,MADRID,28038,6,Numancia,https://wikidata.org/entity/Q10338144,13,Puente de Vallecas,https://wikidata.org/entity/Q2003054,443318,4472205,4,04E+15,-3,67E+15,915 014 040,,/contenido/entidadesYorganismos/CentrosAtencionMedica/CentrosEspecialidadesMedicas
8983,Centro de Salud Potes,,,Bus: 76.  Cercanías Renfe: Puente Alcocer (línea C5).,,3,http://www.madrid.es/sites/v/index.jsp?vgnextchannel=bfa48ab43d6bb410VgnVCM100000171f5a0aRCRD&vgnextoid=e6fc4b6faa61c010VgnVCM1000000b205a0aRCRD,POTES,CALLE,V,2,MADRID,MADRID,28021,1,Villaverde Alto - Casco Histórico de Villaverde,https://wikidata.org/entity/Q390435,17,Villaverde,https://wikidata.org/entity/Q919536,439735,4466933,4,04E+15,-3,71E+16,917 954 561,,/contenido/entidadesYorganismos/CentrosAtencionMedica/CentrosSalud
64009,Centro de Salud Potosí,,,"Metro: Colombia (líneas 8 y 9).  Bus: 14, 11, 40, 16, 29, 51, 7.  Bicimad: Estación 160 (calle Colombia, 7).  Aparcamiento: República Dominicana (61) plaza República Dominicana calle Costa Rica y calle Alberto Alcocer.",,3,http://www.madrid.es/sites/v/index.jsp?vgnextchannel=bfa48ab43d6bb410VgnVCM100000171f5a0aRCRD&vgnextoid=6873598d1351c010VgnVCM1000000b205a0aRCRD,POTOSI,CALLE,V,7,MADRID,MADRID,28016,4,Hispanoamérica,https://wikidata.org/entity/Q3814573,5,Chamartín,https://wikidata.org/entity/Q1766348,442401,4478719,4,05E+15,-3,68E+15,914 570 976,,/contenido/entidadesYorganismos/CentrosAtencionMedica/CentrosSalud
9035,Centro de Salud Príncipe de Vergara,,,"Metro : Avenida de América (líneas 4, 6, 7 y 9).  Bus: 29, 52, C2, 73, C1, 9.  Bicimad: Estación 194 (Francisco Silvela, 86).  Aparcamiento: América (16) avenida de América (intercambiador).",,3,http://www.madrid.es/sites/v/index.jsp?vgnextchannel=bfa48ab43d6bb410VgnVCM100000171f5a0aRCRD&vgnextoid=790d4b6faa61c010VgnVCM1000000b205a0aRCRD,PRINCIPE DE VERGARA,CALLE,V,111,MADRID,MADRID,28002,1,El Viso,https://wikidata.org/entity/Q4778,5,Chamartín,https://wikidata.org/entity/Q1766348,442402,4476815,4,04E+15,-3,68E+16,915 644 116,,/contenido/entidadesYorganismos/CentrosAtencionMedica/CentrosSalud
9008,Centro de Salud Prosperidad,,,"Metro: Prosperidad (línea 4), Cartagena (línea 7).  Bus: 72, 43.  Bicimad: Estación 251 (calle Santa Hortensia, 31).",,3,http://www.madrid.es/sites/v/index.jsp?vgnextchannel=bfa48ab43d6bb410VgnVCM100000171f5a0aRCRD&vgnextoid=0c1d4b6faa61c010VgnVCM1000000b205a0aRCRD,CANILLAS,CALLE,V,99,MADRID,MADRID,28002,2,Prosperidad,https://wikidata.org/entity/Q4776,5,Chamartín,https://wikidata.org/entity/Q1766348,443218,4477257,4,04E+15,-3,67E+15,914 134 313,,/contenido/entidadesYorganismos/CentrosAtencionMedica/CentrosSalud
35956,Centro de Salud Puerta Bonita,,,"Metro: Oporto (líneas 5 y 6), Abrantes (línea 11).   Bus: 247.",,3,http://www.madrid.es/sites/v/index.jsp?vgnextchannel=bfa48ab43d6bb410VgnVCM100000171f5a0aRCRD&vgnextoid=7126b3e42751c010VgnVCM2000000c205a0aRCRD,ALEGRIA,CALLE,V,24,MADRID,MADRID,28025,5,Puerta Bonita,https://wikidata.org/entity/Q3813762,11,Carabanchel,https://wikidata.org/entity/Q1001991,437794,4470663,4,04E+15,-3,73E+15,914 611 195,,/contenido/entidadesYorganismos/CentrosAtencionMedica/CentrosSalud
174059,Centro de Salud Puerta del Ángel,,,"Metro: Alto de Extremadura (línea 6).  Bus: 31, 33, 36, 39, 65.",,3,http://www.madrid.es/sites/v/index.jsp?vgnextchannel=bfa48ab43d6bb410VgnVCM100000171f5a0aRCRD&vgnextoid=bfcd14c4d661c010VgnVCM1000000b205a0aRCRD,EXTREMADURA,PASEO,V,113,MADRID,MADRID,28011,2,Barrio de Puerta del Ángel,https://wikidata.org/entity/Q31142,10,Latina,https://wikidata.org/entity/Q794954,437617,4473636,4,04E+15,-3,74E+16,914 797 414,,/contenido/entidadesYorganismos/CentrosAtencionMedica/CentrosSalud
9070,Centro de Salud Quince de Mayo,,,"Metro: Marqués de Vadillo (línea 5).  Bus: 118, 119, 34, 35, 50.  Bicimad: Estaciones 212 (glorieta Marqués de Vadillo, 9), 354 (calle Jacinto Verdaguer, 12).",,3,http://www.madrid.es/sites/v/index.jsp?vgnextchannel=bfa48ab43d6bb410VgnVCM100000171f5a0aRCRD&vgnextoid=9e2d4b6faa61c010VgnVCM1000000b205a0aRCRD,QUINCE DE MAYO,PASEO,V,10,MADRID,MADRID,28019,3,San Isidro,https://wikidata.org/entity/Q3813733,11,Carabanchel,https://wikidata.org/entity/Q1001991,439073,4472153,4,04E+16,-3,72E+16,914 696 161,,/contenido/entidadesYorganismos/CentrosAtencionMedica/CentrosSalud
8949,Centro de Salud Rafael Alberti,,,"Metro: Miguel Hernández (línea 1).  Bus: 144, 54, 103, 142, 143, 58.  Bicimad: Estación 435 (calle San Claudio, 154).",,3,http://www.madrid.es/sites/v/index.jsp?vgnextchannel=bfa48ab43d6bb410VgnVCM100000171f5a0aRCRD&vgnextoid=214d4b6faa61c010VgnVCM1000000b205a0aRCRD,SAN CLAUDIO,CALLE,V,154,MADRID,MADRID,28038,4,Palomeras Sureste,https://wikidata.org/entity/Q10343901,13,Puente de Vallecas,https://wikidata.org/entity/Q2003054,445757,4471100,4,04E+15,-3,64E+15,913 909 900,,/contenido/entidadesYorganismos/CentrosAtencionMedica/CentrosSalud
8989,Centro de Salud Reina Victoria,,,"Metro: Cuatro Caminos (líneas 1, 2 y 6), Guzmán el Bueno (lineas 6 y 7)  Bus: 127, 45, C2, F, C1, 44.  Bicimad: Estaciones 132 (calle Santa Engracia, 168) y 204 (calle Doctor Santero, 1).",,3,http://www.madrid.es/sites/v/index.jsp?vgnextchannel=bfa48ab43d6bb410VgnVCM100000171f5a0aRCRD&vgnextoid=b35d4b6faa61c010VgnVCM1000000b205a0aRCRD,REINA VICTORIA,AVENIDA,V,21,MADRID,MADRID,28003,6,Vallehermoso,https://wikidata.org/entity/Q6122685,7,Chamberí,https://wikidata.org/entity/Q1763370,439993,4477597,4,04E+16,-3,71E+15,915 349 906,,/contenido/entidadesYorganismos/CentrosAtencionMedica/CentrosSalud
8954,Centro de Salud Rejas,,,Bus: 77.,,3,http://www.madrid.es/sites/v/index.jsp?vgnextchannel=bfa48ab43d6bb410VgnVCM100000171f5a0aRCRD&vgnextoid=59694b6faa61c010VgnVCM1000000b205a0aRCRD,EUTERPE,CALLE,V,12,MADRID,MADRID,28022,6,Rejas,https://wikidata.org/entity/Q10359029,20,San Blas-Canillejas,https://wikidata.org/entity/Q2001937,449738,4477098,4,04E+15,-3,59E+15,913 202 284,,/contenido/entidadesYorganismos/CentrosAtencionMedica/CentrosSalud
33524,Centro de Salud San Andrés,,,"Metro: Villaverde Alto (línea 3).  Bus: 79, 22, T41.  Cercanías Renfe: Villaverde Alto (líneas C4, C4b y C5).",,3,http://www.madrid.es/sites/v/index.jsp?vgnextchannel=bfa48ab43d6bb410VgnVCM100000171f5a0aRCRD&vgnextoid=0436b3e42751c010VgnVCM2000000c205a0aRCRD,ALBERTO PALACIOS,CALLE,V,22,MADRID,MADRID,28021,1,Villaverde Alto - Casco Histórico de Villaverde,https://wikidata.org/entity/Q390435,17,Villaverde,https://wikidata.org/entity/Q919536,439487,4466027,4,03E+15,-3,71E+16,917 972 884,,/contenido/entidadesYorganismos/CentrosAtencionMedica/CentrosSalud
9002,Centro de Salud San Cristóbal,,,"Bus: 79, 59.    Cercanías Renfe: San Cristóbal de Los Ángeles (línea C3).",,3,http://www.madrid.es/sites/v/index.jsp?vgnextchannel=bfa48ab43d6bb410VgnVCM100000171f5a0aRCRD&vgnextoid=466d4b6faa61c010VgnVCM1000000b205a0aRCRD,BENIMAMET,CALLE,V,24,MADRID,MADRID,28021,2,San Cristóbal,https://wikidata.org/entity/Q390457,17,Villaverde,https://wikidata.org/entity/Q919536,441811,4466065,4,03E+15,-3,69E+16,917 955 313,,/contenido/entidadesYorganismos/CentrosAtencionMedica/CentrosSalud
9075,Centro de Salud San Fermín,,,"Metro: San Fermín-Orcasur (línea 3).  Bus: 123, 23, 78, 18, 22, 59, 79, 85, 86.  Bicimad: Estación 383 (avenida de la Perla, 35).",,3,http://www.madrid.es/sites/v/index.jsp?vgnextchannel=bfa48ab43d6bb410VgnVCM100000171f5a0aRCRD&vgnextoid=d87d4b6faa61c010VgnVCM1000000b205a0aRCRD,SAN FERMIN,AVENIDA,V,3,MADRID,MADRID,28041,3,San Fermín (Madrid),https://wikidata.org/entity/Q71758,12,Usera,https://wikidata.org/entity/Q953368,441179,4469206,4,04E+15,-3,69E+16,917 923 312,,/contenido/entidadesYorganismos/CentrosAtencionMedica/CentrosSalud
4551680,Centro de Salud Sanchinarro,,,"Metro: María Tudor (línea ML1).  Bus: 173, BR1, 172, 172SE.",,3,http://www.madrid.es/sites/v/index.jsp?vgnextchannel=bfa48ab43d6bb410VgnVCM100000171f5a0aRCRD&vgnextoid=5b7c76a68a6b1110VgnVCM1000000b205a0aRCRD,ANA DE AUSTRIA,CALLE,V,26,MADRID,MADRID,28050,6,Valdefuentes,https://wikidata.org/entity/Q10388714,16,Hortaleza,https://wikidata.org/entity/Q1928529,444268,4482769,4,05E+15,-3,66E+14,917 188 346,,/contenido/entidadesYorganismos/CentrosAtencionMedica/CentrosSalud
8952,Centro de Salud Santa Hortensia,,,"Metro: Prosperidad (línea 4), Alfonso XIII (línea 4).  Bus: 72, 73, 9.  Bicimad: Estación 251 (calle Santa Hortensia, 31).",,3,http://www.madrid.es/sites/v/index.jsp?vgnextchannel=bfa48ab43d6bb410VgnVCM100000171f5a0aRCRD&vgnextoid=6b8d4b6faa61c010VgnVCM1000000b205a0aRCRD,SANTA HORTENSIA,CALLE,V,14,MADRID,MADRID,28002,2,Prosperidad,https://wikidata.org/entity/Q4776,5,Chamartín,https://wikidata.org/entity/Q1766348,443192,4477384,4,04E+15,-3,67E+16,915 194 566,,/contenido/entidadesYorganismos/CentrosAtencionMedica/CentrosSalud
8995,Centro de Salud Segovia,,,"Metro: La Latina (línea 5), Tirso de Molina (línea 1).  Bus: 31, 50, 65.  Bicimad: Estación 35 (plaza del Cordón).",,3,http://www.madrid.es/sites/v/index.jsp?vgnextchannel=bfa48ab43d6bb410VgnVCM100000171f5a0aRCRD&vgnextoid=fd9d4b6faa61c010VgnVCM1000000b205a0aRCRD,SEGOVIA,CALLE,V,4,MADRID,MADRID,28005,1,Palacio,https://wikidata.org/entity/Q2136510,1,Centro,https://wikidata.org/entity/Q1763376,439772,4473915,4,04E+15,-3,71E+16,915 482 224,,/contenido/entidadesYorganismos/CentrosAtencionMedica/CentrosSalud
9036,Centro de Salud Segre,,,"Metro: Santiago Bernabéu (línea 10), Concha Espina (línea 9)  Bus: 120, 43, 14.  Bicimad: Estaciones 149 (Paseo de la Habana, 42) y 159 (paseo de la Habana, 63).",,3,http://www.madrid.es/sites/v/index.jsp?vgnextchannel=bfa48ab43d6bb410VgnVCM100000171f5a0aRCRD&vgnextoid=80bd4b6faa61c010VgnVCM1000000b205a0aRCRD,SEGRE,CALLE,V,27,MADRID,MADRID,28002,1,El Viso,https://wikidata.org/entity/Q4778,5,Chamartín,https://wikidata.org/entity/Q1766348,441885,4478070,4,05E+15,-3,69E+15,915 644 254,,/contenido/entidadesYorganismos/CentrosAtencionMedica/CentrosSalud
4570184,Centro de Salud Silvano,,,"Metro: Canillas (línea 4).  Bus: 120, 112, 153, 122, 73.",,3,http://www.madrid.es/sites/v/index.jsp?vgnextchannel=bfa48ab43d6bb410VgnVCM100000171f5a0aRCRD&vgnextoid=eecc439639562110VgnVCM1000000b205a0aRCRD,MACHUPICHU,AVENIDA,V,58,MADRID,MADRID,28043,3,Canillas,https://wikidata.org/entity/Q9694341,16,Hortaleza,https://wikidata.org/entity/Q1928529,446150,4479388,4,05E+16,-3,64E+14,913 815 100,,/contenido/entidadesYorganismos/CentrosAtencionMedica/CentrosSalud
9018,Centro de Salud Torito,,,"Metro: Artilleros (línea 9).  Bus: 71, 32.",,3,http://www.madrid.es/sites/v/index.jsp?vgnextchannel=bfa48ab43d6bb410VgnVCM100000171f5a0aRCRD&vgnextoid=a5dd4b6faa61c010VgnVCM1000000b205a0aRCRD,CAMINO DE LOS VINATEROS,CALLE,V,140,MADRID,MADRID,28030,6,Vinateros,https://wikidata.org/entity/Q10391533,14,Moratalaz,https://wikidata.org/entity/Q2076109,445217,4473042,4,04E+15,-3,65E+16,913 280 000,,/contenido/entidadesYorganismos/CentrosAtencionMedica/CentrosSalud
110788,Centro de Salud Valdebernardo,,,"Metro: Valdebernardo (línea 9).  Bus: 130, 71, 8.",,3,http://www.madrid.es/sites/v/index.jsp?vgnextchannel=bfa48ab43d6bb410VgnVCM100000171f5a0aRCRD&vgnextoid=b41415a11a81c010VgnVCM1000000b205a0aRCRD,INDALECIO PRIETO,BULEVAR,V,26,MADRID,MADRID,28032,2,Valdebernardo,https://wikidata.org/entity/Q43025212,19,Vicálvaro,https://wikidata.org/entity/Q589403,447223,4472333,4,04E+16,-3,62E+16,913 016 290,,/contenido/entidadesYorganismos/CentrosAtencionMedica/CentrosSalud
9023,Centro de Salud Valdezarza-Sur,,,"Metro: Valdezarza (línea 7).  Bus: 126, 127, 132, 128.",,3,http://www.madrid.es/sites/v/index.jsp?vgnextchannel=bfa48ab43d6bb410VgnVCM100000171f5a0aRCRD&vgnextoid=cafd4b6faa61c010VgnVCM1000000b205a0aRCRD,AZUAGA,CALLE,V,13,MADRID,MADRID,28039,4,Valdezarza,https://wikidata.org/entity/Q10388728,9,Moncloa-Aravaca,https://wikidata.org/entity/Q2017682,439676,4479445,4,05E+15,-3,71E+16,913 115 878,,/contenido/entidadesYorganismos/CentrosAtencionMedica/CentrosSalud
47160,Centro de Salud Valle Inclan,,,"Bus: 39, 138, 139.",,3,http://www.madrid.es/sites/v/index.jsp?vgnextchannel=bfa48ab43d6bb410VgnVCM100000171f5a0aRCRD&vgnextoid=fa83598d1351c010VgnVCM1000000b205a0aRCRD,VALLE INCLAN,CALLE,V,97,MADRID,MADRID,28044,7,Las Águilas,https://wikidata.org/entity/Q5971372,10,Latina,https://wikidata.org/entity/Q794954,434237,4469801,4,04E+15,-3,77E+15,917 062 100,,/contenido/entidadesYorganismos/CentrosAtencionMedica/CentrosSalud
8963,Centro de Salud Ventura Rodríguez,,,"Metro: Ventura Rodríguez (línea 3), Plaza de España (líneas 3 y 10).  Bus: 001, 1, 133, 138, 2, 44, 62, 74, C2, C1.  Bicimad: Estación 14 (calle Duque de Liria).  Aparcamiento: Plaza de España (53).",,3,http://www.madrid.es/sites/v/index.jsp?vgnextchannel=bfa48ab43d6bb410VgnVCM100000171f5a0aRCRD&vgnextoid=5d0e4b6faa61c010VgnVCM1000000b205a0aRCRD,VENTURA RODRIGUEZ,CALLE,V,7,MADRID,MADRID,28008,2,Argüelles,https://wikidata.org/entity/Q64874,9,Moncloa-Aravaca,https://wikidata.org/entity/Q2017682,439455,4475204,4,04E+15,-3,71E+14,915 590 240,,/contenido/entidadesYorganismos/CentrosAtencionMedica/CentrosSalud
9048,Centro de Salud Vicente Muzas,,,"Metro: Arturo Soria (línea 4).  Bus: 53, 11, 70, 72, 73, 9.  Bicimad: Estación 480 (calle Vicente Muzas, 12).",,3,http://www.madrid.es/sites/v/index.jsp?vgnextchannel=bfa48ab43d6bb410VgnVCM100000171f5a0aRCRD&vgnextoid=ef1e4b6faa61c010VgnVCM1000000b205a0aRCRD,VICENTE MUZAS,CALLE,V,8,MADRID,MADRID,28043,7,Colina,https://wikidata.org/entity/Q18475981,15,Ciudad Lineal,https://wikidata.org/entity/Q1763694,443953,4478848,4,05E+15,-3,66E+14,915 102 820,,/contenido/entidadesYorganismos/CentrosAtencionMedica/CentrosSalud
8950,Centro de Salud Vicente Soldevilla,,,Bus: 24.,,3,http://www.madrid.es/sites/v/index.jsp?vgnextchannel=bfa48ab43d6bb410VgnVCM100000171f5a0aRCRD&vgnextoid=723e4b6faa61c010VgnVCM1000000b205a0aRCRD,SIERRA DE ALQUIFE,CALLE,V,8,MADRID,MADRID,28053,2,San Diego,https://wikidata.org/entity/Q11946851,13,Puente de Vallecas,https://wikidata.org/entity/Q2003054,443383,4471142,4,04E+15,-3,67E+15,914 775 048,,/contenido/entidadesYorganismos/CentrosAtencionMedica/CentrosSalud
8991,Centro de Salud Villaamil (Doctor Castroviejo),,,"Metro: Antonio Machado (línea 7).  Bus: 42, 127, 132.  Bicimad: Estación 599 (calle La Cabrera sin número).",,3,http://www.madrid.es/sites/v/index.jsp?vgnextchannel=bfa48ab43d6bb410VgnVCM100000171f5a0aRCRD&vgnextoid=975e4b6faa61c010VgnVCM1000000b205a0aRCRD,CANDIDO MATEOS,CALLE,V,11,MADRID,MADRID,28035,3,Peñagrande,https://wikidata.org/entity/Q3319582,8,Fuencarral-El Pardo,https://wikidata.org/entity/Q656196,439135,4480478,4,05E+15,-3,72E+16,913 114 560,,/contenido/entidadesYorganismos/CentrosAtencionMedica/CentrosSalud
72851,Centro de Salud Villablanca,,,"Metro: San Cipriano (línea 9).  Bus: 100, 106, 159.  Cercanías Renfe: Vicálvaro (líneas C2, C7 y Regional).",,3,http://www.madrid.es/sites/v/index.jsp?vgnextchannel=bfa48ab43d6bb410VgnVCM100000171f5a0aRCRD&vgnextoid=945168540e41c010VgnVCM2000000c205a0aRCRD,VILLABLANCA,CALLE,V,81,MADRID,MADRID,28032,1,Casco Histórico de Vicálvaro,https://wikidata.org/entity/Q16544374,19,Vicálvaro,https://wikidata.org/entity/Q589403,449144,4472949,4,04E+16,-3,60E+14,913 716 200,,/contenido/entidadesYorganismos/CentrosAtencionMedica/CentrosSalud
9010,Centro de Salud Virgen de Begoña,,,"Metro: Begoña (línea 10).  Bus: 124, 137, 66.",,3,http://www.madrid.es/sites/v/index.jsp?vgnextchannel=bfa48ab43d6bb410VgnVCM100000171f5a0aRCRD&vgnextoid=2a6e4b6faa61c010VgnVCM1000000b205a0aRCRD,LLANO CASTELLANO,AVENIDA,V,3,MADRID,MADRID,28034,6,Valverde,https://wikidata.org/entity/Q31132,8,Fuencarral-El Pardo,https://wikidata.org/entity/Q656196,441936,4481717,4,05E+15,-3,69E+16,913 582 023,,/contenido/entidadesYorganismos/CentrosAtencionMedica/CentrosSalud
9078,Centro de Salud Virgen del Cortijo,,,"Metro Ligero: Virgen del Cortijo (línea ML1).  Bus: 150, 174.  Cercanías Renfe: Fuente de la Mora (líneas C1, C10 y Regional).  Bicimad: Estación 540 (calle de Dulce Chacón, sin número).",,3,http://www.madrid.es/sites/v/index.jsp?vgnextchannel=bfa48ab43d6bb410VgnVCM100000171f5a0aRCRD&vgnextoid=bc7e4b6faa61c010VgnVCM1000000b205a0aRCRD,MANOTERAS,AVENIDA,V,47,MADRID,MADRID,28050,6,Valdefuentes,https://wikidata.org/entity/Q10388714,16,Hortaleza,https://wikidata.org/entity/Q1928529,443791,4482087,4,05E+15,-3,66E+16,917 664 222,,/contenido/entidadesYorganismos/CentrosAtencionMedica/CentrosSalud
9174,Centro de Transfusión de la Comunidad de Madrid,,"De lunes a sábado, de 8:30 a 21 horas.","Metro: Valdebernardo (línea 9).  Bus: 71, 130.",,3,http://www.madrid.es/sites/v/index.jsp?vgnextchannel=bfa48ab43d6bb410VgnVCM100000171f5a0aRCRD&vgnextoid=6f8e4b6faa61c010VgnVCM1000000b205a0aRCRD,DEMOCRACIA,AVENIDA,V,,MADRID,MADRID,28032,1,Casco Histórico de Vicálvaro,https://wikidata.org/entity/Q16544374,19,Vicálvaro,https://wikidata.org/entity/Q589403,447792,4471922,4,04E+13,-3,62E+16,913 017 200 / Información donantes: 900 303 530,centro.transfusion@salud.madrid.org,/contenido/entidadesYorganismos/CentrosAtencionMedica/OtrosCentrosMedicos
8832,Centro de Vacunación de la Comunidad de Madrid,,Con cita previa telefónica o por web. Lunes a Viernes de 9 a 14 y de 15 a 20 horas.,"Metro: Gregorio Marañón (líneas 7 y 10), Rubén Darío (línea 5), Núñez de Balboa (líneas 5 y 9).  Bus: 16, 19, 51, 9, 61, 12.  Bicimad: Estaciones 141 (paseo Castellana, 43), 190 (calle Velázquez, 91), 140 (calle Velázquez, 130).  Aparcamiento: Serrano I (62) calle Serrano entre hermanos Becquert y Marqués de Villamejor.",,3,http://www.madrid.es/sites/v/index.jsp?vgnextchannel=bfa48ab43d6bb410VgnVCM100000171f5a0aRCRD&vgnextoid=afd948afb2c5f010VgnVCM1000000b205a0aRCRD,GENERAL ORAA,CALLE,V,15,MADRID,MADRID,28006,6,Castellana,https://wikidata.org/entity/Q4781,4,Salamanca,https://wikidata.org/entity/Q1773521,441823,4476417,4,04E+15,-3,69E+16,Cita previa: 915 616 195 / 914 111 140,,/contenido/entidadesYorganismos/CentrosAtencionMedica/CentrosPrevencionEnfermedades
9355,Centro de Vacunación Internacional. Delegación del Gobierno en Madrid,,Horario de atención presencial y telefónica: De lunes a viernes de 9 a 14 horas. Cita previa en linea.,"Metro: Diego de León (líneas 4, 5 y 6).  Bus: 12, C1, 26, C2, 56, 210, 72, 73, 61.  Bicimad: Estación 191 (calle Alsonso Heredia, 1).  Aparcamiento: Díaz Porlier (60), calle Diego de León, 64).",,3,http://www.madrid.es/sites/v/index.jsp?vgnextchannel=bfa48ab43d6bb410VgnVCM100000171f5a0aRCRD&vgnextoid=f1ae4b6faa61c010VgnVCM1000000b205a0aRCRD,FRANCISCO SILVELA,CALLE,V,57,MADRID,MADRID,28028,5,Lista,https://wikidata.org/entity/Q4779,4,Salamanca,https://wikidata.org/entity/Q1773521,442809,4476157,4,04E+15,-3,67E+16,912 729 441 (Cita previa),vacui.fcosil.madrid@correo.gob.es,/contenido/entidadesYorganismos/CentrosAtencionMedica/CentrosPrevencionEnfermedades
163281,Centro Joven de Madrid Salud,El Centro Joven cuenta con intérprete de Lengua de Signos Española (ILSE) y con psicóloga (persona sorda y signante) haciendo de esta manera accesible todos sus servicios a la comunidad sorda. Ver más información en  Centro Joven accesible a personas sordas,"Siempre con cita previa, póngase en contacto telefónico con el centro  Horario   de lunes a viernes de 9 a 13:30 y de 15 a 20 horas   Horario de verano:     del 15 de junio al 15 de septiembre: de 9 a 13 horas y de 15 a 19 horas   Agosto de 9 a 13 horas. Tardes cerrado     Anticoncepción de urgencia . En periodo de verano, le sugerimos se ponga en contacto teléfonico con el centro para asegurar su atención.","Metro: Callao Bus: 1 , 2 , 44 , 46 , 74 , 75 , 133 , 146 , 147 , 148 Bicicletas:  Servicio Bicimad, para consultar la estación más cercana, acceda al mapa de geolocalización de las estaciones.",,1,http://www.madrid.es/sites/v/index.jsp?vgnextchannel=bfa48ab43d6bb410VgnVCM100000171f5a0aRCRD&vgnextoid=a139ac2e6481c010VgnVCM1000000b205a0aRCRD,NAVAS DE TOLOSA,CALLE,V,10,MADRID,MADRID,28013,6,Sol,https://wikidata.org/entity/Q2465181,1,Centro,https://wikidata.org/entity/Q1763376,440025,4474530,4,04E+15,-3,71E+16,CITACIONES: 91 588 96 77 / 91 588 96 78,centrojoven@madrid.es,/contenido/entidadesYorganismos/CentrosAtencionMedica/CentrosPrevencionEnfermedades
4614547,Centro Madrid Salud Internacional. Centro de Vacunación Internacional,,De lunes a viernes de 8:30 a 14:00 horas  Es necesario pedir cita previa (salvo para la emisión de duplicados de certificado internacional de vacunación de aquellas personas que anteriormente fueron vacunadas en el Centro),"Metro: Manuel Becerra , Lista , Diego de LeónBus: 1, 2, 12, 15, 21, 26, 29, 30, 38, 43, 48, 53, 56, 61, 63, C1, C2, 71, 74, 106, 110, 210, 143, 146, 152 y 215. Bicicletas:  Servicio Bicimad, para consultar la estación más cercana, acceda al mapa de geolocalización de las estaciones.","Es conveniente acudir al centro al menos con un mes de antelación al viaje. Se debe aportar la máxima información sobre el viaje que se va a realizar: zonas a visitar, duración, tipo de viaje. Para la expedición de duplicados de cartilla de fiebre amarilla a aquellas personas que anteriormente fueron vacunados en nuestro Centro no será necesario solicitar  cita previa.  Se solicitará una cita por cada una de las personas que necesite acudir a la consulta, independientemente de su edad. En caso de población menor que no dispongan de documento acreditativo de identidad, la cita se solicitará a nombre del padre, madre o persona que ejerza la tutoría. La persona menor de edad deberá acudir a la consulta acompañada por padre, madre o tutor. Para cualquier aclaración ponte en contacto con nuestro centro.",1,http://www.madrid.es/sites/v/index.jsp?vgnextchannel=bfa48ab43d6bb410VgnVCM100000171f5a0aRCRD&vgnextoid=8fe90c576ddc3110VgnVCM1000000b205a0aRCRD,MONTESA,CALLE,V,22,MADRID,MADRID,28006,5,Lista,https://wikidata.org/entity/Q4779,4,Salamanca,https://wikidata.org/entity/Q1773521,442986,4475588,4,04E+16,-3,67E+16,"010 Línea Madrid (91 529 82 10 si llaman desde fuera del municipio de Madrid)
Citas: 91 529 82 10",msconsultadelviajero@madrid.es,/contenido/entidadesYorganismos/CentrosAtencionMedica/CentrosPrevencionEnfermedades
7928372,Centro para la prevención y atención de las adicciones en adolescentes y jóvenes Los Mesejo,,"Lunes a viernes, de 9 a 21 horas.","Metro: Puente de Vallecas (línea 1).  Bus: 141, 24, 54, 57, 8, 10, 136, 310, 37, 56, 111, 58, 148, 113.  Bicimad: Estación 179 (avenida de la Albufera, 6).",,3,http://www.madrid.es/sites/v/index.jsp?vgnextchannel=bfa48ab43d6bb410VgnVCM100000171f5a0aRCRD&vgnextoid=d5ae13b45bdfb410VgnVCM2000000c205a0aRCRD,LOS MESEJO,CALLE,V,9,MADRID,MADRID,28007,2,Adelfas,https://wikidata.org/entity/Q3774001,3,Retiro,https://wikidata.org/entity/Q2002296,443139,4472316,4,04E+15,-3,67E+15,913 442 400 / 901 350 350,mesejo9@salud.madrid.org,/contenido/entidadesYorganismos/CentrosAtencionMedica/CentrosAsistenciaDrogodependientes
57586,Clínica CEMTRO,,,Metro: Mirasierra (línea 9).  Bus: 49.,,3,http://www.madrid.es/sites/v/index.jsp?vgnextchannel=bfa48ab43d6bb410VgnVCM100000171f5a0aRCRD&vgnextoid=9d1b8ed67151c010VgnVCM2000000c205a0aRCRD,VENTISQUERO DE LA CONDESA,AVENIDA,V,42,MADRID,MADRID,28035,7,Mirasierra,https://wikidata.org/entity/Q31134,8,Fuencarral-El Pardo,https://wikidata.org/entity/Q656196,439221,4482838,4,05E+15,-3,72E+16,917 355 757,clinica.cemtro@clinicacemtro.com,/contenido/entidadesYorganismos/CentrosAtencionMedica/HospitalesClinicasSanatorios
9148,Clínica Doctor León,,,"Metro: Menéndez Pelayo (línea 1), Conde de Casal (línea 6).  Bus: 14, 32, 152, 26, 63, C2, C1, 10.  Bicimad: Estación 75 (Avenida Menéndez Pelayo, 70).  Apacamiento: Reyes Magos (35), plaza Reyes Magos.",,3,http://www.madrid.es/sites/v/index.jsp?vgnextchannel=bfa48ab43d6bb410VgnVCM100000171f5a0aRCRD&vgnextoid=0fc9224e0d61c010VgnVCM1000000b205a0aRCRD,MARIANO DE CAVIA,PLAZA,V,3,MADRID,MADRID,28007,6,Niño Jesús,https://wikidata.org/entity/Q3773746,3,Retiro,https://wikidata.org/entity/Q2002296,442451,4473229,4,04E+15,-3,68E+16,915 517 722,,/contenido/entidadesYorganismos/CentrosAtencionMedica/HospitalesClinicasSanatorios
9170,Clínica Isadora,,,"Metro: Francos Rodriguez (línea 7).  Bus: 64, 44.",,3,http://www.madrid.es/sites/v/index.jsp?vgnextchannel=bfa48ab43d6bb410VgnVCM100000171f5a0aRCRD&vgnextoid=40804b6faa61c010VgnVCM1000000b205a0aRCRD,PIRINEOS,CALLE,V,7,MADRID,MADRID,28040,3,Ciudad Universitaria,https://wikidata.org/entity/Q3319235,9,Moncloa-Aravaca,https://wikidata.org/entity/Q2017682,439254,4478746,4,05E+15,-3,72E+15,913 111 000,,/contenido/entidadesYorganismos/CentrosAtencionMedica/HospitalesClinicasSanatorios
9161,Clínica López Ibor,,,"Metro: Antonio Machado (línea 7).  Bus: 64, 137.",,3,http://www.madrid.es/sites/v/index.jsp?vgnextchannel=bfa48ab43d6bb410VgnVCM100000171f5a0aRCRD&vgnextoid=8ac04b6faa61c010VgnVCM1000000b205a0aRCRD,DOCTOR JUAN JOSE LOPEZ IBOR,CALLE,V,2,MADRID,MADRID,28035,4,Valdezarza,https://wikidata.org/entity/Q10388728,9,Moncloa-Aravaca,https://wikidata.org/entity/Q2017682,438589,4479945,4,05E+15,-3,72E+15,913 162 740,,/contenido/entidadesYorganismos/CentrosAtencionMedica/HospitalesClinicasSanatorios
9138,Clínica Nuestra Señora de la Paz,,,"Metro: Avenida de la Paz (línea 4).  Bus: 53, 72, 73, 9.  Bicimad: Estación 480 (calle Vicente Muzas, 12).",,3,http://www.madrid.es/sites/v/index.jsp?vgnextchannel=bfa48ab43d6bb410VgnVCM100000171f5a0aRCRD&vgnextoid=57214b6faa61c010VgnVCM1000000b205a0aRCRD,LOPEZ DE HOYOS,CALLE,V,259,MADRID,MADRID,28043,7,Colina,https://wikidata.org/entity/Q18475981,15,Ciudad Lineal,https://wikidata.org/entity/Q1763694,443946,4478671,4,05E+14,-3,66E+16,914 156 000,,/contenido/entidadesYorganismos/CentrosAtencionMedica/HospitalesClinicasSanatorios
9146,Clínica San Miguel,,,"Metro: Arturo Soria (línea 4).  Bus: 11, 70, 72, 73, 9, 53, 87, 7.  Bicimad: Estación 480 (calle Vicente Muzas, 12).",,3,http://www.madrid.es/sites/v/index.jsp?vgnextchannel=bfa48ab43d6bb410VgnVCM100000171f5a0aRCRD&vgnextoid=dbb14b6faa61c010VgnVCM1000000b205a0aRCRD,ARTURO SORIA,CALLE,V,204,MADRID,MADRID,28043,7,Colina,https://wikidata.org/entity/Q18475981,15,Ciudad Lineal,https://wikidata.org/entity/Q1763694,444000,4479006,4,05E+15,-3,66E+15,914 135 011,info.sanmiguel@hospitalarias.es,/contenido/entidadesYorganismos/CentrosAtencionMedica/HospitalesClinicasSanatorios
11174880,Clínica San Vicente,,,"Bus:  116, 121, 131, 155.",,3,http://www.madrid.es/sites/v/index.jsp?vgnextchannel=bfa48ab43d6bb410VgnVCM100000171f5a0aRCRD&vgnextoid=f44f5be190212710VgnVCM1000001d4a900aRCRD,CERILLERAS,CALLE,V,7,MADRID,MADRID,28054,6,Buenavista,https://wikidata.org/entity/Q953929,11,Carabanchel,https://wikidata.org/entity/Q1001991,438227,4469272,4,04E+16,-3,73E+16,916 318 212 / 916 317 938,info@clinicasanvicente.es,/contenido/entidadesYorganismos/CentrosAtencionMedica/HospitalesClinicasSanatorios
10613510,Clínica Universidad de Navarra en Madrid,,,"Bus: 114, 104, 146.",,3,http://www.madrid.es/sites/v/index.jsp?vgnextchannel=bfa48ab43d6bb410VgnVCM100000171f5a0aRCRD&vgnextoid=b940308874a61610VgnVCM2000001f4a900aRCRD,MARQUESADO DE SANTA MARTA,CALLE,V,1,MADRID,MADRID,28027,8,Salvador,https://wikidata.org/entity/Q10367095,20,San Blas-Canillejas,https://wikidata.org/entity/Q2001937,447014,4477655,4,04E+15,-3,62E+15,913 531 920,,/contenido/entidadesYorganismos/CentrosAtencionMedica/HospitalesClinicasSanatorios
8870,CMSc Centro Municipal de Salud Comunitaria  Chamberí,,"Antes de acudir, póngase en contacto teléfonico con el centro   Horario de verano: mañanas de 8 a 14 horas y tardes de 14 a 20 horas Este centro permanecerá cerrado en turno de tarde:   del 10 de julio al 22 de agosto    Anticoncepción de urgencia. En periodo de verano, le sugerimos se ponga en contacto teléfonico con el centro para asegurar su atención.  Vacunación: con cita previa","Metro: Iglesia  Bus: 3 , 5 , 16 , 40 , 61 , 147 Bicicletas:  Servicio Bicimad, para consultar la estación más cercana, acceda al mapa de geolocalización de las estaciones.","Ámbito de Influencia:  Distrito de Chamartín: Barrios de Prosperidad, El Viso y Ciudad Jardín Distrito de Chamberí.  Los programas marco de salud de abordaje prioritario que desarrollan los Centros Municipales de Salud Comunitaria son:  Alimentación, actividad física y salud Salud sexual y reproductiva Promoción de la salud en el ámbito educativo Envejecimiento activo y saludable Salud materno-infantil Prevención y control del consumo de tabaco Promoción de Salud Mental Desigualdades sociales en salud  Los que se desarrollan actualmente los puede consultar en la Página Web de Madrid Salud",1,http://www.madrid.es/sites/v/index.jsp?vgnextchannel=bfa48ab43d6bb410VgnVCM100000171f5a0aRCRD&vgnextoid=e1b24b6faa61c010VgnVCM1000000b205a0aRCRD,RAFAEL CALVO,CALLE,V,6,MADRID,MADRID,28010,4,Almagro,https://wikidata.org/entity/Q10954432,7,Chamberí,https://wikidata.org/entity/Q1763370,440985,4476318,4,04E+15,-3,70E+16,CITACIONES:  915 886 784 / 915 886 783,cmschamberi@madrid.es,/contenido/entidadesYorganismos/CentrosAtencionMedica/CentrosPrevencionEnfermedades
8866,CMSc Centro Municipal de Salud Comunitaria Arganzuela,,"Antes de acudir, póngase en contacto telefónico con el centro       Horario de verano: mañanas de 8 a 14 horas y tardes de 14 a 20 horas Este centro permanecerá cerrado en turno de tarde:   del 10 al 28 de julio  14 de agosto     Anticoncepción de urgencia. En periodo de verano, le sugerimos se ponga en contacto teléfonico con el centro para asegurar su atención.  Vacunación: cita previa","Metro: Puerta de Toledo, Acacias, Pirámides, Embajadores Bus: 3, 6, 17, 18, 23, 34, 35, 36, 41, 60, 62, 116, 118, 119, 148 y circular Renfe: Pirámides, Embajadores Bicicletas:  Servicio Bicimad, para consultar la estación más cercana, acceda al mapa de geolocalización de las estaciones.","Ámbito de influencia  Distrito de Arganzuela: Imperial, Acacias, Chopera, Legazpi, Delicias, Palos de Moguer, Atocha, Comillas Los programas marco de salud de abordaje prioritario que desarrollan los Centros Municipales de Salud Comunitaria son:  Alimentación, actividad física y salud Salud sexual y reproductiva Promoción de la salud en el ámbito educativo Envejecimiento activo y saludable Salud materno-infantil Prevención y control del consumo de tabaco Promoción de Salud Mental Desigualdades sociales en salud  Los que se desarrollan en el CMSc Centro Municipal de Salud Comunitaria Arganzuela actualmente los puede consultar en la  Página Web de Madrid Salud",1,http://www.madrid.es/sites/v/index.jsp?vgnextchannel=bfa48ab43d6bb410VgnVCM100000171f5a0aRCRD&vgnextoid=fe324b6faa61c010VgnVCM1000000b205a0aRCRD,CONCEJAL BENITO MARTIN LOZANO,CALLE,V,1,MADRID,MADRID,28005,2,Las Acacias,https://wikidata.org/entity/Q3319190,2,Arganzuela,https://wikidata.org/entity/Q2000929,439685,4473029,4,04E+15,-3,71E+15,CITACIONES: 913 541 784/ 913 541 785,cmsarganzuela@madrid.es,/contenido/entidadesYorganismos/CentrosAtencionMedica/CentrosPrevencionEnfermedades
8880,CMSc Centro Municipal de Salud Comunitaria Carabanchel,,"Antes de acudir, póngase en contacto teléfonico con el centro   Horario de verano: mañanas de 8 a 14 horas y tardes de 14 a 20 horas  Anticoncepción de urgencia. En periodo de verano, le sugerimos se ponga en contacto teléfonico con el centro para asegurar su atención.  Vacunación: con cita previa","Bus: 34 , 35 Bicicletas:  Servicio Bicimad, para consultar la estación más cercana, acceda al mapa de geolocalización de las estaciones.","Ámbito de influencia  Distrito de Carabanchel: Comillas, Abrantes, Buenavista, Opañel, Puerta Bonita, Vista Alegre, San Isidro. Los programas marco de salud de abordaje prioritario que desarrollan los Centros Municipales de Salud Comunitaria son:  Alimentación, actividad física y salud Salud sexual y reproductiva Promoción de la salud en el ámbito educativo Envejecimiento activo y saludable Salud materno-infantil Prevención y control del consumo de tabaco Promoción de Salud Mental Desigualdades sociales en salud  Los que se desarrollan en el CMSc Centro Municipal de Salud Comunitaria Carabanchel actualmente los puede consultar en la  Página Web de Madrid Salud",1,http://www.madrid.es/sites/v/index.jsp?vgnextchannel=bfa48ab43d6bb410VgnVCM100000171f5a0aRCRD&vgnextoid=45624b6faa61c010VgnVCM1000000b205a0aRCRD,EUGENIA DE MONTIJO,CALLE,V,90,MADRID,MADRID,28025,4,Vista Alegre,https://wikidata.org/entity/Q3813741,11,Carabanchel,https://wikidata.org/entity/Q1001991,436587,4470216,4,04E+15,-3,75E+15,CITACIONES:913 696 072 / 913 602 200,cmscarabanchel@madrid.es,/contenido/entidadesYorganismos/CentrosAtencionMedica/CentrosPrevencionEnfermedades
8882,CMSc Centro Municipal de Salud Comunitaria Centro,,"Antes de acudir, póngase en contacto teléfonico con el centro   Horario de verano: mañanas de 8 a 14 horas y tardes de 14 a 20 horas  Anticoncepción de urgencia. En periodo de verano, le sugerimos se ponga en contacto teléfonico con el centro para asegurar su atención.  Vacunación: con cita previa","Metro: CallaoBus: 1 , 2 , 44 , 46 , 74 , 75 , 133 , 146 , 147 , 148 , 202 Bicicletas:  Servicio Bicimad, para consultar la estación más cercana, acceda al mapa de geolocalización de las estaciones.","ÁMBITO DE INFLUENCIA   Distrito de Centro: Palacio, Embajadores, Universidad, Cortes, Sol, Justicia Distrito de Moncloa: Casa de Campo, Arg&amp,uuml,elles, Ciudad Universitaria, Valdezarza, Valdemarín, El Plantío, Aravaca  Los programas marco de salud de abordaje prioritario que desarrollan los Centros Municipales de Salud Comunitaria son:  Alimentación, actividad física y salud Salud sexual y reproductiva Promoción de la salud en el ámbito educativo Envejecimiento activo y saludable Salud materno-infantil Prevención y control del consumo de tabaco Promoción de Salud Mental Desigualdades sociales en salud  Los que se desarrollan en el CMSc Centro Municipal de Salud Comunitaria Centro actualmente los puede consultar en la Página Web de Madrid Salud",1,http://www.madrid.es/sites/v/index.jsp?vgnextchannel=bfa48ab43d6bb410VgnVCM100000171f5a0aRCRD&vgnextoid=9b824b6faa61c010VgnVCM1000000b205a0aRCRD,NAVAS DE TOLOSA,CALLE,V,10,MADRID,MADRID,28013,6,Sol,https://wikidata.org/entity/Q2465181,1,Centro,https://wikidata.org/entity/Q1763376,440026,4474527,4,04E+16,-3,71E+16,CITACIONES: 915 889 661 / 915 889 660,cmscentro@madrid.es,/contenido/entidadesYorganismos/CentrosAtencionMedica/CentrosPrevencionEnfermedades
8881,CMSc Centro Municipal de Salud Comunitaria Ciudad Lineal,,"Antes de acudir, póngase en contacto teléfonico con el centro   Horario de verano: mañanas de 8 a 14 horas y tardes de 14 a 20 horas  Anticoncepción de urgencia. En periodo de verano, le sugerimos se ponga en contacto teléfonico con el centro para asegurar su atención.  Vacunación: con cita previa","Metro: L2 Autobuses: 106, 113 Bicicletas:  Servicio Bicimad, para consultar la estación más cercana, acceda al mapa de geolocalización de las estaciones.","Ámbito de influencia: Distrito Ciudad Lineal  Barrios: Ventas, Pueblo Nuevo, Quintana, Concepción, San Pascual, San Juan Bautista, Colina, Atalaya, Costillares Los programas marco de salud de abordaje prioritario que desarrollan los Centros Municipales de Salud Comunitaria son:  Alimentación, actividad física y salud Salud sexual y reproductiva Promoción de la salud en el ámbito educativo Envejecimiento activo y saludable Salud materno-infantil Prevención y control del consumo de tabaco Promoción de Salud Mental Desigualdades sociales en salud",1,http://www.madrid.es/sites/v/index.jsp?vgnextchannel=bfa48ab43d6bb410VgnVCM100000171f5a0aRCRD&vgnextoid=38d24b6faa61c010VgnVCM1000000b205a0aRCRD,DE AGUSTÍN GONZALEZ,PLAZA,V,1,MADRID,MADRID,28017,1,Ventas,https://wikidata.org/entity/Q71762,15,Ciudad Lineal,https://wikidata.org/entity/Q1763694,445107,4475424,4,04E+16,-3,65E+16,Citaciones: 914 061 578 / 914 064 134,cmsciudadlineal@madrid.es,/contenido/entidadesYorganismos/CentrosAtencionMedica/CentrosPrevencionEnfermedades
8867,CMSc Centro Municipal de Salud Comunitaria Fuencarral,,"Antes de acudir, póngase en contacto telefónico con el centro   Horario de verano: mañanas de 9 a 14 horas y tardes de 14 a 20 horas Este centro permanecerá cerrado en turno de tarde:   del 7 al 6 de septiembre   Anticoncepción de urgencia. En periodo de verano, le sugerimos se ponga en contacto teléfonico con el centro para asegurar su atención.","Metro: Barrio del Pilar Bus: 83 , 128 , 132 , 134, 137, 49 Interurbano: 602 Bicicletas:  Servicio Bicimad, para consultar la estación más cercana, acceda al mapa de geolocalización de las estaciones.","Ámbito de influencia:   Distrito de Fuencarral - El Pardo.  Los programas marco de salud de abordaje prioritario que desarrollan los Centros Municipales de Salud Comunitaria son:  Alimentación, actividad física y salud Salud sexual y reproductiva Promoción de la salud en el ámbito educativo Envejecimiento activo y saludable Salud materno-infantil Prevención y control del consumo de tabaco Promoción de Salud Mental Desigualdades sociales en salud  Los que se desarrollan actualmente los puede consultar en la Página Web de Madrid Salud",1,http://www.madrid.es/sites/v/index.jsp?vgnextchannel=bfa48ab43d6bb410VgnVCM100000171f5a0aRCRD&vgnextoid=8ef24b6faa61c010VgnVCM1000000b205a0aRCRD,MONFORTE DE LEMOS,AVENIDA,V,38,MADRID,MADRID,28029,4,El Pilar,https://wikidata.org/entity/Q3773964,8,Fuencarral-El Pardo,https://wikidata.org/entity/Q656196,439867,4481122,4,05E+15,-3,71E+16,CITACIONES: 91 588 68 71 / 91 588 68 73,cmsfuencarral@madrid.es,/contenido/entidadesYorganismos/CentrosAtencionMedica/CentrosPrevencionEnfermedades
17433,CMSc Centro Municipal de Salud Comunitaria Hortaleza,,"Antes de acudir, póngase en contacto teléfonico con el centro   Horario de verano: mañanas de 8 a 14 horas y tardes de 14 a 20 horas Este centro permanecerá cerrado en turno de tarde:   14 de agosto    Anticoncepción de urgencia. En periodo de verano, le sugerimos se ponga en contacto teléfonico con el centro para asegurar su atención.  Vacunación: con cita previa","Bus: 73 , 120 , 122 Metro: L 4, estación Canillas Bicicletas:  Servicio Bicimad, para consultar la estación más cercana, acceda al mapa de geolocalización de las estaciones.","Ámbito de influencia:   Distrito de Hortaleza Distrito de Barajas.  Los programas marco de salud de abordaje prioritario que desarrollan los Centros Municipales de Salud Comunitaria son:  Alimentación, actividad física y salud Salud sexual y reproductiva Promoción de la salud en el ámbito educativo Envejecimiento activo y saludable Salud materno-infantil Prevención y control del consumo de tabaco Promoción de Salud Mental Desigualdades sociales en salud  Los que se desarrollan actualmente los puede consultar en la Página Web de Madrid Salud",1,http://www.madrid.es/sites/v/index.jsp?vgnextchannel=bfa48ab43d6bb410VgnVCM100000171f5a0aRCRD&vgnextoid=aec4e35bba51c010VgnVCM2000000c205a0aRCRD,JUAN CLEMENTE NUÑEZ,CALLE,V,3,MADRID,MADRID,28043,3,Canillas,https://wikidata.org/entity/Q9694341,16,Hortaleza,https://wikidata.org/entity/Q1928529,446841,4479247,4,05E+15,-3,63E+15,CITACIONES: 917 489 197 / 917 489 207,cmshortaleza@madrid.es,/contenido/entidadesYorganismos/CentrosAtencionMedica/CentrosPrevencionEnfermedades
8876,CMSc Centro Municipal de Salud Comunitaria Latina,,"Antes de acudir, póngase en contacto teléfonico con el centro   Horario de verano: mañanas de 8 a 14 horas   Anticoncepción de urgencia. En periodo de verano, le sugerimos se ponga en contacto teléfonico con el centro para asegurar su atención.  Vacunación: con cita previa","Metro: Alto de Extremadura Bus: 31 , 33 , 36 , 39 , 65 Bicicletas:  Servicio Bicimad, para consultar la estación más cercana, acceda al mapa de geolocalización de las estaciones.","Ámbito de influencia:   Distrito de Latina.  Los programas marco de salud de abordaje prioritario que desarrollan los Centros Municipales de Salud Comunitaria son:  Alimentación, actividad física y salud Salud sexual y reproductiva Promoción de la salud en el ámbito educativo Envejecimiento activo y saludable Salud materno-infantil Prevención y control del consumo de tabaco Promoción de Salud Mental Desigualdades sociales en salud  Los que se desarrollan actualmente los puede consultar en la Página Web de Madrid Salud",1,http://www.madrid.es/sites/v/index.jsp?vgnextchannel=bfa48ab43d6bb410VgnVCM100000171f5a0aRCRD&vgnextoid=d4234b6faa61c010VgnVCM1000000b205a0aRCRD,EXTREMADURA,PASEO,V,147,MADRID,MADRID,28011,2,Barrio de Puerta del Ángel,https://wikidata.org/entity/Q31142,10,Latina,https://wikidata.org/entity/Q794954,437283,4473479,4,04E+15,-3,74E+13,CITACIONES:  914 649 972 / 914 794 666,cmslatina@madrid.es,/contenido/entidadesYorganismos/CentrosAtencionMedica/CentrosPrevencionEnfermedades
148488,CMSc Centro Municipal de Salud Comunitaria Puente de Vallecas,,"Antes de acudir, póngase en contacto teléfonico con el centro   Horario de verano: mañanas de 8 a 14 horas y tardes de 14 a 20 horas  Anticoncepción de urgencia. En periodo de verano, le sugerimos se ponga en contacto teléfonico con el centro para asegurar su atención.  Vacunación: con cita previa","Metro: Nueva Numancia Bus: 10 , 24 , 54 , 57 , 58 , 111 , 140 Bicicletas:  Servicio Bicimad, para consultar la estación más cercana, acceda al mapa de geolocalización de las estaciones.","Ámbito de influencia:   Distrito de Puente de Vallecas: Entrevías, Palomeras Bajas, Numancia, San Diego, Palomeras Altas, Portazgo   Los programas marco de salud de abordaje prioritario que desarrollan los Centros Municipales de Salud Comunitaria son:  Alimentación, actividad física y salud Salud sexual y reproductiva Promoción de la salud en el ámbito educativo Envejecimiento activo y saludable Salud materno-infantil Prevención y control del consumo de tabaco Promoción de Salud Mental Desigualdades sociales en salud  Los que se desarrollan actualmente los puede consultar en la Página Web de Madrid Salud",1,http://www.madrid.es/sites/v/index.jsp?vgnextchannel=bfa48ab43d6bb410VgnVCM100000171f5a0aRCRD&vgnextoid=f759ac2e6481c010VgnVCM1000000b205a0aRCRD,CONCORDIA,CALLE,NUM,15,MADRID,MADRID,28053,2,San Diego,https://wikidata.org/entity/Q11946851,13,Puente de Vallecas,https://wikidata.org/entity/Q2003054,443512,4471842,4,04E+15,-3,67E+15,CITACIONES: 915 886 016 / 915 133 025,cmsvallecasp@madrid.es,/contenido/entidadesYorganismos/CentrosAtencionMedica/CentrosPrevencionEnfermedades
8872,CMSc Centro Municipal de Salud Comunitaria Salamanca Retiro,,"Antes de acudir, póngase en contacto teléfonico con el centro   Horario de verano: mañanas de 8 a 14 horas   Anticoncepción de urgencia. En periodo de verano, le sugerimos se ponga en contacto teléfonico con el centro para asegurar su atención.  Vacunación: con cita previa","Metro: Velázquez (línea 9) y Nuñez de Balboa (líneas 4 y 5)  Autobús: 1, 9, 19, 21, 29, 51, 52, 53 y 74 Bicicletas:  Servicio Bicimad, para consultar la estación más cercana, acceda al mapa de geolocalización de las estaciones.","Ámbito de influencia:   Distrito de Retiro: Pacífico, Adelfas, Estrella, Ibiza, Jerónimos, Niño Jesús  Distrito de Salamanca: Recoletos, Goya, Fuente del Berro, Guindalera, Lista, Castellana  Los programas marco de salud de abordaje prioritario que desarrollan los Centros Municipales de Salud Comunitaria son:  Alimentación, actividad física y salud Salud sexual y reproductiva Promoción de la salud en el ámbito educativo Envejecimiento activo y saludable Salud materno-infantil Prevención y control del consumo de tabaco Promoción de Salud Mental Desigualdades sociales en salud  Los que se desarrollan actualmente los puede consultar en la Página Web de Madrid Salud",1,http://www.madrid.es/sites/v/index.jsp?vgnextchannel=bfa48ab43d6bb410VgnVCM100000171f5a0aRCRD&vgnextoid=2b434b6faa61c010VgnVCM1000000b205a0aRCRD,NUÑEZ DE BALBOA,CALLE,V,40,MADRID,MADRID,28001,1,Recoletos,https://wikidata.org/entity/Q3814551,4,Salamanca,https://wikidata.org/entity/Q1773521,442103,4475356,4,04E+16,-3,68E+16,CITACIONES: 913 601 530 / 913 697 721,cmssalamancaretiro@madrid.es,/contenido/entidadesYorganismos/CentrosAtencionMedica/CentrosPrevencionEnfermedades
8871,CMSc Centro Municipal de Salud Comunitaria Salud Tetuán,,"Antes de acudir, póngase en contacto teléfonico con el centro   Horario de verano: mañanas de 8 a 14 horas y tardes de 14 a 20 horas Este centro permanecerá cerrado en turno de tarde:   14 de agosto    Anticoncepción de urgencia. En periodo de verano, le sugerimos se ponga en contacto teléfonico con el centro para asegurar su atención.  Vacunación: con cita previa","Metro: Valdeacederas, Plaza de Castilla  Bus: 42 , 49 , 124 Bicicletas:  Servicio Bicimad, para consultar la estación más cercana, acceda al mapa de geolocalización de las estaciones.","Ámbito de influencia:   Distrito de Chamartín: Barrios de Hispanoamérica , Nueva España y Castilla Distrito de Tetuán.  Los programas marco de salud de abordaje prioritario que desarrollan los Centros Municipales de Salud Comunitaria son:  Alimentación, actividad física y salud Salud sexual y reproductiva Promoción de la salud en el ámbito educativo Envejecimiento activo y saludable Salud materno-infantil Prevención y control del consumo de tabaco Promoción de Salud Mental Desigualdades sociales en salud  Los que se desarrollan actualmente los puede consultar en la Página Web de Madrid Salud",1,http://www.madrid.es/sites/v/index.jsp?vgnextchannel=bfa48ab43d6bb410VgnVCM100000171f5a0aRCRD&vgnextoid=71734b6faa61c010VgnVCM1000000b205a0aRCRD,AGUILEÑAS,CALLE,V,1,MADRID,MADRID,28029,4,Almenara,https://wikidata.org/entity/Q2265427,6,Tetuán,https://wikidata.org/entity/Q1773540,441196,4479654,4,05E+15,-3,69E+16,CITACIONES: 915 886 675/ 915 886 689,cmstetuan@madrid.es,/contenido/entidadesYorganismos/CentrosAtencionMedica/CentrosPrevencionEnfermedades
4645539,CMSc Centro Municipal de Salud Comunitaria San Blas,,"Antes de acudir, póngase en contacto telefónico con el centro    Anticoncepción de urgencia. En periodo de verano, le sugerimos se ponga en contacto teléfonico con el centro para asegurar su atención. Prueba rápida del VIH con cita previa:mañanas de 9 a 13 horas, martes, miércoles y jueves por la tarde de 15 a 19 horas.   Horario de verano: mañanas de 8 a 14 horas y tardes de 14 a 20 horas Este centro permanecerá cerrado en turno de tarde:   del 24 al 28 de julio  del 7 al 25 de agosto  del 1 al 4 de septiembre","Autobus: 38, 48, 153 Metro: San Blas Bicicletas:  Servicio Bicimad, para consultar la estación más cercana, acceda al mapa de geolocalización de las estaciones.","Ámbito de influencia: Barrios de Simancas, Salvador, Hellín, Amposta, Arcos y Rosas Los programas marco de salud de abordaje prioritario que desarrollan los Centros Municipales de Salud Comunitaria son:  Alimentación, actividad física y salud Salud sexual y reproductiva Promoción de la salud en el ámbito educativo Envejecimiento activo y saludable Salud materno-infantil Prevención y control del consumo de tabaco Promoción de Salud Mental Desigualdades sociales en salud  Los que se desarrollan actualmente los puede consultar en la Página Web de Madrid Salud",1,http://www.madrid.es/sites/v/index.jsp?vgnextchannel=bfa48ab43d6bb410VgnVCM100000171f5a0aRCRD&vgnextoid=40b3b8facf715110VgnVCM1000000b205a0aRCRD,POBLADURA DEL VALLE,CALLE,V,13,MADRID,MADRID,28037,3,Amposta,https://wikidata.org/entity/Q11905392,20,San Blas-Canillejas,https://wikidata.org/entity/Q2001937,447403,4475213,4,04E+16,-3,62E+15,CITACIONES: 917 609 656/47,,/contenido/entidadesYorganismos/CentrosAtencionMedica/CentrosPrevencionEnfermedades
8878,CMSc Centro Municipal de Salud Comunitaria Usera,,"Atención a la ciudadanía con cita previa   Horario de verano: mañanas de 8 a 14 horas y tardes de 14 a 20 horas Este centro permanecerá cerrado en turno de tarde:   del 12 al 30 de julio  del 14 al 25 de agosto    Anticoncepción de urgencia. En periodo de verano, le sugerimos se ponga en contacto telefónico con el centro para asegurar su atención.","Bus: 6 , 60 , 78 , 81 Metro: Plaza Elíptica Bicicletas:  Servicio Bicimad, para consultar la estación más cercana, acceda al mapa de geolocalización de las estaciones.","Ámbito de influencia:   Distrito de Usera: Orcasitas, Orcasur, San Fermín, Almendrales, Moscardó, Zofío, Pradolongo  Los programas marco de salud de abordaje prioritario que desarrollan los Centros Municipales de Salud Comunitaria son:  Alimentación, actividad física y salud Salud sexual y reproductiva Promoción de la salud en el ámbito educativo Envejecimiento activo y saludable Salud materno-infantil Prevención y control del consumo de tabaco Promoción de Salud Mental Desigualdades sociales en salud  Los que se desarrollan actualmente los puede consultar en la Página Web de Madrid Salud",1,http://www.madrid.es/sites/v/index.jsp?vgnextchannel=bfa48ab43d6bb410VgnVCM100000171f5a0aRCRD&vgnextoid=c7934b6faa61c010VgnVCM1000000b205a0aRCRD,AVENA,CALLE,V,3,MADRID,MADRID,28026,6,El Zofío,https://wikidata.org/entity/Q71751,12,Usera,https://wikidata.org/entity/Q953368,439249,4469929,4,04E+15,-3,72E+16,CITACIONES: 914 609 850 / 914 607 200,cmsusera@madrid.es,/contenido/entidadesYorganismos/CentrosAtencionMedica/CentrosPrevencionEnfermedades
8877,CMSc Centro Municipal de Salud Comunitaria Vicálvaro,,"Antes de acudir, póngase en contacto teléfonico con el centro   Horario de verano: mañanas de 8 a 14 horas y tardes de 14 a 20 horas  Anticoncepción de urgencia. En periodo de verano, le sugerimos se ponga en contacto teléfonico con el centro para asegurar su atención.  Vacunación: con cita previa","Metro: Vicálvaro Bus: 4 , 100 , 106 , 130, E3 Bicicletas:  Servicio Bicimad, para consultar la estación más cercana, acceda al mapa de geolocalización de las estaciones.","Ámbito de influencia:   Distrito de Moratalaz: Pavones, Horcajo, Marroquina, Media Legua, Fontarrón, Vinateros    Distrito de Vicálvaro: Casco Histórico de Vicálvaro, Ambroz   Los programas marco de salud de abordaje prioritario que desarrollan los Centros Municipales de Salud Comunitaria son:  Alimentación, actividad física y salud Salud sexual y reproductiva Promoción de la salud en el ámbito educativo Envejecimiento activo y saludable Salud materno-infantil Prevención y control del consumo de tabaco Promoción de Salud Mental Desigualdades sociales en salud  Los que se desarrollan actualmente los puede consultar en la Página Web de Madrid Salud",1,http://www.madrid.es/sites/v/index.jsp?vgnextchannel=bfa48ab43d6bb410VgnVCM100000171f5a0aRCRD&vgnextoid=1eb34b6faa61c010VgnVCM1000000b205a0aRCRD,CALAHORRA,CALLE,V,11,MADRID,MADRID,28032,1,Casco Histórico de Vicálvaro,https://wikidata.org/entity/Q16544374,19,Vicálvaro,https://wikidata.org/entity/Q589403,448180,4473179,4,04E+15,-3,61E+15,Citaciones: 917 602 401 / 917 753 260 / 917 753 262,cmsvicalvaro@madrid.es,/contenido/entidadesYorganismos/CentrosAtencionMedica/CentrosPrevencionEnfermedades
8873,CMSc Centro Municipal de Salud Comunitaria Villa de Vallecas,,"Antes de acudir, póngase en contacto teléfonico con el centro   Horario de verano: mañanas de 8 a 14 horas y tardes de 14 a 20 horas Este centro permanecerá cerrado en turno de tarde:   del 7 al 18 de agosto    Anticoncepción de urgencia. En periodo de verano, le sugerimos se ponga en contacto teléfonico con el centro para asegurar su atención.  Vacunación: con cita previa","Metro: Villa de Vallecas Bus: 54 , 58 , 130 , 143 Bicicletas:  Servicio Bicimad, para consultar la estación más cercana, acceda al mapa de geolocalización de las estaciones.","Ámbito de influencia:   Distrito de Villa de Vallecas. Barrios:  Casco histórico de Vallecas Santa Eugenia Ensanche de Vallecas    Los programas marco de salud de abordaje prioritario que desarrollan los CMSc Centros Municipales de Salud Comunitaria son:  Alimentación, actividad física y salud Salud sexual y reproductiva Promoción de la salud en el ámbito educativo Envejecimiento activo y saludable Salud materno-infantil Prevención y control del consumo de tabaco Promoción de Salud Mental Desigualdades sociales en salud  Los que se desarrollan actualmente los puede consultar en la Página Web de Madrid Salud",1,http://www.madrid.es/sites/v/index.jsp?vgnextchannel=bfa48ab43d6bb410VgnVCM100000171f5a0aRCRD&vgnextoid=64e34b6faa61c010VgnVCM1000000b205a0aRCRD,SIERRA GADOR,CALLE,V,68,MADRID,MADRID,28031,1,Casco Histórico de Vallecas,https://wikidata.org/entity/Q16544370,18,Villa de Vallecas,https://wikidata.org/entity/Q1947988,447199,4470097,4,04E+15,-3,62E+15,CITACIONES: 917 791 312 / 913 807 910,cmsvallecasv@madrid.es,/contenido/entidadesYorganismos/CentrosAtencionMedica/CentrosPrevencionEnfermedades
6017257,CMSc Centro Municipal de Salud Comunitaria Villaverde,,"Antes de acudir, póngase en contacto teléfonico con el centro   Horario de verano: mañanas de 8 a 14 horas y tardes de 14 a 20 horas Este centro permanecerá cerrado en turno de tarde:   del 19 de junio al 15 de septiembre    Anticoncepción de urgencia. En periodo de verano, le sugerimos se ponga en contacto teléfonico con el centro para asegurar su atención.  Vacunación: con cita previa","Metro: Ciudad de los Ángeles salida calle Tertulia (L 3) Bus: 22, 23, 59, 85, 79 y 123 Renfe: Villaverde Bajo Bicicletas:  Servicio Bicimad, para consultar la estación más cercana, acceda al mapa de geolocalización de las estaciones.","Ámbito de influencia: Distrito Villaverde Barrios:  Villaverde Alto San Cristobal (San Cristobal de los Ángeles) Butarque (Nuevo Rosales) Los Rosales (Villaverde Bajo y El Espinillo) Los Ángeles (Ciudad de los Ángeles)  Los programas marco de salud de abordaje prioritario que desarrollan los CMSc Centros Municipales de Salud Comunitaria son:  Alimentación, actividad física y salud Salud sexual y reproductiva Promoción de la salud en el ámbito educativo Envejecimiento activo y saludable Salud materno-infantil Prevención y control del consumo de tabaco Promoción de Salud Mental Desigualdades sociales en salud  Los que se desarrollan actualmente los puede consultar en la Página Web de Madrid Salud",1,http://www.madrid.es/sites/v/index.jsp?vgnextchannel=bfa48ab43d6bb410VgnVCM100000171f5a0aRCRD&vgnextoid=df3d7f073900f210VgnVCM1000000b205a0aRCRD,FELICIDAD,AVENIDA,V,17,MADRID,MADRID,28041,4,Los Rosales,https://wikidata.org/entity/Q10319807,17,Villaverde,https://wikidata.org/entity/Q919536,441347,4467878,4,04E+15,-3,69E+15,Recepción: 914 80 49 39 / 915 88 92 60,cmsvillaverde@madrid.es,/contenido/entidadesYorganismos/CentrosAtencionMedica/CentrosPrevencionEnfermedades
9164,Complejo Hospitalario Ruber Juan Bravo,,,"Metro: Diego de León (líneas 4, 5 y 6), Núñez de Balboa (línea 5 y 9).  Bus: 29, 52.  Bicimad: Estaciones 144 (calle Juan Bravo, 50) y 143 (calle Diego de León, 52).  Aparcamiento: Díaz Porlier (60) calle Diego de León, 64.",,3,http://www.madrid.es/sites/v/index.jsp?vgnextchannel=bfa48ab43d6bb410VgnVCM100000171f5a0aRCRD&vgnextoid=91714b6faa61c010VgnVCM1000000b205a0aRCRD,JUAN BRAVO,CALLE,V,39,MADRID,MADRID,28006,5,Lista,https://wikidata.org/entity/Q4779,4,Salamanca,https://wikidata.org/entity/Q1773521,442513,4476005,4,04E+15,-3,68E+15,910 687 777 / 910 687 999,,/contenido/entidadesYorganismos/CentrosAtencionMedica/HospitalesClinicasSanatorios
11174884,Fundación Vianorte-Laguna,,,Metro: Laguna (línea 6).  Bus: 55.  Cercanías Renfe: Laguna (línea C5).,,3,http://www.madrid.es/sites/v/index.jsp?vgnextchannel=bfa48ab43d6bb410VgnVCM100000171f5a0aRCRD&vgnextoid=eb7f5be190212710VgnVCM1000001d4a900aRCRD,CONCEJAL FRANCISCO JOSE JIMENEZ MARTIN,CALLE,V,128,MADRID,MADRID,28047,3,Lucero,https://wikidata.org/entity/Q31162,10,Latina,https://wikidata.org/entity/Q794954,436609,4472480,4,04E+15,-3,75E+15,915 099 137,informa@lagunacuida.org,/contenido/entidadesYorganismos/CentrosAtencionMedica/HospitalesClinicasSanatorios
9133,Hospital Beata María Ana de Hermanas Hospitalarias,,,"Metro: Sainz de Baranda (línea 6 y 9), O'Donnell (línea 6).  Bus: 143, 156, 2, 30, 56, 15, 215.  Bicimad: Estaciones 63 (calle Ibiza, 62), 72 (calle Doctor Esquerdo, 99).",,3,http://www.madrid.es/sites/v/index.jsp?vgnextchannel=bfa48ab43d6bb410VgnVCM100000171f5a0aRCRD&vgnextoid=56211c7a2c61c010VgnVCM1000000b205a0aRCRD,DOCTOR ESQUERDO,CALLE,V,83,MADRID,MADRID,28007,3,Estrella,https://wikidata.org/entity/Q3773738,3,Retiro,https://wikidata.org/entity/Q2002296,443243,4474375,4,04E+14,-3,67E+16,914 097 423,,/contenido/entidadesYorganismos/CentrosAtencionMedica/HospitalesClinicasSanatorios
12025292,Hospital Cantoblanco,,,"Renfe Cercanías: C4, C4a, C4b",,3,http://www.madrid.es/sites/v/index.jsp?vgnextchannel=bfa48ab43d6bb410VgnVCM100000171f5a0aRCRD&vgnextoid=bfbd707bf0c68810VgnVCM1000001d4a900aRCRD,COLMENAR VIEJO,CARRETERA,V,,MADRID,MADRID,28049,,El Goloso,https://wikidata.org/entity/Q10271137,,Fuencarral-El Pardo,https://wikidata.org/entity/Q656196,441197,4487855,4,05E+15,-3,65E+15,915 867 556 / 915 867 558,/contenido/entidadesYorganismos/CentrosAtencionMedica/HospitalesClinicasSanatorios, 
9127,Hospital Carlos III,,,"Metro: Barrio del Pilar (línea 9)  Bus: 126, 64 127, 132",,3,http://www.madrid.es/sites/v/index.jsp?vgnextchannel=bfa48ab43d6bb410VgnVCM100000171f5a0aRCRD&vgnextoid=e8311c7a2c61c010VgnVCM1000000b205a0aRCRD,SINESIO DELGADO,CALLE,V,10,MADRID,MADRID,28029,5,La Paz,https://wikidata.org/entity/Q5869740,8,Fuencarral-El Pardo,https://wikidata.org/entity/Q656196,441011,4480715,4,05E+15,-3,70E+14,914 532 500,,/contenido/entidadesYorganismos/CentrosAtencionMedica/HospitalesClinicasSanatorios
9131,Hospital Central de la Cruz Roja San José y Santa Adela,,,"Metro: Guzmán el Bueno (líneas 6, 7), Cuatro Caminos (líneas 1, 2, 6)  Bus: 127, 45, C2, F, C1, 44",,3,http://www.madrid.es/sites/v/index.jsp?vgnextchannel=bfa48ab43d6bb410VgnVCM100000171f5a0aRCRD&vgnextoid=7b411c7a2c61c010VgnVCM1000000b205a0aRCRD,REINA VICTORIA,AVENIDA,V,22,MADRID,MADRID,28003,1,Bellas Vistas,https://wikidata.org/entity/Q11908929,6,Tetuán,https://wikidata.org/entity/Q1773540,440051,4477637,4,04E+16,-3,71E+16,914 538 300,,/contenido/entidadesYorganismos/CentrosAtencionMedica/HospitalesClinicasSanatorios
9118,Hospital Central de la Defensa Gómez Ulla,,,"Metro: Carabanchel (línea 5)  Bus: 17, 35",,3,http://www.madrid.es/sites/v/index.jsp?vgnextchannel=bfa48ab43d6bb410VgnVCM100000171f5a0aRCRD&vgnextoid=0e511c7a2c61c010VgnVCM1000000b205a0aRCRD,EJERCITO,GLORIETA,V,1,MADRID,MADRID,28047,4,Aluche,https://wikidata.org/entity/Q31140,10,Latina,https://wikidata.org/entity/Q794954,436724,4471089,4,04E+15,-3,75E+16,914 222 000,hcdgomezulla@oc.mde.es,/contenido/entidadesYorganismos/CentrosAtencionMedica/HospitalesClinicasSanatorios
9104,Hospital Clínico San Carlos,,,"Metro: Moncloa (líneas 3, 6), Vicente Aleixandre (línea 6), Islas Filipinas (línea 7)  Bus: C2, C1, 12, 44, 82, 132, 1, 62, 138  Bicimad: Estación 244 (Calle Isaac Peral, 44)",,3,http://www.madrid.es/sites/v/index.jsp?vgnextchannel=bfa48ab43d6bb410VgnVCM100000171f5a0aRCRD&vgnextoid=43811c7a2c61c010VgnVCM1000000b205a0aRCRD,PROFESOR MARTIN LAGOS,CALLE,V,2,MADRID,MADRID,28040,3,Ciudad Universitaria,https://wikidata.org/entity/Q3319235,9,Moncloa-Aravaca,https://wikidata.org/entity/Q2017682,439012,4476800,4,04E+15,-3,72E+15,913 303 000 / 913 303 001,buzgen.hcsc@salud.madrid.org,/contenido/entidadesYorganismos/CentrosAtencionMedica/HospitalesClinicasSanatorios
11298560,Hospital de Emergencias Enfermera Isabel Zendal,,,"Renfe Cercanías: Valdebebas (línea C1)  Bus: SE709, BR1",,3,http://www.madrid.es/sites/v/index.jsp?vgnextchannel=bfa48ab43d6bb410VgnVCM100000171f5a0aRCRD&vgnextoid=159467d7b2cd6710VgnVCM2000001f4a900aRCRD,MANUEL FRAGA IRIBARNE,AVENIDA,V,2,MADRID,MADRID,28055,4,Timón,https://wikidata.org/entity/Q10382570,21,Barajas,https://wikidata.org/entity/Q807230,448461,4481639,4,05E+15,-3,61E+15,917 996 300,,/contenido/entidadesYorganismos/CentrosAtencionMedica/HospitalesClinicasSanatorios
9135,Hospital de la VOT de San Francisco de Asís,,,"Metro: Puerta de Toledo (línea 5).  Bus: 148, 3, 60, C1,  C2.  Bicimad: Estaciones 37 (plaza de San Francisco, 5) y 45 (glorieta de la Puerta de Toledo, 1), 38 (carrera de San Francisco, 1).  Aparcamientos: Parking VOT (97), calle Ventosa, La Latina (86), calle de Toledo, Puerta Toledo (64), glorieta Puerta de Toledo con vuelta Capitán Salazar Martínez.",,3,http://www.madrid.es/sites/v/index.jsp?vgnextchannel=bfa48ab43d6bb410VgnVCM100000171f5a0aRCRD&vgnextoid=8dc11c7a2c61c010VgnVCM1000000b205a0aRCRD,SAN BERNABE,CALLE,V,13,MADRID,MADRID,28005,1,Palacio,https://wikidata.org/entity/Q2136510,1,Centro,https://wikidata.org/entity/Q1763376,439424,4473404,4,04E+16,-3,71E+15,910 791 516,info@hospitalvot.org,/contenido/entidadesYorganismos/CentrosAtencionMedica/HospitalesClinicasSanatorios
10131886,Hospital Doctor Rodríguez Lafora,,,"Bus (interurbanos): 711, 712, 713, 716, 717, 721, 722, 724, 725, 726 (todos ellos con salida en el intercambiador de Plaza de Castilla).",,3,http://www.madrid.es/sites/v/index.jsp?vgnextchannel=bfa48ab43d6bb410VgnVCM100000171f5a0aRCRD&vgnextoid=7efb00c34d907510VgnVCM2000001f4a900aRCRD,COLMENAR VIEJO,CARRETERA,V,,MADRID,MADRID,28049,,Valverde,https://wikidata.org/entity/Q31132,,Fuencarral-El Pardo,https://wikidata.org/entity/Q656196,441896,4481341,4,04E+16,-3,71E+15,915 867 500,,/contenido/entidadesYorganismos/CentrosAtencionMedica/HospitalesClinicasSanatorios
9098,Hospital General Universitario Gregorio Marañón,,,"Metro: O&amp,acute,Donnell (línea 6)  Bus: 143, 156, 2, 30, 56  Bicimad: Estación 63 (calle Ibiza, 62)",,3,http://www.madrid.es/sites/v/index.jsp?vgnextchannel=bfa48ab43d6bb410VgnVCM100000171f5a0aRCRD&vgnextoid=7a221c7a2c61c010VgnVCM1000000b205a0aRCRD,DOCTOR ESQUERDO,CALLE,V,46,MADRID,MADRID,28007,4,Ibiza,https://wikidata.org/entity/Q15249910,3,Retiro,https://wikidata.org/entity/Q2002296,443211,4474518,4,04E+14,-3,67E+16,915 868 000,gcomunicacion.hgugm@salud.madrid.org,/contenido/entidadesYorganismos/CentrosAtencionMedica/HospitalesClinicasSanatorios
7389333,Hospital Hestia Madrid,,,Cercanias C4B.,,3,http://www.madrid.es/sites/v/index.jsp?vgnextchannel=bfa48ab43d6bb410VgnVCM100000171f5a0aRCRD&vgnextoid=4dbba2ff906b4410VgnVCM2000000c205a0aRCRD,M-607,CARRETERA,T,1600,MADRID,MADRID,28049,8,El Goloso,https://wikidata.org/entity/Q10271137,8,Fuencarral-El Pardo,https://wikidata.org/entity/Q656196,440721,4487960,4,05E+16,-3,70E+16,917 340 500,,/contenido/entidadesYorganismos/CentrosAtencionMedica/HospitalesClinicasSanatorios
9166,Hospital HLA Universitario Moncloa,,,"Bus: 46, 106, 161, A.",,3,http://www.madrid.es/sites/v/index.jsp?vgnextchannel=bfa48ab43d6bb410VgnVCM100000171f5a0aRCRD&vgnextoid=1dd04b6faa61c010VgnVCM1000000b205a0aRCRD,VALLADOLID,AVENIDA,V,83,MADRID,MADRID,28008,1,Casa de Campo,https://wikidata.org/entity/Q16302441,9,Moncloa-Aravaca,https://wikidata.org/entity/Q2017682,437763,4476097,4,04E+15,-3,73E+15,917 581 196 / 915 957 000,,/contenido/entidadesYorganismos/CentrosAtencionMedica/HospitalesClinicasSanatorios
9151,Hospital HM Nuevo Belén,,,"Metro: Arturo Soria (línea 4).  Bus: 120, 122, 11, 70.",,3,http://www.madrid.es/sites/v/index.jsp?vgnextchannel=bfa48ab43d6bb410VgnVCM100000171f5a0aRCRD&vgnextoid=32014b6faa61c010VgnVCM1000000b205a0aRCRD,JOSE SILVA,CALLE,V,7,MADRID,MADRID,28043,6,San Juan Bautista,https://wikidata.org/entity/Q165609,15,Ciudad Lineal,https://wikidata.org/entity/Q1763694,444235,4478477,4,05E+16,-3,66E+15,917 444 100 / 800 088 050,atpaciente.hmb@hmhospitales.com,/contenido/entidadesYorganismos/CentrosAtencionMedica/HospitalesClinicasSanatorios
9099,Hospital Infantil Universitario Niño Jesús,,,"Metro: Ibiza (línea 9), Sainz de Baranda (líneas 6, 9)  Bus: 20, 26, 63, 152, C2, C1, 61  Bicimad: Estación 83 (calle Pío Baroja, 10) / Estación 70 (Avenida Menéndez Pelayo, 63)",,3,http://www.madrid.es/sites/v/index.jsp?vgnextchannel=bfa48ab43d6bb410VgnVCM100000171f5a0aRCRD&vgnextoid=42621c7a2c61c010VgnVCM1000000b205a0aRCRD,MENENDEZ PELAYO,AVENIDA,V,65,MADRID,MADRID,28009,6,Niño Jesús,https://wikidata.org/entity/Q3773746,3,Retiro,https://wikidata.org/entity/Q2002296,442563,4473913,4,04E+16,-3,68E+14,915 035 900 (centralita),,/contenido/entidadesYorganismos/CentrosAtencionMedica/HospitalesClinicasSanatorios
9155,Hospital La Luz,,,"Metro: Guzmán el Bueno (líneas 6 y 7).  Bus: 2, 44  Bicimad: Estaciones 203 (calle General Ampudia, 2), 256 (calle Beatriz de Bobadilla, 2).",,3,http://www.madrid.es/sites/v/index.jsp?vgnextchannel=bfa48ab43d6bb410VgnVCM100000171f5a0aRCRD&vgnextoid=d2904b6faa61c010VgnVCM1000000b205a0aRCRD,MAESTRO ANGEL LLORCA,CALLE,V,8,MADRID,MADRID,28003,6,Vallehermoso,https://wikidata.org/entity/Q6122685,7,Chamberí,https://wikidata.org/entity/Q1763370,439450,4477295,4,04E+15,-3,71E+16,914 530 303,info.laluz@quironsalud.es,/contenido/entidadesYorganismos/CentrosAtencionMedica/HospitalesClinicasSanatorios
9142,Hospital La Milagrosa,,,"Metro: Alonso Cano (línea 7), Iglesia (línea 1), Gregorio Marañón (líneas 7 y 10).  Bus: 12, 5.  Bicimad:  Estaciones 129 (calle José Abascal, 33) y 125 (calle Fernández de la Hoz, 29).",,3,http://www.madrid.es/sites/v/index.jsp?vgnextchannel=bfa48ab43d6bb410VgnVCM100000171f5a0aRCRD&vgnextoid=65a04b6faa61c010VgnVCM1000000b205a0aRCRD,MODESTO LAFUENTE,CALLE,V,14,MADRID,MADRID,28010,4,Almagro,https://wikidata.org/entity/Q10954432,7,Chamberí,https://wikidata.org/entity/Q1763370,440946,4476497,4,04E+16,-3,70E+15,914 472 100,secretaria.lamilagrosa@vithas.es,/contenido/entidadesYorganismos/CentrosAtencionMedica/HospitalesClinicasSanatorios
9145,Hospital Quirónsalud San José,,,"Metro: Cartagena (línea 7), Avenida de América (líneas 4, 6, 7 y 9).  Bus: 1, 72.  Bicimad: Estación 195 (calle Padre Indalecio Hernández, 1).",,3,http://www.madrid.es/sites/v/index.jsp?vgnextchannel=bfa48ab43d6bb410VgnVCM100000171f5a0aRCRD&vgnextoid=49a14b6faa61c010VgnVCM1000000b205a0aRCRD,CARTAGENA,CALLE,V,111,MADRID,MADRID,28002,2,Prosperidad,https://wikidata.org/entity/Q4776,5,Chamartín,https://wikidata.org/entity/Q1766348,442797,4476873,4,04E+15,-3,67E+15,910 687 000,,/contenido/entidadesYorganismos/CentrosAtencionMedica/HospitalesClinicasSanatorios
9137,Hospital Ruber Internacional,,,"Metro: Mirasierra (línea 9).  Bus: 134, 49.",,3,http://www.madrid.es/sites/v/index.jsp?vgnextchannel=bfa48ab43d6bb410VgnVCM100000171f5a0aRCRD&vgnextoid=1fb21c7a2c61c010VgnVCM1000000b205a0aRCRD,LA MASO,CALLE,V,38,MADRID,MADRID,28034,7,Mirasierra,https://wikidata.org/entity/Q31134,8,Fuencarral-El Pardo,https://wikidata.org/entity/Q656196,439395,4482306,4,05E+15,-3,72E+15,913 875 000,,/contenido/entidadesYorganismos/CentrosAtencionMedica/HospitalesClinicasSanatorios
9134,Hospital San Rafael,,,"Metro: Concha Espina (línea 9).  Bus: 51, 7, 120, 43.  Bicimad: Estación 148 (calle Serrano, 210).",,3,http://www.madrid.es/sites/v/index.jsp?vgnextchannel=bfa48ab43d6bb410VgnVCM100000171f5a0aRCRD&vgnextoid=a1d21c7a2c61c010VgnVCM1000000b205a0aRCRD,SERRANO,CALLE,V,199,MADRID,MADRID,28016,4,Hispanoamérica,https://wikidata.org/entity/Q3814573,5,Chamartín,https://wikidata.org/entity/Q1766348,442213,4478144,4,05E+15,-3,68E+16,915 649 943,hsrmadrid.secretaria@sjd.es,/contenido/entidadesYorganismos/CentrosAtencionMedica/HospitalesClinicasSanatorios
9106,Hospital Universitario 12 de Octubre,,,"Metro: Hospital 12 octubre (línea 3)  Bus: 81, 121  Renfe: Doce de Octubre",,3,http://www.madrid.es/sites/v/index.jsp?vgnextchannel=bfa48ab43d6bb410VgnVCM100000171f5a0aRCRD&vgnextoid=1c031c7a2c61c010VgnVCM1000000b205a0aRCRD,CORDOBA,AVENIDA,V,41,MADRID,MADRID,28041,2,Orcasur,https://wikidata.org/entity/Q10341270,12,Usera,https://wikidata.org/entity/Q953368,440935,4469975,4,04E+15,-3,70E+16,913 908 000,,/contenido/entidadesYorganismos/CentrosAtencionMedica/HospitalesClinicasSanatorios
9100,Hospital Universitario de  La Princesa,,,"Metro: Diego de León (líneas 4, 5, 6)  Bus: 61, 56, 26, 210, 72, 73, 12, C2, C1  Bicimad: estación 191 (calle Alonso Heredia, 1)  Aparcamiento: Díaz Porlier (60), calle Diego de León, 64 (Príncipe de Vergara - Conde de Peñalver)",,3,http://www.madrid.es/sites/v/index.jsp?vgnextchannel=bfa48ab43d6bb410VgnVCM100000171f5a0aRCRD&vgnextoid=f3331c7a2c61c010VgnVCM1000000b205a0aRCRD,DIEGO DE LEON,CALLE,V,62,MADRID,MADRID,28006,5,Lista,https://wikidata.org/entity/Q4779,4,Salamanca,https://wikidata.org/entity/Q1773521,442687,4476195,4,04E+15,-3,68E+15,915 202 200,,/contenido/entidadesYorganismos/CentrosAtencionMedica/HospitalesClinicasSanatorios
9130,Hospital Universitario Fundación Jiménez Díaz,,,"Metro: Islas Filipinas (línea 7) y Moncloa (líneas 3, 6)  Bus: 1, C2, C1, 12, 44, 82, 132, 138, 62  Bicimad: Estación 244 (Calle Isaac Peral, 44)",,3,http://www.madrid.es/sites/v/index.jsp?vgnextchannel=bfa48ab43d6bb410VgnVCM100000171f5a0aRCRD&vgnextoid=c4114b6faa61c010VgnVCM1000000b205a0aRCRD,REYES CATOLICOS,AVENIDA,V,2,MADRID,MADRID,28040,3,Ciudad Universitaria,https://wikidata.org/entity/Q3319235,9,Moncloa-Aravaca,https://wikidata.org/entity/Q2017682,439030,4476683,4,04E+15,-3,72E+15,915 504 800,,/contenido/entidadesYorganismos/CentrosAtencionMedica/HospitalesClinicasSanatorios
9136,Hospital Universitario HM Madrid,,,"Metro: San Bernardo (líneas 2, 4), Quevedo (línea 2).  Bus: 16, 61.  Bicimad: Estaciones 3 (Plaza del Conde del Valle de Suchil, 3), 127 (calle Fernando el Católico, 19), 200 (glorieta de Quevedo, 5).",,3,http://www.madrid.es/sites/v/index.jsp?vgnextchannel=bfa48ab43d6bb410VgnVCM100000171f5a0aRCRD&vgnextoid=10e11c7a2c61c010VgnVCM1000000b205a0aRCRD,CONDE DEL VALLE DE SUCHIL,PLAZA,V,16,MADRID,MADRID,28015,2,Arapiles,https://wikidata.org/entity/Q10856744,7,Chamberí,https://wikidata.org/entity/Q1763370,440048,4475872,4,04E+15,-3,71E+16,914 476 600 / 800 088 050,atpaciente.hm@hmhospitales.com,/contenido/entidadesYorganismos/CentrosAtencionMedica/HospitalesClinicasSanatorios
4820572,Hospital Universitario Infanta Leonor,,,"Metro: Sierra de Guadalupe (línea 1)    Bus: H1, 58, 145, E, 130  Cercanías: Vallecas (C1, C2, C7)",,3,http://www.madrid.es/sites/v/index.jsp?vgnextchannel=bfa48ab43d6bb410VgnVCM100000171f5a0aRCRD&vgnextoid=f56815a5c9478110VgnVCM1000000b205a0aRCRD,GRAN VIA DEL ESTE,AVENIDA,V,80,MADRID,MADRID,28031,2,Santa Eugenia,https://wikidata.org/entity/Q390463,18,Villa de Vallecas,https://wikidata.org/entity/Q1947988,447495,4470713,4,04E+15,-3,62E+15,911 918 000,,/contenido/entidadesYorganismos/CentrosAtencionMedica/HospitalesClinicasSanatorios
9105,Hospital Universitario la Paz,,,"Metro: Begoña (línea 10)  Bus: 173, 175, 176, 178, 124, 134, 135, 67, 174",,3,http://www.madrid.es/sites/v/index.jsp?vgnextchannel=bfa48ab43d6bb410VgnVCM100000171f5a0aRCRD&vgnextoid=61231c7a2c61c010VgnVCM1000000b205a0aRCRD,CASTELLANA,PASEO,V,261,MADRID,MADRID,28046,5,La Paz,https://wikidata.org/entity/Q5869740,8,Fuencarral-El Pardo,https://wikidata.org/entity/Q656196,441867,4481322,4,05E+15,-3,69E+15,917 277 000,,/contenido/entidadesYorganismos/CentrosAtencionMedica/HospitalesClinicasSanatorios
9163,Hospital Universitario La Zarzuela,,,"Bus: 161, 160.",,3,http://www.madrid.es/sites/v/index.jsp?vgnextchannel=bfa48ab43d6bb410VgnVCM100000171f5a0aRCRD&vgnextoid=67821c7a2c61c010VgnVCM1000000b205a0aRCRD,PLEYADES,CALLE,V,25,MADRID,MADRID,28023,7,Aravaca,https://wikidata.org/entity/Q3314682,9,Moncloa-Aravaca,https://wikidata.org/entity/Q2017682,433525,4479376,4,05E+15,-3,78E+16,9158 58 000,,/contenido/entidadesYorganismos/CentrosAtencionMedica/HospitalesClinicasSanatorios
9140,Hospital Universitario Nuestra Señora del Rosario,,,"Metro: Núñez de Balboa (línea 5 y 9), Lista (línea 4), Diego de León (líneas 4, 5 y 6).  Bus: 29, 52.  Bicimad: Estaciones 143 (calle Diego de León, 52) y 109 (calle José Ortega y Gasset, 30).  Aparcamiento: Marqués de Salamanca (25), plaza Marqués de Salamanca.",,3,http://www.madrid.es/sites/v/index.jsp?vgnextchannel=bfa48ab43d6bb410VgnVCM100000171f5a0aRCRD&vgnextoid=91e9224e0d61c010VgnVCM1000000b205a0aRCRD,PRINCIPE DE VERGARA,CALLE,V,53,MADRID,MADRID,28006,6,Castellana,https://wikidata.org/entity/Q4781,4,Salamanca,https://wikidata.org/entity/Q1773521,442341,4475932,4,04E+15,-3,68E+15,914 359 100,info@hospitalrosario.com,/contenido/entidadesYorganismos/CentrosAtencionMedica/HospitalesClinicasSanatorios
9102,Hospital Universitario Ramón y Cajal,,,"Metro: Begoña (línea 10)  Bus: 125, 135, 165, 166  Cercanías Renfe: Ramón y Cajal (líneas C3, C7, C8, Regional)",,3,http://www.madrid.es/sites/v/index.jsp?vgnextchannel=bfa48ab43d6bb410VgnVCM100000171f5a0aRCRD&vgnextoid=8ca21c7a2c61c010VgnVCM1000000b205a0aRCRD,SAN MODESTO,CALLE,V,50,MADRID,MADRID,28034,6,Valverde,https://wikidata.org/entity/Q31132,8,Fuencarral-El Pardo,https://wikidata.org/entity/Q656196,441183,4482120,4,05E+16,-3,69E+15,913 368 000,,/contenido/entidadesYorganismos/CentrosAtencionMedica/HospitalesClinicasSanatorios
9144,Hospital Universitario San Francisco de Asís,,,"Metro: República Argentina (línea 6).  Bus: C1, C2, 16, 19, 51.",,3,http://www.madrid.es/sites/v/index.jsp?vgnextchannel=bfa48ab43d6bb410VgnVCM100000171f5a0aRCRD&vgnextoid=b60a224e0d61c010VgnVCM1000000b205a0aRCRD,JOAQUIN COSTA,CALLE,V,28,MADRID,MADRID,28002,1,El Viso,https://wikidata.org/entity/Q4778,5,Chamartín,https://wikidata.org/entity/Q1766348,442071,4477098,4,04E+15,-3,68E+16,915 617 100,hsfda@hsfda.com,/contenido/entidadesYorganismos/CentrosAtencionMedica/HospitalesClinicasSanatorios
176770,Hospital Universitario Sanitas La Moraleja,,,Metro: Blasco Ibáñez (ML1).  Bus: 173.,,3,http://www.madrid.es/sites/v/index.jsp?vgnextchannel=bfa48ab43d6bb410VgnVCM100000171f5a0aRCRD&vgnextoid=34e21c7a2c61c010VgnVCM1000000b205a0aRCRD,FRANCISCO PI Y MARGALL,AVENIDA,V,81,MADRID,MADRID,28050,6,Valdefuentes,https://wikidata.org/entity/Q10388714,16,Hortaleza,https://wikidata.org/entity/Q1928529,443860,4482607,4,05E+15,-3,66E+15,917 679 100,,/contenido/entidadesYorganismos/CentrosAtencionMedica/HospitalesClinicasSanatorios
9110,Hospital Universitario Santa Cristina,Fue inaugurado en 1926 por el Rey Alfonso XIII y la Reina Victoria Eugenia. Fruto de la arquitectura civil de principios del siglo XX el edificio fue declarado monumento artístico de interés cultural por el gobierno de la nación. (Real Decreto 984/1999 de 4 de junio).,,"Metro: O&amp,acute,Donnell (línea 6)  Bus: 28, 203, E2, E3, 143, 156, 2, 30, 56, 71, E4  Bicimad: Estación 62 (calle O'Donnell, 50)",,3,http://www.madrid.es/sites/v/index.jsp?vgnextchannel=bfa48ab43d6bb410VgnVCM100000171f5a0aRCRD&vgnextoid=19531c7a2c61c010VgnVCM1000000b205a0aRCRD,MAESTRO VIVES,CALLE,V,3,MADRID,MADRID,28009,2,Goya,https://wikidata.org/entity/Q3814578,4,Salamanca,https://wikidata.org/entity/Q1773521,443072,4474794,4,04E+15,-3,67E+16,91 5 574 300,,/contenido/entidadesYorganismos/CentrosAtencionMedica/HospitalesClinicasSanatorios
9156,Hospital Viamed Fuensanta,,,"Metro: Ciudad Lineal (línea 5).  Bus: 70, 146, 48.",,3,http://www.madrid.es/sites/v/index.jsp?vgnextchannel=bfa48ab43d6bb410VgnVCM100000171f5a0aRCRD&vgnextoid=bd604b6faa61c010VgnVCM1000000b205a0aRCRD,ARTURO SORIA,CALLE,V,17,MADRID,MADRID,28027,3,Quintana,https://wikidata.org/entity/Q71810,15,Ciudad Lineal,https://wikidata.org/entity/Q1763694,445723,4476812,4,04E+15,-3,64E+16,900 907 950,,/contenido/entidadesYorganismos/CentrosAtencionMedica/HospitalesClinicasSanatorios
9152,Hospital Viamed Santa Elena,,,"Metro: Vicente Aleixandre (línea 6), Guzmán el Bueno (líneas 6 y 7).  Bus: C1, 132, C2, F.",,3,http://www.madrid.es/sites/v/index.jsp?vgnextchannel=bfa48ab43d6bb410VgnVCM100000171f5a0aRCRD&vgnextoid=6ec14b6faa61c010VgnVCM1000000b205a0aRCRD,GRANJA,CALLE,V,8,MADRID,MADRID,28003,6,Vallehermoso,https://wikidata.org/entity/Q6122685,7,Chamberí,https://wikidata.org/entity/Q1763370,439187,4477477,4,04E+15,-3,72E+15,914 539 400,,/contenido/entidadesYorganismos/CentrosAtencionMedica/HospitalesClinicasSanatorios
9141,Hospital Virgen de La Paloma,,,"Metro: Guzmán el Bueno (línea 6 y 7), Vicente Aleixandre (línea 6).  Bus: 45, 2, C1, F.  Bicimad: Estación 256 (calle Beatriz de Bobadilla, 2).",,3,http://www.madrid.es/sites/v/index.jsp?vgnextchannel=bfa48ab43d6bb410VgnVCM100000171f5a0aRCRD&vgnextoid=53a31c7a2c61c010VgnVCM1000000b205a0aRCRD,LOMA,CALLE,V,1,MADRID,MADRID,28003,6,Vallehermoso,https://wikidata.org/entity/Q6122685,7,Chamberí,https://wikidata.org/entity/Q1763370,439282,4477434,4,04E+16,-3,72E+16,915 348 207,,/contenido/entidadesYorganismos/CentrosAtencionMedica/HospitalesClinicasSanatorios
9103,Hospital Virgen de La Torre,,,"Metro: Villa de Vallecas (línea 1)  Bus: 54, 58, 103, 142",,3,http://www.madrid.es/sites/v/index.jsp?vgnextchannel=bfa48ab43d6bb410VgnVCM100000171f5a0aRCRD&vgnextoid=78c31c7a2c61c010VgnVCM1000000b205a0aRCRD,PUERTO DE LUMBRERAS,CALLE,V,5,MADRID,MADRID,28031,1,Casco Histórico de Vallecas,https://wikidata.org/entity/Q16544370,18,Villa de Vallecas,https://wikidata.org/entity/Q1947988,447448,4470245,4,04E+15,-3,62E+16,911 918 000,,/contenido/entidadesYorganismos/CentrosAtencionMedica/HospitalesClinicasSanatorios
9143,Hospital Virgen del Mar,,,"Metro: Colombia (líneas 8 y 9).  Bus: 11, 40, 16, 29, 51, 150.  Bicimad: Estación 254 (avenida Pío XII, 3).  Aparcamiento: República Dominicana (61), plaza República Dominicana, calle Costa Rica y calle Alberto Alcocer.",,3,http://www.madrid.es/sites/v/index.jsp?vgnextchannel=bfa48ab43d6bb410VgnVCM100000171f5a0aRCRD&vgnextoid=24f9224e0d61c010VgnVCM1000000b205a0aRCRD,HONDURAS,CALLE,V,14,MADRID,MADRID,28016,5,Nueva España,https://wikidata.org/entity/Q10338128,5,Chamartín,https://wikidata.org/entity/Q1766348,442468,4478986,4,05E+15,-3,68E+15,913 539 500,,/contenido/entidadesYorganismos/CentrosAtencionMedica/HospitalesClinicasSanatorios
4897073,Hospital Vithas Madrid Aravaca,,,Bus: 161.,,3,http://www.madrid.es/sites/v/index.jsp?vgnextchannel=bfa48ab43d6bb410VgnVCM100000171f5a0aRCRD&vgnextoid=54747d4d00089110VgnVCM2000000c205a0aRCRD,LA SALLE,CALLE,V,12,MADRID,MADRID,28023,5,Valdemarín,https://wikidata.org/entity/Q10388725,9,Moncloa-Aravaca,https://wikidata.org/entity/Q2017682,433581,4479812,4,05E+15,-3,78E+15,915 129 000,,/contenido/entidadesYorganismos/CentrosAtencionMedica/HospitalesClinicasSanatorios
8924,Instituto Provincial de Oftalmología,,,"Metro: Rubén Darío (línea 5).  Bus: 7, 147, 40.  Bicimad: Estaciones 198 (paseo de la Castellana, 33), 122 (calle Santa Engracia, 14).  Aparcamiento: Almagro (12) calle Almagro, 11.",,3,http://www.madrid.es/sites/v/index.jsp?vgnextchannel=bfa48ab43d6bb410VgnVCM100000171f5a0aRCRD&vgnextoid=f8151c7a2c61c010VgnVCM1000000b205a0aRCRD,GENERAL ARRANDO,CALLE,V,17,MADRID,MADRID,28010,4,Almagro,https://wikidata.org/entity/Q10954432,7,Chamberí,https://wikidata.org/entity/Q1763370,441216,4475919,4,04E+16,-3,69E+16,915 867 307 (Información) / 915 867 339 (Atención al paciente),,/contenido/entidadesYorganismos/CentrosAtencionMedica/CentrosEspecialidadesMedicas
8923,Instituto Provincial de Rehabilitación,,,"Metro: Diego de León (líneas 4, 5 y 6).  Bus: 43, 48, 12, 210, 56, C2, C1, 26, 61, 1, 74.  Bicimad: Estaciones 191 (calle Alonso Heredia, 1), 192 (avenida  de los Toreros, 3).  Aparcamiento: Díaz Porlier (60) calle Diego de León, 64.",,3,http://www.madrid.es/sites/v/index.jsp?vgnextchannel=bfa48ab43d6bb410VgnVCM100000171f5a0aRCRD&vgnextoid=8b251c7a2c61c010VgnVCM1000000b205a0aRCRD,FRANCISCO SILVELA,CALLE,V,40,MADRID,MADRID,28028,4,La Guindalera,https://wikidata.org/entity/Q3814559,4,Salamanca,https://wikidata.org/entity/Q1773521,442940,4476047,4,04E+16,-3,67E+15,Centralita: 915 868 000 / Atención al paciente: 915 868 556 y 915 868 557,,/contenido/entidadesYorganismos/CentrosAtencionMedica/CentrosEspecialidadesMedicas
25900,Laboratorio de Análisis Clínicos,,"Secretaría: de lunes a viernes de 8 a 14 horas Extracciones sanguineas: lunes, martes y miercoles de 8:30 a 10:30 horas sin cita previa","Metro: L2 y L6 (Manuel Becerra), L4 (Lista)Bus: 1 , 2 , 12 , 21 , 43 , 48 , 53 , 56 , 74 , 146 , 210 , Línea C Bicicletas:  Servicio Bicimad, para consultar la estación más cercana, acceda al mapa de geolocalización de las estaciones.",,1,http://www.madrid.es/sites/v/index.jsp?vgnextchannel=bfa48ab43d6bb410VgnVCM100000171f5a0aRCRD&vgnextoid=74ed92355c51c010VgnVCM2000000c205a0aRCRD,MONTESA,CALLE,NUM,22,MADRID,MADRID,28006,5,Lista,https://wikidata.org/entity/Q4779,4,Salamanca,https://wikidata.org/entity/Q1773521,443095,4475795,4,04E+16,-3,67E+16,914 803 549/ 914 803 550,mspanalisis@madrid.es,/contenido/entidadesYorganismos/CentrosAtencionMedica/CentrosEspecialidadesMedicas
10168171,MD Anderson Cancer Center Madrid,,,"Bus: 107, 29, 7.",,3,http://www.madrid.es/sites/v/index.jsp?vgnextchannel=bfa48ab43d6bb410VgnVCM100000171f5a0aRCRD&vgnextoid=b34c7f53ae1e7510VgnVCM2000001f4a900aRCRD,ARTURO SORIA,CALLE,V,270,MADRID,MADRID,28033,9,Costillares,https://wikidata.org/entity/Q331385,15,Ciudad Lineal,https://wikidata.org/entity/Q1763694,443487,4480155,4,05E+15,-3,67E+15,912 777 220,info@mdanderson.es,/contenido/entidadesYorganismos/CentrosAtencionMedica/HospitalesClinicasSanatorios
9175,Organización Nacional de Trasplantes,,,"Metro: Begoña (línea 10),  Chamartín (línea 1, 10)  Bus: 147, 42  Renfe: Chamartin",,3,http://www.madrid.es/sites/v/index.jsp?vgnextchannel=bfa48ab43d6bb410VgnVCM100000171f5a0aRCRD&vgnextoid=d2071c7a2c61c010VgnVCM1000000b205a0aRCRD,SINESIO DELGADO,CALLE,V,6,MADRID,MADRID,28029,4,Almenara,https://wikidata.org/entity/Q2265427,6,Tetuán,https://wikidata.org/entity/Q1773540,441690,4480603,4,05E+15,-3,69E+15,917 278 699,ont@sanidad.gob.es,/contenido/entidadesYorganismos/CentrosAtencionMedica/OtrosCentrosMedicos
9147,Sanatorio Esquerdo,,,"Metro: Aluche (línea 5).  Bus: 121, 131, 139.   Cercanías Renfe: Aluche (línea C5).",,3,http://www.madrid.es/sites/v/index.jsp?vgnextchannel=bfa48ab43d6bb410VgnVCM100000171f5a0aRCRD&vgnextoid=7cb9224e0d61c010VgnVCM1000000b205a0aRCRD,POBLADOS,AVENIDA,V,70,MADRID,MADRID,28044,7,Las Águilas,https://wikidata.org/entity/Q5971372,10,Latina,https://wikidata.org/entity/Q794954,435667,4470423,4,04E+15,-3,76E+16,917 061 100,,/contenido/entidadesYorganismos/CentrosAtencionMedica/HospitalesClinicasSanatorios
8835,Servicio de Inmunoprofilaxis de la Rabia Humana,,De lunes a viernes de 8:30 a 14:00 horas,"Metro: Manuel BecerraBus: 1 , 2 , 12 , 21 , 43 , 48 , 53 , 56 , 74 , 146 , 210 , C",,1,http://www.madrid.es/sites/v/index.jsp?vgnextchannel=bfa48ab43d6bb410VgnVCM100000171f5a0aRCRD&vgnextoid=706f34c0e2c5f010VgnVCM2000000c205a0aRCRD,MONTESA,CALLE,V,22,MADRID,MADRID,28006,5,Lista,https://wikidata.org/entity/Q4779,4,Salamanca,https://wikidata.org/entity/Q1773521,442986,4475588,4,04E+16,-3,67E+16,914 801 360,msconsultadelviajero@madrid.es,/contenido/entidadesYorganismos/CentrosAtencionMedica/CentrosPrevencionEnfermedades
7318822,Unidad de Salud Mental de niños y adolescentes Fuencarral,,Consultar telefónicamente.,"Metro: Antonio Machado (línea 7).  Bus: 42, 127, 132.",,3,http://www.madrid.es/sites/v/index.jsp?vgnextchannel=bfa48ab43d6bb410VgnVCM100000171f5a0aRCRD&vgnextoid=2cef244e96704410VgnVCM2000000c205a0aRCRD,CANDIDO MATEOS,CALLE,V,11,MADRID,MADRID,28035,3,Peñagrande,https://wikidata.org/entity/Q3319582,8,Fuencarral-El Pardo,https://wikidata.org/entity/Q656196,439135,4480478,4,05E+15,-3,72E+16,913 733 597 / 913 733 977,,/contenido/entidadesYorganismos/CentrosAtencionMedica/CentrosSaludMental
4795428,Unidad móvil Madroño,,"De lunes a viernes de 11:30 a 14 horas Sábado, domingo y festivo de 12:30 a 14 horas",,,1,http://www.madrid.es/sites/v/index.jsp?vgnextchannel=bfa48ab43d6bb410VgnVCM100000171f5a0aRCRD&vgnextoid=d360361d139f7110VgnVCM1000000b205a0aRCRD,REY,PASEO,V,36,MADRID,MADRID,28008,2,Argüelles,https://wikidata.org/entity/Q64874,9,Moncloa-Aravaca,https://wikidata.org/entity/Q2017682,439092,4474684,4,04E+15,-3,72E+16,916 433 652,,/contenido/entidadesYorganismos/CentrosAtencionMedica/CentrosAsistenciaDrogodependientes
9154,Vithas Madrid Arturo Soria,,,"Metro: Arturo Soria (línea 4).  Bus: 11, 70, 122, 114.",,3,http://www.madrid.es/sites/v/index.jsp?vgnextchannel=bfa48ab43d6bb410VgnVCM100000171f5a0aRCRD&vgnextoid=afe04b6faa61c010VgnVCM1000000b205a0aRCRD,ARTURO SORIA,CALLE,V,103,MADRID,MADRID,28043,6,San Juan Bautista,https://wikidata.org/entity/Q165609,15,Ciudad Lineal,https://wikidata.org/entity/Q1763694,444735,4477885,4,04E+16,-3,65E+15,912 143 100,infomadrid@vithas.es,/contenido/entidadesYorganismos/CentrosAtencionMedica/HospitalesClinicasSanatorios
