PK;NOMBRE;DESCRIPCION-ENTIDAD;HORARIO;TRANSPORTE;DESCRIPCION;ACCESIBILIDAD;CONTENT-URL;NOMBRE-VIA;CLASE-VIAL;TIPO-NUM;NUM;LOCALIDAD;PROVINCIA;CODIGO-POSTAL;COD-BARRIO;BARRIO;BARRIO_WIKIDATA;COD-DISTRITO;DISTRITO;DISTRITO_WIKIDATA;COORDENADA-X;COORDENADA-Y;LATITUD;LONGITUD;TELEFONO;EMAIL;TIPO
134929;Centro Concertado de Atenci—n a las Adicciones (CCAD) C‡ritas Madrid;El CCAD C‡ritas que forma parte de la red del Instituto de Adicciones de la Ciudad de Madrid/ presta una atenci—n personalizada individual y/o grupal en rŽgimen ambulatorio a las personas que presentan problemas de abuso o dependencia del alcohol y de otras drogas.;De lunes a viernes ma–anas de 9 a 14 horas/ tardes de 15:30 a 18 horas;Bus: 9/ 73/ N2Metro: Alfonso XIII (L4)/ Prosperidad (L4) Bicicletas:  Servicio Bicimad/ para consultar la estaci—n m‡s cercana/ acceda al mapa de geolocalizaci—n de las estaciones.;;1;http://www.madrid.es/sites/v/index.jsp?vgnextchannel=bfa48ab43d6bb410VgnVCM100000171f5a0aRCRD&vgnextoid=13ba654d9d91f010VgnVCM2000000c205a0aRCRD;SANTA HORTENSIA;CALLE;V;1;MADRID;MADRID;28002;2;Prosperidad;https://wikidata.org/entity/Q4776;5;Chamart’n;https://wikidata.org/entity/Q1766348;443159;4477482;40.424;-3.697;917 440 599;tto.adicciones@caritasmadrid.org;Centros Asistencia Drogodependientes
53123;Centro Concertado de Atenci—n a las Adicciones (CCAD) Casa de Campo (Cruz Roja);El CCAD  Casa de Campo que forma parte de la red del Instituto de Adicciones de la Ciudad de Madrid/ presta una atenci—n personalizada individual y/o grupal en rŽgimen ambulatorio a las personas que presentan problemas de abuso o dependencia del alcohol y de otras drogas.;De lunes a viernes de 9 a 17 horas;Bus: 31/ 33/ 36/ 39/ 65/ 138 Metro:Puerta del Angel (L6)/ Lago (L10) Bicicletas:  Servicio Bicimad/ para consultar la estaci—n m‡s cercana/ acceda al mapa de geolocalizaci—n de las estaciones.;Forma de acceso: directo;1;http://www.madrid.es/sites/v/index.jsp?vgnextchannel=bfa48ab43d6bb410VgnVCM100000171f5a0aRCRD&vgnextoid=97d3598d1351c010VgnVCM1000000b205a0aRCRD;PORTUGAL;AVENIDA;V;0;MADRID;MADRID;28011;2;Barrio de Puerta del çngel;https://wikidata.org/entity/Q31142;10;Latina;https://wikidata.org/entity/Q794954;438577;4474219;40.446;-3.670;914 799 499;;Centros Asistencia Drogodependientes
11867;Centro de Atenci—n a las Adicciones (CAD) de Arganzuela;;Horario ordinario:   De septiembre a junio:   De lunes a jueves de 8:30 a 19:30 horas Viernes de 8:30 a 14:30 horas   Horario verano:  Del 15 al 30 de junio y del 1 al 15 de septiembre  De lunes a jueves de 8 a 19:30 horas  Viernes de 8 a 14:00 horas     Del 1 de julio al 31 de agosto  De lunes a viernes 8:30 a 13:45;Bus: 6 / 8 / 18 / 19 / 22 / 45 / 47 / 76 / 78 / 79 / 85 / 86 / 88 / 123 / 148 / 247Metro: Legazpi (L 3 y L 6) Bicicletas:  Servicio Bicimad/ para consultar la estaci—n m‡s cercana/ acceda al mapa de geolocalizaci—n de las estaciones.;Forma de acceso: directo/ a travŽs de los servicios municipales/ servicios de salud o entidades comunitarias.  çmbito de actuaci—n:  Distrito de Arganzuela Distrito de Centro Distrito de Retiro Distrito de Salamanca;1;http://www.madrid.es/sites/v/index.jsp?vgnextchannel=bfa48ab43d6bb410VgnVCM100000171f5a0aRCRD&vgnextoid=de74d4985261c010VgnVCM1000000b205a0aRCRD;CHOPERA;PASEO;V;12;MADRID;MADRID;28045;3;La Chopera;https://wikidata.org/entity/Q3773750;2;Arganzuela;https://wikidata.org/entity/Q2000929;440757;4471619;40.416;-3.723;915 886 186;cadarganzuela@madrid.es;Centros Asistencia Drogodependientes
11887;Centro de Atenci—n a las Adicciones (CAD) de Hortaleza;;Horario ordinario:   De septiembre a junio:   De lunes a jueves de 8:30 a 19:30 horas Viernes de 8:30 a 14:30 horas   Horario verano:  Del 15 al 30 de junio y del 1 al 15 de septiembre  De lunes a jueves de 8 a 19:30 horas Viernes de 8 a 14:00 horas   Del 1 de julio al 31 de agosto  De lunes a viernes de 8:30 a 13:45 horas;Bus: 73/ 87/ 104/ 112/ 120/ 125/ 153/ 172Metro: Mar de Cristal (L4/ L8) Bicicletas:  Servicio Bicimad/ para consultar la estaci—n m‡s cercana/ acceda al mapa de geolocalizaci—n de las estaciones.;Acceso: directo/ a travŽs de los servicios municipales/ servicios de salud o entidades comunitarias  çmbito de actuaci—n:  Distrito de Hortaleza Distrito de Chamart’n Distrito de Barajas Distrito Ciudad Lineal los barrios: San Juan Bautista/ Colina/ Atalaya y Costillares;1;http://www.madrid.es/sites/v/index.jsp?vgnextchannel=bfa48ab43d6bb410VgnVCM100000171f5a0aRCRD&vgnextoid=25a4d4985261c010VgnVCM1000000b205a0aRCRD;MINAYA;CALLE;V;7;MADRID;MADRID;28043;3;Canillas;https://wikidata.org/entity/Q9694341;16;Hortaleza;https://wikidata.org/entity/Q1928529;446072;4479929;40.393;-3.698;913 822 530;cadhortaleza@madrid. es;Centros Asistencia Drogodependientes
11862;Centro de Atenci—n a las Adicciones (CAD) de Latina;;Horario ordinario:   De septiembre a junio:   De lunes a jueves de 8:30 a 19:30 horas Viernes de 8:30 a 14:30 horas   Horario verano:  Del 15 al 30 de junio y del 1 al 15 de septiembre  De lunes a jueves de 8 a 19:30 horas Viernes de 8 a 14:00 horas   Del 1 de julio al 31 de agosto  De lunes a viernes de 8:30 a 13:45 horas;Bus: 25 / 31/ 138Metro: Laguna (L 6)/ Casa de Campo (L 10);Acceso: directo/ a traves de los servicios municipales/ servicios de salud o entidades comunitarias  çmbito de actuaci—n:  Distrito de Latina Distrito de Moncloa - Aravaca: barrios de Arg&amp/uuml/elles/ Plant’o/ Aravaca y Casa de Campo Distrito Carabanchel: barrios de San Isidro/ Vista Alegre y Puerta Bonita.;1;http://www.madrid.es/sites/v/index.jsp?vgnextchannel=bfa48ab43d6bb410VgnVCM100000171f5a0aRCRD&vgnextoid=7bc4d4985261c010VgnVCM1000000b205a0aRCRD;CAMARENA;CALLE;V;10;MADRID;MADRID;28047;4;Aluche;https://wikidata.org/entity/Q31140;10;Latina;https://wikidata.org/entity/Q794954;435820;4471982;40.468;-3.636;917 198 989;cadlatina@madrid.es;Centros Asistencia Drogodependientes
11865;Centro de Atenci—n a las Adicciones (CAD) de San Blas;;Horario ordinario:   De septiembre a junio:   De lunes a jueves de 8:30 a 19:30 horas Viernes de 8:30 a 14:30 horas   Horario verano:  Del 15 al 30 de junio y del 1 al 15 de septiembre  De lunes a jueves de 8 a 19:30 horas Viernes de 8 a 14:00 horas   Del 1 de julio al 31 de agosto  De lunes a viernes de 8:30 a 13:45 horas;Bus: 77/ 104/ 105/ 775Metro: Suances (L 5);Acceso: directo/ a traves de los servicios municipales/ servicios de salud o entidades comunitarias  çmbito de actuaci—n  Distrito de San Blas Distrito de Ciudad Lineal los barrios: Ventas/ Pueblo Nuevo/ Quintana/ Concepci—n y San Pascual Distrito de Vic‡lvaro;1;http://www.madrid.es/sites/v/index.jsp?vgnextchannel=bfa48ab43d6bb410VgnVCM100000171f5a0aRCRD&vgnextoid=c1f4d4985261c010VgnVCM1000000b205a0aRCRD;ALCALA;CALLE;V;527;MADRID;MADRID;28027;8;Salvador;https://wikidata.org/entity/Q10367095;20;San Blas-Canillejas;https://wikidata.org/entity/Q2001937;446815;4476892;40.395;-3.756;917 434 771;cadsanblas@madrid.es;Centros Asistencia Drogodependientes
11866;Centro de Atenci—n a las Adicciones (CAD) de Tetu‡n;;Horario ordinario:   De septiembre a junio:   De lunes a jueves de 8:30 a 19:30 horas Viernes de 8:30 a 14:30 horas   Horario verano:  Del 15 al 30 de junio y del 1 al 15 de septiembre  De lunes a jueves de 8 a 19:30 horas Viernes de 8 a 14:00 horas   Del 1 de julio al 31 de agosto  De lunes a viernes de 8:30 a 13:45 horas;Bus: 42Metro: Ventilla (L-9)/ Valdeacederas (L-1) Bicicletas:  Servicio Bicimad/ para consultar la estaci—n m‡s cercana/ acceda al mapa de geolocalizaci—n de las estaciones.;Acceso: directo/ a travŽs de los servicios municipales/ servicios de salud o entidades comunitarias  çmbito de actuaci—n  Distrito de Tetu‡n Distrito de Fuencarral-El Pardo Distrito de Chamber’ Distrito de Moncloa-Aravaca: Ciudad Universitaria/ Valdezarza y Valdemar’n;1;http://www.madrid.es/sites/v/index.jsp?vgnextchannel=bfa48ab43d6bb410VgnVCM100000171f5a0aRCRD&vgnextoid=1815d4985261c010VgnVCM1000000b205a0aRCRD;PINOS ALTA;CALLE;V;122;MADRID;MADRID;28029;4;Almenara;https://wikidata.org/entity/Q2265427;6;Tetu‡n;https://wikidata.org/entity/Q1773540;440529;4480255;40.440;-3.627;913 235 920;cadtetuan@madrid.es;Centros Asistencia Drogodependientes
11864;Centro de Atenci—n a las Adicciones (CAD) de Vallecas;;Horario ordinario:   De septiembre a junio:   De lunes a jueves de 8:30 a 19:30 horas Viernes de 8:30 a 14:30 horas   Horario verano:  Del 15 al 30 de junio y del 1 al 15 de septiembre  De lunes a jueves de 8 a 19:30 horas Viernes de 8 a 14:00 horas   Del 1 de julio al 31 de agosto  De lunes a viernes de 8:30 a 13:45 horas;Bus: 10/ 24/ 54/ 57/ 58/ 111/ 136/ 140/ 310Metro: Nueva Numancia (L1) Bicicletas:  Servicio Bicimad/ para consultar la estaci—n m‡s cercana/ acceda al mapa de geolocalizaci—n de las estaciones.;Acceso: directo/ a traves de los servicios municipales/ servicios de salud o entidades comunitarias  çmbito de actuaci—n  Distrito de Villa de Vallecas Distrito de Puente de Vallecas Distrito de Moratalaz;1;http://www.madrid.es/sites/v/index.jsp?vgnextchannel=bfa48ab43d6bb410VgnVCM100000171f5a0aRCRD&vgnextoid=6e35d4985261c010VgnVCM1000000b205a0aRCRD;CONCORDIA;CALLE;NUM;17;MADRID;MADRID;28053;2;San Diego;https://wikidata.org/entity/Q11946851;13;Puente de Vallecas;https://wikidata.org/entity/Q2003054;443517;4471815;40.470;-3.701;914 801 486;cadvallecas@madrid.es;Centros Asistencia Drogodependientes
11863;Centro de Atenci—n a las Adicciones (CAD) de Villaverde;;Horario ordinario:   De septiembre a junio:   De lunes a jueves de 8:30 a 19:30 horas Viernes de 8:30 a 14:30 horas   Horario verano:  Del 15 al 30 de junio y del 1 al 15 de septiembre  De lunes a jueves de 8 a 19:30 horas Viernes de 8 a 14:00 horas   Del 1 de julio al 31 de agosto  De lunes a viernes de 8:30 a 13:45 horas;Bus: 76Renfe: Cercan’as Puente Alcocer Bicicletas:  Servicio Bicimad/ para consultar la estaci—n m‡s cercana/ acceda al mapa de geolocalizaci—n de las estaciones.;Acceso: Directo a travŽs de los servicios municipales/ servicios de salud o entidades comunitarias.  çmbito de Actuaci—n  Distrito de Villaverde. Distrito de Usera. Distrito de Carabanchel/ los barrios: Comillas/ Opa–el/ Abrantes y Buenavista;1;http://www.madrid.es/sites/v/index.jsp?vgnextchannel=bfa48ab43d6bb410VgnVCM100000171f5a0aRCRD&vgnextoid=b465d4985261c010VgnVCM1000000b205a0aRCRD;VERDE VIENTO;CALLE;V;16;MADRID;MADRID;28021;1;Villaverde Alto - Casco Hist—rico de Villaverde;https://wikidata.org/entity/Q390435;17;Villaverde;https://wikidata.org/entity/Q919536;439047;4467110;40.395;-3.665;917 231 110;cadvillaverde@madrid.es;Centros Asistencia Drogodependientes
11868;Centro de Atenci—n Integral a Drogodependientes CAID Este;Centro de la red asistencial para las adicciones de la Comunidad de Madrid.;Lunes a viernes/ de 9 a 21 horas.;Metro: San Blas (l’nea 7).  Bus: 153/ 38/ 165/ 167/ 48.;;3;http://www.madrid.es/sites/v/index.jsp?vgnextchannel=bfa48ab43d6bb410VgnVCM100000171f5a0aRCRD&vgnextoid=2385d4985261c010VgnVCM1000000b205a0aRCRD;CIVICA;PLAZA;V;8;MADRID;MADRID;28037;7;Canillejas;https://wikidata.org/entity/Q663013;20;San Blas-Canillejas;https://wikidata.org/entity/Q2001937;447678;4475575;40.352;-3.717;913 064 542 / 913 064 543 / 901 350 350;caideste@salud.madrid.org;Centros Asistencia Drogodependientes
11882;Centro de Atenci—n Integral a Drogodependientes CAID Norte;Centro de la red asistencial para las adicciones de la Comunidad de Madrid.;De lunes a viernes/ de 9 a 21 horas.;Metro: Tetu‡n (l’nea 1).  Bus: 11.;;3;http://www.madrid.es/sites/v/index.jsp?vgnextchannel=bfa48ab43d6bb410VgnVCM100000171f5a0aRCRD&vgnextoid=91a5d4985261c010VgnVCM1000000b205a0aRCRD;NUESTRA SE„ORA DEL CARMEN;CALLE;V;46;MADRID;MADRID;28039;6;Berruguete;https://wikidata.org/entity/Q11909208;6;Tetu‡n;https://wikidata.org/entity/Q1773540;440306;4479190;40.429;-3.616;913 980 556 / 901 350 350;caidnorte.agad@salud.madrid.org;Centros Asistencia Drogodependientes
11884;Centro de Atenci—n Integral a Drogodependientes CAID Sur-Usera;Centro de la red asistencial para las adicciones de la Comunidad de Madrid.;Lunes a viernes/ de 9 a 21 horas.;Metro: Usera (l’nea 6).  Bus: 78/ 6.  Cercan’as Renfe: Doce de Octubre (l’nea C5).;;3;http://www.madrid.es/sites/v/index.jsp?vgnextchannel=bfa48ab43d6bb410VgnVCM100000171f5a0aRCRD&vgnextoid=00c5d4985261c010VgnVCM1000000b205a0aRCRD;JASPE;CALLE;V;40;MADRID;MADRID;28026;7;Pradolongo;https://wikidata.org/entity/Q10352360;12;Usera;https://wikidata.org/entity/Q953368;439999;4470274;40.461;-3.704;915 003 010 / 915 002 828 / 901 350 350;caiddeusera.agad@salud.madrid.org;Centros Asistencia Drogodependientes
5408374;Centro de Atenci—n Integral a Drogodependientes CAID Vallecas;Centro de la red asistencial para las adicciones de la Comunidad de Madrid.;Lunes a viernes/ de 9 a 21 horas.;Metro: Congosto (l’nea 1).  Bus: 142/ 103.;;3;http://www.madrid.es/sites/v/index.jsp?vgnextchannel=bfa48ab43d6bb410VgnVCM100000171f5a0aRCRD&vgnextoid=eaa91657da473210VgnVCM2000000c205a0aRCRD;CINCOVILLAS;CALLE;V;5;MADRID;MADRID;28051;3;Ensanche de Vallecas;https://wikidata.org/entity/Q3847485;18;Villa de Vallecas;https://wikidata.org/entity/Q1947988;446966;4468750;40.380;-3.706;914 942 828 / 901 350 350;caidvallecas@salud.madrid.org;Centros Asistencia Drogodependientes
11899;Centro de Atenci—n integral sociosanitaria nocturno;;De lunes a domingo de 21 a 8 horas;Metro: Alonso Mart’nez  Bus: 21;Informaci—n Complementaria:   Drogodependientes en fase activa/ — en Programa de Metadona Personas sin hogar Pueden pernoctar;1;http://www.madrid.es/sites/v/index.jsp?vgnextchannel=bfa48ab43d6bb410VgnVCM100000171f5a0aRCRD&vgnextoid=a946d4985261c010VgnVCM1000000b205a0aRCRD;HERMANOS ALVAREZ QUINTERO;CALLE;V;3;MADRID;MADRID;28004;4;Justicia;https://wikidata.org/entity/Q1992319;1;Centro;https://wikidata.org/entity/Q1763376;440835;4475437;40.367;-3.624;916 035 651;;Centros Asistencia Drogodependientes
5855213;Centro de Atenci—n integral sociosanitario diurno (Cruz Roja);El Centro de atenci—n integral sociosanitario diurno forma parte de la red del Instituto de Adicciones de la Ciudad de Madrid/ presta una atenci—n personalizada individual y/o grupal en rŽgimen ambulatorio a las personas que presentan problemas de abuso o dependencia del alcohol y de otras drogas.;De lunes a viernes de 9 a 17 horas;Metro: Alonso Mart’nez/ L4/ L5/ L10;Forma de acceso: directo;1;http://www.madrid.es/sites/v/index.jsp?vgnextchannel=bfa48ab43d6bb410VgnVCM100000171f5a0aRCRD&vgnextoid=c5dc3e042111c210VgnVCM2000000c205a0aRCRD;HERMANOS ALVAREZ QUINTERO;CALLE;V;3;MADRID;MADRID;28004;4;Justicia;https://wikidata.org/entity/Q1992319;1;Centro;https://wikidata.org/entity/Q1763376;440835;4475437;40.427;-3.697;914 291 960;ctdcentro@cruzroja.es;Centros Asistencia Drogodependientes
8889;Centro de Diagn—stico MŽdico;;Antes de acudir/ p—ngase en contacto telef—nico con el centro    Horario de invierno    Citas: de lunes a viernes de 8:30 a 14:30 horas  Consulta de ITS/ programa prevenci—n del Sida: horario de admisi—n de pacientes CON cita previa de lunes a viernes de 8 a 9/30 horas en el telŽfono 915885142   Horario de verano    Del 15 de junio al 15 de septiembre: de 8:00 a 14 horas;Metro: Manuel Becerra Bus: 1 / 2 / 12 / 21 / 43 / 48 / 53 / 56 / 74 / 146 / 210 / C;;1;http://www.madrid.es/sites/v/index.jsp?vgnextchannel=bfa48ab43d6bb410VgnVCM100000171f5a0aRCRD&vgnextoid=5a057a7e0a61c010VgnVCM1000000b205a0aRCRD;MONTESA;CALLE;V;22;MADRID;MADRID;28006;5;Lista;https://wikidata.org/entity/Q4779;4;Salamanca;https://wikidata.org/entity/Q1773521;442986;4475588;40.428;-3.672;915 885 100 / 06 (Citas);mspdiagnostico@madrid.es;Centros Prevencion Enfermedades
9176;Centro de donaci—n de sangre de Cruz Roja;;De lunes a viernes/ de 9 a 20:30 horas.;Metro: Guzman El Bueno (l’neas 6 y 7)/ Cuatro Caminos (l’neas 1/ 2 y 6).  Bus: 127/ 44/ 45/ C2/ F/ C1.;;1;http://www.madrid.es/sites/v/index.jsp?vgnextchannel=bfa48ab43d6bb410VgnVCM100000171f5a0aRCRD&vgnextoid=a61f7a7e0a61c010VgnVCM1000000b205a0aRCRD;JUAN MONTALVO;CALLE;V;3;MADRID;MADRID;28040;3;Ciudad Universitaria;https://wikidata.org/entity/Q3319235;9;Moncloa-Aravaca;https://wikidata.org/entity/Q2017682;439802;4477685;40.447;-3.709;914 562 470 / 900 506 819;;Otros Centros Medicos
12020383;Centro de donaci—n de sangre de Cruz Roja Fin de Semana;;Viernes/ s‡bados y domingos: De 10 a 14 y de 17 a 21 horas.     Consultar d’as de cierre puntuales en su p‡gina web.;Metro: Bilbao (l’neas 1 y 4)/ San Bernardo (l’neas 2 y 4).  Bus: 149/ 3/ 37/ 147/ 21/ C03.  Bicimad: Estaciones 4 (calle Manuela Malasa–a/ 5)/ 5 (calle Fuencarral/ 108).  Aparcamiento: Fuencarral (27)/ calle Fuencarral entre 111 y 121.;;1;http://www.madrid.es/sites/v/index.jsp?vgnextchannel=bfa48ab43d6bb410VgnVCM100000171f5a0aRCRD&vgnextoid=59ed7ea268d48810VgnVCM1000001d4a900aRCRD;FUENCARRAL;CALLE;V;120;MADRID;MADRID;28010;3;Trafalgar;https://wikidata.org/entity/Q10384027;7;Chamber’;https://wikidata.org/entity/Q1763370;440406;4475715;40.429;-3.702;900 506 819;;Otros Centros Medicos
9091;Centro de Especialidades PerifŽrico ArgŸelles;;;Metro: Arg&amp/uuml/elles (l’neas 3/ 4 y 6)/ Ventura Rodr’guez (l’nea 3).  Bus: 62/ 74.  Bicimad: Estaci—n 114 (calle Quintana 13).  Aparcamiento: MarquŽs de Urquijo (63) calle MarquŽs de Urquijo entre calle Princesa y calle Juan çlvarez Mendiz‡bal.;;3;http://www.madrid.es/sites/v/index.jsp?vgnextchannel=bfa48ab43d6bb410VgnVCM100000171f5a0aRCRD&vgnextoid=4e657a7e0a61c010VgnVCM1000000b205a0aRCRD;QUINTANA;CALLE;V;11;MADRID;MADRID;28008;2;ArgŸelles;https://wikidata.org/entity/Q64874;9;Moncloa-Aravaca;https://wikidata.org/entity/Q2017682;439158;4475489;40.427;-3.717;913 445 022;;Centros Especialidades Medicas
9093;Centro de Especialidades PerifŽrico Avenida de Portugal;;;Metro: Alto de Extremadura (l’nea 6).  Bus: 31/ 33/ 36/ 39/ 65.  Bicimad: Estaci—n 326 (calle Francisco de Tejada/ 1).;Este Centro presta atenci—n continuada como centro de continuidad de cuidados de enfermer’a s‡bados/ domingos y festivos de 9 a 21 horas.;3;http://www.madrid.es/sites/v/index.jsp?vgnextchannel=bfa48ab43d6bb410VgnVCM100000171f5a0aRCRD&vgnextoid=d0857a7e0a61c010VgnVCM1000000b205a0aRCRD;PORTUGAL;AVENIDA;V;155;MADRID;MADRID;28011;2;Barrio de Puerta del çngel;https://wikidata.org/entity/Q31142;10;Latina;https://wikidata.org/entity/Q794954;437399;4473658;40.411;-3.737;917 042 697;;Centros Especialidades Medicas
9095;Centro de Especialidades PerifŽrico Carabanchel;;;Metro: Carabanchel Alto (l’nea 11).  Bus: 108/ 118/ 121/ 131/ 47.;Este Centro presta atenci—n continuada como centro de continuidad de cuidados de enfermer’a de lunes a viernes de 21 a 8 horas y los s‡bados/ domingos y festivos 24 horas.;3;http://www.madrid.es/sites/v/index.jsp?vgnextchannel=bfa48ab43d6bb410VgnVCM100000171f5a0aRCRD&vgnextoid=63957a7e0a61c010VgnVCM1000000b205a0aRCRD;AGUACATE;CALLE;V;13;MADRID;MADRID;28044;6;Buenavista;https://wikidata.org/entity/Q953929;11;Carabanchel;https://wikidata.org/entity/Q1001991;436498;4469315;40.371;-3.748;915 085 731 (informaci—n);;Centros Especialidades Medicas
6869784;Centro de Especialidades PerifŽrico Emigrantes;;;Metro: Mar de Cristal (l’neas 4 y 8).  Bus: 104/ 171/ T11/ 153/ 112/ 125/ 120/ 172/ 87.;;3;http://www.madrid.es/sites/v/index.jsp?vgnextchannel=bfa48ab43d6bb410VgnVCM100000171f5a0aRCRD&vgnextoid=219b06517038d310VgnVCM2000000c205a0aRCRD;AREQUIPA;CALLE;V;30;MADRID;MADRID;28043;3;Canillas;https://wikidata.org/entity/Q9694341;16;Hortaleza;https://wikidata.org/entity/Q1928529;446052;4479973;40.468;-3.636;913 816 088;;Centros Especialidades Medicas
136605;Centro de Especialidades PerifŽrico Federica Montseny;;;Metro: Miguel Hern‡ndez (l’nea 1).  Bus: 103/ 142/ 143/ 54/ 58/ 144.  Bicimad: Estaci—n 435 (calle San Claudio/ 154).;Este centro presta atenci—n continuada como centro de atenci—n continuada mŽdica de lunes a viernes de 21 a 8 horas y los s‡bados/ domingos y festivos 24 horas.;3;http://www.madrid.es/sites/v/index.jsp?vgnextchannel=bfa48ab43d6bb410VgnVCM100000171f5a0aRCRD&vgnextoid=f3c215a11a81c010VgnVCM1000000b205a0aRCRD;ALBUFERA;AVENIDA;V;285;MADRID;MADRID;28038;4;Palomeras Sureste;https://wikidata.org/entity/Q10343901;13;Puente de Vallecas;https://wikidata.org/entity/Q2003054;445702;4470966;40.387;-3.639;913 808 426 / 913 808 427;;Centros Especialidades Medicas
9085;Centro de Especialidades PerifŽrico Hermanos Garc’a Noblejas;;;Metro: O'Donnell (l’nea 6).  Bus: C2/ 143/ 156/ 2/ 30/ 56/ 71/ C1/ E4/ E5.  Bicimad: Estaciones 101 (calle Jorge Juan/ 131) y 183 (calle Hermosilla/ 135).;Este centro es dependiente del Hospital Universitario de La Princesa y se atienden los pacientes de forma ambulatoria en consulta externa de diferentes especialidades/ as’ como tratamientos rehabilitadores/ extracciones sangu’neas y otras tŽcnicas diagn—sticas y terapŽuticas. Este Centro presta atenci—n continuada como centro de continuidad de cuidados de enfermer’a s‡bados/ domingos y festivos de 9 a 21 horas.;2;http://www.madrid.es/sites/v/index.jsp?vgnextchannel=bfa48ab43d6bb410VgnVCM100000171f5a0aRCRD&vgnextoid=88b57a7e0a61c010VgnVCM1000000b205a0aRCRD;DOCTOR ESQUERDO;CALLE;V;45;MADRID;MADRID;28028;3;Fuente del Berro;https://wikidata.org/entity/Q3814564;4;Salamanca;https://wikidata.org/entity/Q1773521;443287;4474984;40.423;-3.668;915 742 187 / 915 742 389;;Centros Especialidades Medicas
40266;Centro de Especialidades PerifŽrico JosŽ Marv‡;;;Metro: Valdeacederas (l’nea 1).  Bus: 124/ 66/ 49.  Bicimad: Estaci—n 207 (Azucenas/ 1).;;3;http://www.madrid.es/sites/v/index.jsp?vgnextchannel=bfa48ab43d6bb410VgnVCM100000171f5a0aRCRD&vgnextoid=0d51598d1351c010VgnVCM1000000b205a0aRCRD;BRAVO MURILLO;CALLE;V;317;MADRID;MADRID;28020;5;Valdeacederas;https://wikidata.org/entity/Q10388711;6;Tetu‡n;https://wikidata.org/entity/Q1773540;440930;4479429;40.398;-3.668;917 277 070;;Centros Especialidades Medicas
9092;Centro de Especialidades PerifŽrico Modesto Lafuente;;;Metro: Alonso Cano (l’nea 7)/ Gregorio Mara–—n (l’neas 7 y 10).  Bus: 5/ 12/ 45.  Bicimad: Estaci—n 129 (calle JosŽ Abascal/ 33).;;3;http://www.madrid.es/sites/v/index.jsp?vgnextchannel=bfa48ab43d6bb410VgnVCM100000171f5a0aRCRD&vgnextoid=1bc57a7e0a61c010VgnVCM1000000b205a0aRCRD;MODESTO LAFUENTE;CALLE;V;21;MADRID;MADRID;28003;5;R’os Rosas;https://wikidata.org/entity/Q10366270;7;Chamber’;https://wikidata.org/entity/Q1763370;440951;4476834;40.463;-3.696;917 042 810;;Centros Especialidades Medicas
9081;Centro de Especialidades PerifŽrico Moratalaz;;;Metro: Pavones (l’nea 9).  Bus: 20/ 30/ 32/ 71/ 8/ 142/ 140/ 144/ E4.  Bicimad: Estaci—n 221 (calle Hacienda de Pavones/ 342).;;3;http://www.madrid.es/sites/v/index.jsp?vgnextchannel=bfa48ab43d6bb410VgnVCM100000171f5a0aRCRD&vgnextoid=30f57a7e0a61c010VgnVCM1000000b205a0aRCRD;HACIENDA DE PAVONES;CALLE;V;348;MADRID;MADRID;28030;1;Pavones;https://wikidata.org/entity/Q71760;14;Moratalaz;https://wikidata.org/entity/Q2076109;446215;4472330;40.440;-3.696;917 733 141;;Centros Especialidades Medicas
9096;Centro de Especialidades PerifŽrico Orcasitas;;;Bus: 116/ 121/ 131/ 6/ 60/ 78/ 81.  Bicimad: Estaci—n 386 (avenida de los Poblados/ 130).;;3;http://www.madrid.es/sites/v/index.jsp?vgnextchannel=bfa48ab43d6bb410VgnVCM100000171f5a0aRCRD&vgnextoid=c2067a7e0a61c010VgnVCM1000000b205a0aRCRD;CESTONA;CALLE;V;3;MADRID;MADRID;28041;1;Orcasitas;https://wikidata.org/entity/Q3773941;12;Usera;https://wikidata.org/entity/Q953368;439381;4469367;40.399;-3.633;913 415 262 (Admisi—n) / 913 417 266 (Atenci—n al paciente);;Centros Especialidades Medicas
9086;Centro de Especialidades PerifŽrico Pedro Gonz‡lez Bueno (San Blas);;;Metro: Simancas (l’nea 7)/ Alsacia (l’nea 2).  Bus: 38/ 4/ 48/ 70/ 109/ 165/ 167.  Bicimad: Estaci—n 490 (Hermanos Garc’a Noblejas/ 158).;;3;http://www.madrid.es/sites/v/index.jsp?vgnextchannel=bfa48ab43d6bb410VgnVCM100000171f5a0aRCRD&vgnextoid=0d467a7e0a61c010VgnVCM1000000b205a0aRCRD;HERMANOS GARCIA NOBLEJAS;CALLE;V;89;MADRID;MADRID;28037;3;Amposta;https://wikidata.org/entity/Q11905392;20;San Blas-Canillejas;https://wikidata.org/entity/Q2001937;446800;4474947;40.372;-3.714;913 040 760;;Centros Especialidades Medicas
7559224;Centro de Especialidades PerifŽrico Pontones FJD;;;Metro: Puerta de Toledo (l’nea 5).  Bus: C2/ 17/ 41/ C1/ 148/ 3/ 18/ 23/ 35/ 60/ C03/ 002.  Bicimad: Estaci—n 45 (glorieta Puerta de Toledo/ 1).  Aparcamiento: Puerta Toledo (64)/ glorieta Puerta de Toledo con vuelta a Capit‡n Salazar Mart’nez.;;3;http://www.madrid.es/sites/v/index.jsp?vgnextchannel=bfa48ab43d6bb410VgnVCM100000171f5a0aRCRD&vgnextoid=697c1f93c06f6410VgnVCM2000000c205a0aRCRD;SEGOVIA;RONDA;V;52;MADRID;MADRID;28005;1;Imperial;https://wikidata.org/entity/Q3773740;2;Arganzuela;https://wikidata.org/entity/Q2000929;439524;4473155;40.423;-3.627;914 182 988;;Centros Especialidades Medicas
10158869;Centro de Especialidades PerifŽrico Vicente Soldevilla;;;Bus: 24.;;3;http://www.madrid.es/sites/v/index.jsp?vgnextchannel=bfa48ab43d6bb410VgnVCM100000171f5a0aRCRD&vgnextoid=a64db04bcce97510VgnVCM2000001f4a900aRCRD;SIERRA DE ALQUIFE;CALLE;V;8;MADRID;MADRID;28053;2;San Diego;https://wikidata.org/entity/Q11946851;13;Puente de Vallecas;https://wikidata.org/entity/Q2003054;443383;4471142;40.474;-3.725;Informaci—n: 914 771 643 / 917 798 801 Citaciones: 914 789 899;;Centros Salud
9097;Centro de Especialidades PerifŽrico Villaverde Cruce;;;Metro: Villaverde Bajo - Cruce (l’nea 3).  Bus: 59/ 79/ 116/ 130/ 18/ 22/ 23.;;3;http://www.madrid.es/sites/v/index.jsp?vgnextchannel=bfa48ab43d6bb410VgnVCM100000171f5a0aRCRD&vgnextoid=22767a7e0a61c010VgnVCM1000000b205a0aRCRD;ALCARRIA;CALLE;V;4;MADRID;MADRID;28021;5;Los çngeles;https://wikidata.org/entity/Q390462;17;Villaverde;https://wikidata.org/entity/Q919536;441042;4466784;40.406;-3.712;917 987 000;;Centros Especialidades Medicas
163279;Centro de Patolog’a Dual;Unidad hospitalaria de apoyo donde se realiza el abordaje terapŽutico integral tanto de la psicopatolog’a concomitante como de la conducta adictiva/ en coordinaci—n con el equipo del centro de atenci—n.;;Metro: Arturo Soria/ Avda de la Paz Bus: 9/ 70/ 72/ 73/ Bicicletas:  Servicio Bicimad/ para consultar la estaci—n m‡s cercana/ acceda al mapa de geolocalizaci—n de las estaciones.;El Centro de Patolog’a Dual da respuesta a determinados perfiles cada vez m‡s numerosos dentro de la poblaci—n drogodependiente/ aquellos que presentan un trastorno mental asociado a su problema de adicci—n. Este centro se concibe como una unidad hospitalaria de apoyo d—nde se realiza el abordaje terapŽutico integral tanto de la psicopatolog’a concomitante como de la conducta adictiva/ de pacientes que requieran un proceso de contenci—n y estabilizaci—n intensivo de su patolog’a a fin de poder facilitarles una buena evoluci—n en el tratamiento/ en coordinaci—n con el equipo del centro de atenci—n   CENTRO DE DêA DE PATOLOGêA DUAL    Ofrece una segunda etapa abierta/ para los/las pacientes dados de alta de la Unidad de Patolog’a Dual/ en un contexto terapŽutico de hospital de d’a/ con las mismas caracter’sticas de entorno hospitalario e intervenci—n intensiva que el dispositivo de ingreso. Conecta los dos enfoques cl‡sicos: residencial y ambulatorio.;1;http://www.madrid.es/sites/v/index.jsp?vgnextchannel=bfa48ab43d6bb410VgnVCM100000171f5a0aRCRD&vgnextoid=c2169475d381c010VgnVCM1000000b205a0aRCRD;LOPEZ DE HOYOS;CALLE;NUM;259;MADRID;MADRID;28043;7;Colina;https://wikidata.org/entity/Q18475981;15;Ciudad Lineal;https://wikidata.org/entity/Q1763694;443946;4478671;40.388;-3.667;914 156 000;;Centros Rehabilitacion Psicosocial
183742;Centro de Prevenci—n de Deterioro Cognitivo;Su objetivo fundamental es el diagn—stico precoz y el tratamiento de las personas que tienen Deterioro Cognitivo Leve. Su orientaci—n es preventiva y a esta prevenci—n van dirigidas sus actividades. Para acceder a este servicio se deber‡ acudir previamente al Centro Municipal de Salud Comunitaria de su Distrito donde decidir‡n si procede su derivaci—n al Centro de Prevenci—n de Deterioro Cognitivo.;Antes de acudir/ p—ngase en contacto telef—nico con el centro   Horario de invierno   Lunes/ miŽrcoles y viernes de 9 a 14 horas Martes y jueves de 10 a 14 horas   Semana de San Isidro: 8:30 a 14 horas   Horario de verano    Del 15 de junio al 15 de septiembre: de 8:30 a 14 horas;Metro: Manuel Becerra (L’neas 2 y 6)/ Lista (L’nea 4) Bus: C1/ C2/ 1/ 2/ 12/ 15/ 21/ 26/ 29/ 30/ 38/ 43/ 48/ 53/ 56/ 61/ 63/ 120/ 71/ 74/ 106/ 110/ 143/ 146/ 152/ 210. Bicicletas:  Servicio Bicimad/ para consultar la estaci—n m‡s cercana/ acceda al mapa de geolocalizaci—n de las estaciones.;Poblaci—n a la que se dirige:   Personas mayores de 65 a–os para evaluar su memoria y detectar de forma precoz trastornos de memoria relacionadas con la edad  o Deterioro Cognitivo Leve. Familiares de los pacientes con Deterioro Cognitivo No son usuarios del centro: pacientes con alteraci—n cognitiva por Traumatismo craneoencef‡lico/ accidentes cerebrovasculares/ cirug’a de cerebro por cualquier causa/ etc. Tampoco se realizan  intervenci—n en los casos de demencia (Alzheimer u otras) o de personas que tengan  tratamiento para la demencia El Centro no realiza informes para dependencia/ ni otros similares.   El Centro est‡ formado por un equipo interdisciplinar de profesionales:   Neurolog’a Neuropsicolog’a Psiquiatr’a Psicolog’a Medicina General Enfermer’a Trabajo Social Terapeuta Ocupacional Auxiliar Sanitario Administraci—n;1;http://www.madrid.es/sites/v/index.jsp?vgnextchannel=bfa48ab43d6bb410VgnVCM100000171f5a0aRCRD&vgnextoid=492338d60b41c010VgnVCM2000000c205a0aRCRD;MONTESA;CALLE;V;22;MADRID;MADRID;28006;5;Lista;https://wikidata.org/entity/Q4779;4;Salamanca;https://wikidata.org/entity/Q1773521;442986;4475588;40.349;-3.694;"915 885 801              915 885 810";mspcognitiva@madrid.es;Centros Prevencion Enfermedades
177645;Centro de Prevenci—n de Riesgos Laborales Fabiola de Mora y Arag—n;;Consulta previa cita.;Metro: Francos Rodr’guezBus: 64;;1;http://www.madrid.es/sites/v/index.jsp?vgnextchannel=bfa48ab43d6bb410VgnVCM100000171f5a0aRCRD&vgnextoid=d3f41c7a2c61c010VgnVCM1000000b205a0aRCRD;DEHESA DE LA VILLA;CARRETERA;V;1;MADRID;MADRID;28040;3;Ciudad Universitaria;https://wikidata.org/entity/Q3319235;9;Moncloa-Aravaca;https://wikidata.org/entity/Q2017682;438892;4478863;40.456;-3.661;915 883 176 / 915 883 178;;Centros Prevencion Enfermedades
12020008;Centro de Rehabilitaci—n Psicosocial San Enrique;;Consultal telef—nicamente.;Metro: Estrecho (l’nea 1).  Bus: 126/ 124/ 66.  Bicimad: Estaci—n 155 (calle San Germ‡n/ 57).  Aparcamiento: Presidente Carmona (33)/ avenida Presidente Carmona.;;3;http://www.madrid.es/sites/v/index.jsp?vgnextchannel=bfa48ab43d6bb410VgnVCM100000171f5a0aRCRD&vgnextoid=86de3f292ec48810VgnVCM1000001d4a900aRCRD;SAN ENRIQUE;CALLE;V;20;MADRID;MADRID;28020;2;Cuatro Caminos;https://wikidata.org/entity/Q5824684;6;Tetu‡n;https://wikidata.org/entity/Q1773540;440656;4478602;40.428;-3.672;915 794 723 / 915 794 711;;Centros Salud Mental
8984;Centro de Salud Abrantes;;;Metro: Abrantes (l’nea 11).  Bus: 108/ 47/ 116/ E1.;;3;http://www.madrid.es/sites/v/index.jsp?vgnextchannel=bfa48ab43d6bb410VgnVCM100000171f5a0aRCRD&vgnextoid=50677a7e0a61c010VgnVCM1000000b205a0aRCRD;ABRANTES;AVENIDA;V;55;MADRID;MADRID;28025;7;Abrantes;https://wikidata.org/entity/Q3773949;11;Carabanchel;https://wikidata.org/entity/Q1001991;438251;4470308;40.458;-3.720;915 650 770;;Centros Salud
139416;Centro de Salud Adelfas;;;Metro: Pac’fico (l’neas 1 y 6).  Bus: 310/ 8/ 136/ 10/ 156/ 56/ 141/ 24/ 37/ 54/ 57.  Bicimad: Estaci—n 78 (calle Cerro de la Plata/ 2).;;3;http://www.madrid.es/sites/v/index.jsp?vgnextchannel=bfa48ab43d6bb410VgnVCM100000171f5a0aRCRD&vgnextoid=5ce0ba61e681c010VgnVCM1000000b205a0aRCRD;CIUDAD DE BARCELONA;AVENIDA;V;190;MADRID;MADRID;28007;2;Adelfas;https://wikidata.org/entity/Q3774001;3;Retiro;https://wikidata.org/entity/Q2002296;442752;4472478;40.455;-3.699;914 340 348;;Centros Salud
9052;Centro de Salud Alameda;;;Metro: Ant—n Mart’n (l’nea 1)/ Estaci—n del Arte (l’nea 1).  Bus: 001/ 10/ 14/ 27/ 34/ 37/ 45/ C03.  Cercan’as Renfe: Atocha (l’neas C1/ C2/ C3/ C4/ C4b/ C5/ C7/ y C10).  Bicimad: Estaciones 67 (calle AlmadŽn 28)/ 27 (calle Jesœs/ 1)/ 68 (calle Espalter/ 1).  Aparcamientos: S‡nchez Bustillo (37)/ calle S‡nchez Bustillo/ Cortes (46)/ plaza de las Cortes.;;3;http://www.madrid.es/sites/v/index.jsp?vgnextchannel=bfa48ab43d6bb410VgnVCM100000171f5a0aRCRD&vgnextoid=e2777a7e0a61c010VgnVCM1000000b205a0aRCRD;ALAMEDA;CALLE;V;5;MADRID;MADRID;28014;3;Cortes;https://wikidata.org/entity/Q2535637;1;Centro;https://wikidata.org/entity/Q1763376;441133;4473725;40.381;-3.727;914 203 802;;Centros Salud
9076;Centro de Salud Alameda de Osuna;;;Metro: Alameda de Osuna (l’nea 5).  Bus: 101/ 114/ 166/ 112/ 115/ 151.;;3;http://www.madrid.es/sites/v/index.jsp?vgnextchannel=bfa48ab43d6bb410VgnVCM100000171f5a0aRCRD&vgnextoid=75877a7e0a61c010VgnVCM1000000b205a0aRCRD;CARABELA;CALLE;V;7;MADRID;MADRID;28042;1;Alameda de Osuna;https://wikidata.org/entity/Q760737;21;Barajas;https://wikidata.org/entity/Q807230;450255;4478462;40.445;-3.674;913 296 458;;Centros Salud
8985;Centro de Salud Alcal‡ de Guadaira;;;Metro: Buenos Aires (l’nea 1).  Bus: 10.  Bicimad: Estaci—n 428 (avenida de la Albufera/ 136).;;3;http://www.madrid.es/sites/v/index.jsp?vgnextchannel=bfa48ab43d6bb410VgnVCM100000171f5a0aRCRD&vgnextoid=08977a7e0a61c010VgnVCM1000000b205a0aRCRD;ALCALA DE GUADAIRA;CALLE;V;4;MADRID;MADRID;28018;3;Palomeras Bajas;https://wikidata.org/entity/Q10343902;13;Puente de Vallecas;https://wikidata.org/entity/Q2003054;444215;4471207;40.412;-3.693;917 783 562;;Centros Salud
21018;Centro de Salud Almendrales;;;Metro: Almendrales (l’nea 3).  Bus: 78/ 6.  Cercan’as Renfe: Doce de Octubre (l’nea C5).;;3;http://www.madrid.es/sites/v/index.jsp?vgnextchannel=bfa48ab43d6bb410VgnVCM100000171f5a0aRCRD&vgnextoid=99d0e35bba51c010VgnVCM2000000c205a0aRCRD;VISITACION;CALLE;V;5;MADRID;MADRID;28026;4;Almendrales;https://wikidata.org/entity/Q9604761;12;Usera;https://wikidata.org/entity/Q953368;440437;4470393;40.455;-3.586;915 001 160;;Centros Salud
9053;Centro de Salud AndrŽs Mellado;;;Metro: Moncloa (l’neas 3 y 6)/ Islas Filipinas (l’nea 7)/ Arg&amp/uuml/elles (l’neas 3/ 4 y 6).  Bus: 16/ 61/ 2.  Bicimad: Estaci—n 199 (Fernando el Cat—lico/ 61).;;3;http://www.madrid.es/sites/v/index.jsp?vgnextchannel=bfa48ab43d6bb410VgnVCM100000171f5a0aRCRD&vgnextoid=9aa77a7e0a61c010VgnVCM1000000b205a0aRCRD;ANDRES MELLADO;CALLE;V;37;MADRID;MADRID;28015;1;Gaztambide;https://wikidata.org/entity/Q10288587;7;Chamber’;https://wikidata.org/entity/Q1763370;439397;4476221;40.389;-3.657;915 446 020;;Centros Salud
31645;Centro de Salud çngela Uriarte;;;Bus: 144/ 57.  Cercan’as Renfe: Asamblea de Madrid (l’neas C2/ C7 y Regional).  Bicimad: Estaci—n 420 (calle de Candilejas/ 5).;Este Centro de Salud presta atenci—n continuada como centro de continuidad de cuidados de enfermer’a de lunes a viernes de 21 a 8 horas y los s‡bados/ domingos y festivos 24 horas.;3;http://www.madrid.es/sites/v/index.jsp?vgnextchannel=bfa48ab43d6bb410VgnVCM100000171f5a0aRCRD&vgnextoid=a4c5b3e42751c010VgnVCM2000000c205a0aRCRD;CANDILEJAS;CALLE;V;66;MADRID;MADRID;28018;3;Palomeras Bajas;https://wikidata.org/entity/Q10343902;13;Puente de Vallecas;https://wikidata.org/entity/Q2003054;443621;4470378;40.381;-3.701;917 851 030;;Centros Salud
8957;Centro de Salud Aquitania;;;Metro: Alsacia (l’nea 2).  Bus: 106/ 140/ 159/ E2.;;3;http://www.madrid.es/sites/v/index.jsp?vgnextchannel=bfa48ab43d6bb410VgnVCM100000171f5a0aRCRD&vgnextoid=2db77a7e0a61c010VgnVCM1000000b205a0aRCRD;AQUITANIA;CALLE;V;22;MADRID;MADRID;28032;4;Arcos;https://wikidata.org/entity/Q9627876;20;San Blas-Canillejas;https://wikidata.org/entity/Q2001937;447587;4474411;40.434;-3.714;913 135 323;;Centros Salud
9001;Centro de Salud Aravaca;;;Bus:   160/ 161.   Aparcamiento: Corona Boreal (6) plaza Corona Boreal y calle MarquŽs Camarines.;;3;http://www.madrid.es/sites/v/index.jsp?vgnextchannel=bfa48ab43d6bb410VgnVCM100000171f5a0aRCRD&vgnextoid=bfc77a7e0a61c010VgnVCM1000000b205a0aRCRD;RIAZA;CALLE;V;5;MADRID;MADRID;28023;7;Aravaca;https://wikidata.org/entity/Q3314682;9;Moncloa-Aravaca;https://wikidata.org/entity/Q2017682;433724;4478713;40.382;-3.664;913 573 486 / 913 574 502;;Centros Salud
10144881;Centro de Salud ArgŸelles;;;Metro: Arg&amp/uuml/elles (l’neas 3/ 4 y 6)/ Ventura Rodr’guez (l’nea 3).  Bus: 62/ 74.  Bicimad: Estaci—n 114 (calle Quintana/ 13).  Aparcamiento: MarquŽs de Urquijo (63) entre calle Princesa y calle Juan çlvarez Mendizabal.;;3;http://www.madrid.es/sites/v/index.jsp?vgnextchannel=bfa48ab43d6bb410VgnVCM100000171f5a0aRCRD&vgnextoid=20b54841aa567510VgnVCM2000001f4a900aRCRD;QUINTANA;CALLE;V;11;MADRID;MADRID;28008;2;ArgŸelles;https://wikidata.org/entity/Q64874;9;Moncloa-Aravaca;https://wikidata.org/entity/Q2017682;439158;4475489;40.418;-3.617;915 594 898;;Centros Salud
34973;Centro de Salud Arroyo Medialegua;;;Metro: Vinateros (l’nea 9).  Bus: 71/ 113.  Bicimad: Estaciones 218 (calle Camino de los Vinateros/ 28)/ 458 (calle del Arrroyo Belincoso/ 26).;;3;http://www.madrid.es/sites/v/index.jsp?vgnextchannel=bfa48ab43d6bb410VgnVCM100000171f5a0aRCRD&vgnextoid=37d5b3e42751c010VgnVCM2000000c205a0aRCRD;ARROYO DE LA MEDIA LEGUA;CALLE;V;35;MADRID;MADRID;28030;4;Media Legua;https://wikidata.org/entity/Q9031035;14;Moratalaz;https://wikidata.org/entity/Q2076109;444483;4473711;40.456;-3.781;913 280 257;;Centros Salud
9007;Centro de Salud Artilleros;;;Metro: Vic‡lvaro (l’nea 9).  Bus: 100/ 130/ 106/ 4/ E3/ E5.;;3;http://www.madrid.es/sites/v/index.jsp?vgnextchannel=bfa48ab43d6bb410VgnVCM100000171f5a0aRCRD&vgnextoid=d4f77a7e0a61c010VgnVCM1000000b205a0aRCRD;ARTILLEROS;PASEO;V;31;MADRID;MADRID;28032;1;Casco Hist—rico de Vic‡lvaro;https://wikidata.org/entity/Q16544374;19;Vic‡lvaro;https://wikidata.org/entity/Q589403;448330;4472973;40.427;-3.717;917 768 011;;Centros Salud
9039;Centro de Salud Avenida de Arag—n;;;Metro: Ciudad Lineal (l’nea 5).  Bus: 104/ 77/ 105/ 38/ 4/ 48/ 70/ 109/ 113.;;3;http://www.madrid.es/sites/v/index.jsp?vgnextchannel=bfa48ab43d6bb410VgnVCM100000171f5a0aRCRD&vgnextoid=93154b6faa61c010VgnVCM1000000b205a0aRCRD;ALCALA;CALLE;V;425;MADRID;MADRID;28027;3;Quintana;https://wikidata.org/entity/Q71810;15;Ciudad Lineal;https://wikidata.org/entity/Q1763694;445966;4476598;40.412;-3.654;913 201 068 / 913 201 472;;Centros Salud
8953;Centro de Salud Barajas;;;Metro: Barajas (L’nea 8).  Bus: 105/ 115/ 166.;Este Centro de Salud presta atenci—n continuada como centro de continuidad de cuidados de enfermer’a s‡bados/ domingos y festivos de 9 a 21 horas.;3;http://www.madrid.es/sites/v/index.jsp?vgnextchannel=bfa48ab43d6bb410VgnVCM100000171f5a0aRCRD&vgnextoid=77084b6faa61c010VgnVCM1000000b205a0aRCRD;LOGRO„O;AVENIDA;V;319;MADRID;MADRID;28042;4;Tim—n;https://wikidata.org/entity/Q10382570;21;Barajas;https://wikidata.org/entity/Q807230;450675;4480268;40.405;-3.608;913 291 767;;Centros Salud
8958;Centro de Salud Barrio del Pilar;;;Metro: Barrio del Pilar (l’nea 9).  Bus: 147.  Bicimad: Estaciones 575 (calle Ginzo de Limia/ 36)/ 573 (calle Melchor Fern‡ndez Almagro/ 16).;;3;http://www.madrid.es/sites/v/index.jsp?vgnextchannel=bfa48ab43d6bb410VgnVCM100000171f5a0aRCRD&vgnextoid=0a184b6faa61c010VgnVCM1000000b205a0aRCRD;FINISTERRE;CALLE;V;18;MADRID;MADRID;28029;5;La Paz;https://wikidata.org/entity/Q5869740;8;Fuencarral-El Pardo;https://wikidata.org/entity/Q656196;440501;4481036;40.438;-3.637;913 149 777;;Centros Salud
9031;Centro de Salud Baviera;;;Metro: Cartagena (l’nea 7)/ Parque de las Avenida (l’nea 7).  Bus: 74.  BiciMad: Estaci—n 241 (Avenida de Camilo JosŽ Cela/ 23).;;3;http://www.madrid.es/sites/v/index.jsp?vgnextchannel=bfa48ab43d6bb410VgnVCM100000171f5a0aRCRD&vgnextoid=9c284b6faa61c010VgnVCM1000000b205a0aRCRD;PINTOR MORENO CARBONERO;CALLE;V;21;MADRID;MADRID;28028;4;La Guindalera;https://wikidata.org/entity/Q3814559;4;Salamanca;https://wikidata.org/entity/Q1773521;443347;4476701;40.471;-3.581;917 267 178;;Centros Salud
9006;Centro de Salud Benita çvila;;;Metro: Pinar del Rey (l’nea 8).  Bus: 87/ 73.  Bicimad: Estaci—n 523 (calle de la Carretera de Canillas/ 40).;;3;http://www.madrid.es/sites/v/index.jsp?vgnextchannel=bfa48ab43d6bb410VgnVCM100000171f5a0aRCRD&vgnextoid=2f384b6faa61c010VgnVCM1000000b205a0aRCRD;BENITA AVILA;CALLE;V;26;MADRID;MADRID;28043;3;Canillas;https://wikidata.org/entity/Q9694341;16;Hortaleza;https://wikidata.org/entity/Q1928529;444858;4479588;40.477;-3.701;913 882 915;;Centros Salud
8939;Centro de Salud Bucodental;;Antes de acudir/ p—ngase en contacto telef—nico con el centro    Horario de invierno: De 8 a 14 horas  Semana de San Isidro: 8:30 a 14 horas  Del 3 al 26 de agosto cerrado;Metro: Ciudad de los çngeles salida calle Tertulia (L 3) Bus: 22/ 23/ 59/ 85/ 79 y 123 Renfe: Villaverde Bajo;;1;http://www.madrid.es/sites/v/index.jsp?vgnextchannel=bfa48ab43d6bb410VgnVCM100000171f5a0aRCRD&vgnextoid=08784b6faa61c010VgnVCM1000000b205a0aRCRD;FELICIDAD;AVENIDA;V;17;MADRID;MADRID;28041;4;Los Rosales;https://wikidata.org/entity/Q10319807;17;Villaverde;https://wikidata.org/entity/Q919536;441347;4467878;40.439;-3.667;"Recepci—n: 915 88 87 80                                Secretar’a: 914 80 10 40";mspbucodental@madrid.es;Centros Prevencion Enfermedades
8945;Centro de Salud Buenos Aires;;;Metro: Buenos Aires (l’nea 1).  Bus: 141/ 143/ 54.;;3;http://www.madrid.es/sites/v/index.jsp?vgnextchannel=bfa48ab43d6bb410VgnVCM100000171f5a0aRCRD&vgnextoid=9a884b6faa61c010VgnVCM1000000b205a0aRCRD;PIO FELIPE;CALLE;V;26;MADRID;MADRID;28038;6;Numancia;https://wikidata.org/entity/Q10338144;13;Puente de Vallecas;https://wikidata.org/entity/Q2003054;444537;4471709;40.465;-3.659;913 033 200;;Centros Salud
8959;Centro de Salud Bustarviejo;;;Metro: Valdeacederas (l’nea 1)/ Tetu‡n (l’nea 1).  Bus: 124/ 66.  Bicimad: Estaci—n 207 (Azucenas/ 1).;;3;http://www.madrid.es/sites/v/index.jsp?vgnextchannel=bfa48ab43d6bb410VgnVCM100000171f5a0aRCRD&vgnextoid=2d984b6faa61c010VgnVCM1000000b205a0aRCRD;BUSTARVIEJO;CALLE;V;5;MADRID;MADRID;28020;3;Castillejos;https://wikidata.org/entity/Q11913212;6;Tetu‡n;https://wikidata.org/entity/Q1773540;441038;4479298;40.359;-3.694;915 720 998;;Centros Salud
8975;Centro de Salud C‡ceres;;;Metro: Delicias (l’nea 3).  Bus: 19/ 247/ 45/ 47/ 59/ 8/ 85/ 86.  Cercan’as Renfe: Delicias (L’neas C1 y C10).  Bicimad: Estaciones 164 (Paseo de las Delicias 94)/ 172 (calle Bustamante/ 1).;;3;http://www.madrid.es/sites/v/index.jsp?vgnextchannel=bfa48ab43d6bb410VgnVCM100000171f5a0aRCRD&vgnextoid=bfa84b6faa61c010VgnVCM1000000b205a0aRCRD;CACERES;CALLE;V;4;MADRID;MADRID;28045;5;Las Delicias;https://wikidata.org/entity/Q3773736;2;Arganzuela;https://wikidata.org/entity/Q2000929;441029;4472232;40.394;-3.653;915 309 112;;Centros Salud
7651785;Centro de Salud Campo de la Paloma;;;Bus: 310/ 10/ 144/ 57.  Bicimad: Estaci—n 433 (calle de Villalobos/ 28).;;3;http://www.madrid.es/sites/v/index.jsp?vgnextchannel=bfa48ab43d6bb410VgnVCM100000171f5a0aRCRD&vgnextoid=02b588575dca8410VgnVCM2000000c205a0aRCRD;VILLALOBOS;CALLE;V;14;MADRID;MADRID;28018;4;Palomeras Sureste;https://wikidata.org/entity/Q10343901;13;Puente de Vallecas;https://wikidata.org/entity/Q2003054;444993;4470359;40.462;-3.695;917 789 613;;Centros Salud
51700;Centro de Salud Canal de Panam‡;;;Metro: Barrio de la Concepci—n (l’nea 7).  Bus: 122/ 53.  Aparcamiento: Verdaguer y Garc’a (44)/ calle Verdaguer y Garc’a.;;3;http://www.madrid.es/sites/v/index.jsp?vgnextchannel=bfa48ab43d6bb410VgnVCM100000171f5a0aRCRD&vgnextoid=e3e2598d1351c010VgnVCM1000000b205a0aRCRD;VERDAGUER Y GARCIA;CALLE;V;56;MADRID;MADRID;28027;5;San Pascual;https://wikidata.org/entity/Q165612;15;Ciudad Lineal;https://wikidata.org/entity/Q1763694;444653;4476944;40.398;-3.694;914 032 154;;Centros Salud
7651324;Centro de Salud Carabanchel Alto;;;Metro: La Peseta (l’nea 11).  Bus: 118/ 155/ 35/ E1.;;3;http://www.madrid.es/sites/v/index.jsp?vgnextchannel=bfa48ab43d6bb410VgnVCM100000171f5a0aRCRD&vgnextoid=8443c71485ca8410VgnVCM2000000c205a0aRCRD;CARABANCHEL ALTO;AVENIDA;V;150;MADRID;MADRID;28054;6;Buenavista;https://wikidata.org/entity/Q953929;11;Carabanchel;https://wikidata.org/entity/Q1001991;435971;4468168;40.393;-3.781;915 115 793;;Centros Salud
8965;Centro de Salud Caramuel;;;Metro: Puerta del çngel (l’nea 6).  Bus: 138.  Bicimad: Estaci—n 224 (calle Caramuel/ 51).;;3;http://www.madrid.es/sites/v/index.jsp?vgnextchannel=bfa48ab43d6bb410VgnVCM100000171f5a0aRCRD&vgnextoid=d4d84b6faa61c010VgnVCM1000000b205a0aRCRD;FUENTEOVEJUNA;CALLE;V;17;MADRID;MADRID;28011;2;Barrio de Puerta del çngel;https://wikidata.org/entity/Q31142;10;Latina;https://wikidata.org/entity/Q794954;438230;4473423;40.382;-3.648;914 635 879 / 914 798 262;;Centros Salud
9050;Centro de Salud Casa de Campo;;;Bus: 41/ 75/ 46.  Bicimad: Estaci—n 314 (avenida de Valladolid/ 47G/ 47).;;3;http://www.madrid.es/sites/v/index.jsp?vgnextchannel=bfa48ab43d6bb410VgnVCM100000171f5a0aRCRD&vgnextoid=67e84b6faa61c010VgnVCM1000000b205a0aRCRD;RIBERA DEL MANZANARES;CALLE;V;113;MADRID;MADRID;28008;1;Casa de Campo;https://wikidata.org/entity/Q16302441;9;Moncloa-Aravaca;https://wikidata.org/entity/Q2017682;438061;4475708;40.441;-3.652;915 473 628 / 915 590 035;;Centros Salud
9032;Centro de Salud Castell—;;;Metro: Nœ–ez de Balboa (l’neas 5 y 9)/ Vel‡zquez (l’nea 4)/ Lista (l’nea 4).  Bus: 29/ 52/ 1/ 74.  Bicimad: Estaciones 109 (calle JosŽ Ortega y Gasset/ 30) y 87 (calle Ayala/ 44).  Aparcamiento: Vel‡zquez Ayala (42) calle Vel‡zquez y calle Ayala.;;3;http://www.madrid.es/sites/v/index.jsp?vgnextchannel=bfa48ab43d6bb410VgnVCM100000171f5a0aRCRD&vgnextoid=f9f84b6faa61c010VgnVCM1000000b205a0aRCRD;CASTELLO;CALLE;V;63;MADRID;MADRID;28001;1;Recoletos;https://wikidata.org/entity/Q3814551;4;Salamanca;https://wikidata.org/entity/Q1773521;442206;4475561;40.444;-3.614;915 778 118;;Centros Salud
9054;Centro de Salud Cea Bermœdez;;;Metro: Canal (l’neas 2 y 7).  Bus: 2/ 12.  Bicimad: Estaciones 202 (calle Santander esquina con avenida de Filipinas)/ 201 (calle JosŽ Abascal/ 2)/ 245 (calle Galileo/ 63)/ 131 (calle Bravo Murillo/ 44).;;3;http://www.madrid.es/sites/v/index.jsp?vgnextchannel=bfa48ab43d6bb410VgnVCM100000171f5a0aRCRD&vgnextoid=1f194b6faa61c010VgnVCM1000000b205a0aRCRD;CEA BERMUDEZ;CALLE;V;10;MADRID;MADRID;28003;6;Vallehermoso;https://wikidata.org/entity/Q6122685;7;Chamber’;https://wikidata.org/entity/Q1763370;440030;4476713;40.361;-3.754;915 349 755;;Centros Salud
8966;Centro de Salud Cebreros;;;Metro: Lucero (l’nea 6).  Bus: 36/ 39/ 65/ 33.  Bicimad: Estaci—n 327 (calle El Greco/ 27).;;3;http://www.madrid.es/sites/v/index.jsp?vgnextchannel=bfa48ab43d6bb410VgnVCM100000171f5a0aRCRD&vgnextoid=a1394b6faa61c010VgnVCM1000000b205a0aRCRD;CEBREROS;CALLE;V;74;MADRID;MADRID;28011;3;Lucero;https://wikidata.org/entity/Q31162;10;Latina;https://wikidata.org/entity/Q794954;436487;4473063;40.409;-3.727;914 642 716;;Centros Salud
9028;Centro de Salud Cerro Almod—var;;;Bus: 145/ 63/ 58.;;3;http://www.madrid.es/sites/v/index.jsp?vgnextchannel=bfa48ab43d6bb410VgnVCM100000171f5a0aRCRD&vgnextoid=34494b6faa61c010VgnVCM1000000b205a0aRCRD;FUENTESPINA;CALLE;V;2;MADRID;MADRID;28031;2;Santa Eugenia;https://wikidata.org/entity/Q390463;18;Villa de Vallecas;https://wikidata.org/entity/Q1947988;448673;4470158;40.427;-3.731;913 311 836;;Centros Salud
8960;Centro de Salud Ciudad de los Periodistas;;;Metro: Herrera Oria (l’nea 9).  Bus: 134/ 49/ 133/ 67/ 124/ 127.;;3;http://www.madrid.es/sites/v/index.jsp?vgnextchannel=bfa48ab43d6bb410VgnVCM100000171f5a0aRCRD&vgnextoid=eb794b6faa61c010VgnVCM1000000b205a0aRCRD;VALENCIA DE DON JUAN;CALLE;V;1;MADRID;MADRID;28034;5;La Paz;https://wikidata.org/entity/Q5869740;8;Fuencarral-El Pardo;https://wikidata.org/entity/Q656196;440052;4481806;40.428;-3.681;917 303 399;;Centros Salud
8951;Centro de Salud Ciudad Jard’n;;;Metro: Alfonso XIII (l’nea 4).  Bus: 73/ 9.;;3;http://www.madrid.es/sites/v/index.jsp?vgnextchannel=bfa48ab43d6bb410VgnVCM100000171f5a0aRCRD&vgnextoid=c6594b6faa61c010VgnVCM1000000b205a0aRCRD;PANTOJA;CALLE;V;3;MADRID;MADRID;28002;3;Ciudad Jard’n;https://wikidata.org/entity/Q3773744;5;Chamart’n;https://wikidata.org/entity/Q1766348;443142;4477625;40.438;-3.707;915 194 411;;Centros Salud
9065;Centro de Salud Comillas;;;Metro: MarquŽs de Vadillo (l’nea 5).  Bus: 55/ 60.  Bicimad: Estaci—n 228 (calle San Delf’n/ 9).;;3;http://www.madrid.es/sites/v/index.jsp?vgnextchannel=bfa48ab43d6bb410VgnVCM100000171f5a0aRCRD&vgnextoid=7e894b6faa61c010VgnVCM1000000b205a0aRCRD;EDUARDO MARQUINA;CALLE;V;33;MADRID;MADRID;28019;1;Comillas;https://wikidata.org/entity/Q955844;11;Carabanchel;https://wikidata.org/entity/Q1001991;439740;4471543;40.405;-3.748;914 605 100;;Centros Salud
9040;Centro de Salud Daroca;;;Metro: El Carmen (l’nea 5).  Bus: 106/ 110/ 210/ 146/ 38.  Bicimad: Estaci—n 188 (Avenida Daroca/ 2).;;3;http://www.madrid.es/sites/v/index.jsp?vgnextchannel=bfa48ab43d6bb410VgnVCM100000171f5a0aRCRD&vgnextoid=01a94b6faa61c010VgnVCM1000000b205a0aRCRD;DAROCA;AVENIDA;V;4;MADRID;MADRID;28017;1;Ventas;https://wikidata.org/entity/Q71762;15;Ciudad Lineal;https://wikidata.org/entity/Q1763694;444189;4475770;40.381;-3.604;913 553 004;;Centros Salud
9064;Centro de Salud Delicias;;;Metro: Palos de la Frontera (l’nea 3).  Bus: 19/ 45/ 86/ 27/ 55/ 247/ 47/ 8/ 59/ 6/ 85/ 102.  Cercan’as Renfe: Atocha (l’neas C1/ C2/ C3/ C4/ C4b/ C5/ C7/ C10).  Bicimad: Estaciones 120 (calle Palos de la Frontera 27)/ 168 (paseo Santa Mar’a de la cabeza/ 29).;;3;http://www.madrid.es/sites/v/index.jsp?vgnextchannel=bfa48ab43d6bb410VgnVCM100000171f5a0aRCRD&vgnextoid=93b94b6faa61c010VgnVCM1000000b205a0aRCRD;DELICIAS;CALLE;V;5;MADRID;MADRID;28045;6;Palos de la Frontera;https://wikidata.org/entity/Q521009;2;Arganzuela;https://wikidata.org/entity/Q2000929;441017;4472863;40.484;-3.707;914 678 962;;Centros Salud
31598;Centro de Salud Doctor Castroviejo;;;Metro: Antonio Machado (l’nea 7).  Bus: 42/ 127/ 132.  Bicimad: Estaci—n 599 (calle La Cabrera sin nœmero).;;3;http://www.madrid.es/sites/v/index.jsp?vgnextchannel=bfa48ab43d6bb410VgnVCM100000171f5a0aRCRD&vgnextoid=c9e5b3e42751c010VgnVCM2000000c205a0aRCRD;CANDIDO MATEOS;CALLE;V;11;MADRID;MADRID;28035;3;Pe–agrande;https://wikidata.org/entity/Q3319582;8;Fuencarral-El Pardo;https://wikidata.org/entity/Q656196;439135;4480478;40.447;-3.674;913 739 500;;Centros Salud
9020;Centro de Salud Doctor Cirajas;;;Metro: Ciudad Lineal (l’nea 5)/ Pueblo Nuevo (l’neas 5 y 7).  Bus: 105/ 38/ 4/ 48/ 70.  Bicimad: Estaci—n 477 (calle de los Misterios/ 1).;;3;http://www.madrid.es/sites/v/index.jsp?vgnextchannel=bfa48ab43d6bb410VgnVCM100000171f5a0aRCRD&vgnextoid=26c94b6faa61c010VgnVCM1000000b205a0aRCRD;DOCTOR CIRAJAS;CALLE;V;20;MADRID;MADRID;28017;2;Pueblo Nuevo;https://wikidata.org/entity/Q71753;15;Ciudad Lineal;https://wikidata.org/entity/Q1763694;446074;4476487;40.392;-3.714;913 221 540;;Centros Salud
9014;Centro de Salud el Espinillo;;;Metro: Ciudad de los çngeles (l’nea 3).  Bus: 123/ 23.  Bicimad: Estaci—n 398 (avenida de Orovilla/ 53).;;3;http://www.madrid.es/sites/v/index.jsp?vgnextchannel=bfa48ab43d6bb410VgnVCM100000171f5a0aRCRD&vgnextoid=4be94b6faa61c010VgnVCM1000000b205a0aRCRD;OROVILLA;AVENIDA;V;53;MADRID;MADRID;28041;4;Los Rosales;https://wikidata.org/entity/Q10319807;17;Villaverde;https://wikidata.org/entity/Q919536;441479;4467795;40.435;-3.657;913 180 775;;Centros Salud
9011;Centro de Salud El Pardo;;;Bus:601.;;3;http://www.madrid.es/sites/v/index.jsp?vgnextchannel=bfa48ab43d6bb410VgnVCM100000171f5a0aRCRD&vgnextoid=ddf94b6faa61c010VgnVCM1000000b205a0aRCRD;CARLOS MORLA LYNCH;CALLE;V;2;MADRID;MADRID;28048;1;El Pardo;https://wikidata.org/entity/Q3314337;8;Fuencarral-El Pardo;https://wikidata.org/entity/Q656196;434187;4485593;40.404;-3.695;913 760 233;;Centros Salud
34480;Centro de Salud Eloy Gonzalo;;;Metro: Quevedo (l’nea 2)/ Iglesia (l’nea 1).  Bus: 3/ 16/ 61/ 149.  Bicimad: Estaci—n 126 (Calle General çlvarez de Castro/ 2).  Aparcamiento: Olavide (52) plaza de Olavide.;;3;http://www.madrid.es/sites/v/index.jsp?vgnextchannel=bfa48ab43d6bb410VgnVCM100000171f5a0aRCRD&vgnextoid=5cf5b3e42751c010VgnVCM2000000c205a0aRCRD;ELOY GONZALO;CALLE;V;24;MADRID;MADRID;28010;3;Trafalgar;https://wikidata.org/entity/Q10384027;7;Chamber’;https://wikidata.org/entity/Q1763370;440508;4476180;40.472;-3.718;915 932 300;;Centros Salud
8977;Centro de Salud Embajadores;;;Metro: Embajadores (l’nea 3)/ Acacias (l’nea 5).  Bus: 148/ 60/ 78/ 55/ 59/ 6/ 85/ E1.  Cercan’as Renfe: Embajadores (l’nea C5).  Bicimad: Estaci—n 121 (Paseo Santa Mar’a de la Cabeza/ 58).;;3;http://www.madrid.es/sites/v/index.jsp?vgnextchannel=bfa48ab43d6bb410VgnVCM100000171f5a0aRCRD&vgnextoid=601a4b6faa61c010VgnVCM1000000b205a0aRCRD;CARDENAL SOLIS;CALLE;V;6;MADRID;MADRID;28012;6;Palos de la Frontera;https://wikidata.org/entity/Q521009;2;Arganzuela;https://wikidata.org/entity/Q2000929;440647;4472617;40.435;-3.637;914 671 200;;Centros Salud
5647268;Centro de Salud Ensanche de Vallecas;;;Metro: Congosto (l’nea 1).  Bus: 142/ 103.;;3;http://www.madrid.es/sites/v/index.jsp?vgnextchannel=bfa48ab43d6bb410VgnVCM100000171f5a0aRCRD&vgnextoid=78f1a1832ebf7210VgnVCM1000000b205a0aRCRD;CINCOVILLAS;CALLE;V;1;MADRID;MADRID;28051;3;Ensanche de Vallecas;https://wikidata.org/entity/Q3847485;18;Villa de Vallecas;https://wikidata.org/entity/Q1947988;447041;4468832;40.358;-3.689;913 852 255;;Centros Salud
7651810;Centro de Salud Entrev’as;;;Bus: 103/ 111/ 24.  Cercan’as Renfe: Asamblea de Madrid (l’neas C2/ C7 y Regional).  Bicimad: Estaci—n 423 (avenida de Entrev’as/ 56).;;3;http://www.madrid.es/sites/v/index.jsp?vgnextchannel=bfa48ab43d6bb410VgnVCM100000171f5a0aRCRD&vgnextoid=537fec621fca8410VgnVCM1000000b205a0aRCRD;DE LA CAMPI„A;CALLE;V;;MADRID;MADRID;28053;1;Entrev’as;https://wikidata.org/entity/Q71756;13;Puente de Vallecas;https://wikidata.org/entity/Q2003054;443138;4470060;40.518;-3.776;915 073 030;;Centros Salud
9005;Centro de Salud Espronceda;;;Metro: R’os Rosas (l’nea 1)/ Alonso Cano (l’nea 7)/ Gregorio Mara–—n (l’neas 7 y 10).  Bus: 5/ 12/ 45.  Bicimad: Estaci—n 129 (calle JosŽ Abascal/ 33).;Este Centro de Salud presta atenci—n continuada como centro de continuidad de cuidados de enfermer’a de lunes a viernes de 21 a 8 horas y los s‡bados/ domingos y festivos 24 horas.;3;http://www.madrid.es/sites/v/index.jsp?vgnextchannel=bfa48ab43d6bb410VgnVCM100000171f5a0aRCRD&vgnextoid=853a4b6faa61c010VgnVCM1000000b205a0aRCRD;ESPRONCEDA;CALLE;V;24;MADRID;MADRID;28003;5;R’os Rosas;https://wikidata.org/entity/Q10366270;7;Chamber’;https://wikidata.org/entity/Q1763370;440910;4476884;40.434;-3.701;913 994 149;;Centros Salud
62770;Centro de Salud Estrecho de Corea;;;Metro: Barrio de la Concepci—n (l’nea 7).  Bus: 21/ 146/ 48.  Bicimad: Estaci—n 229 (calle JosŽ del Hierro/ 5).  Aparcamiento: Coraz—n de Mar’a II (3)/ calle Coraz—n de Mar’a (final de la calle).;;3;http://www.madrid.es/sites/v/index.jsp?vgnextchannel=bfa48ab43d6bb410VgnVCM100000171f5a0aRCRD&vgnextoid=0903598d1351c010VgnVCM1000000b205a0aRCRD;ESTRECHO DE COREA;CALLE;V;1;MADRID;MADRID;28027;4;Concepci—n;https://wikidata.org/entity/Q11915156;15;Ciudad Lineal;https://wikidata.org/entity/Q1763694;445048;4476788;40.402;-3.699;914 073 714;;Centros Salud
8942;Centro de Salud Federica Montseny;;;Metro: Miguel Hern‡ndez (l’nea 1).  Bus: 103/ 142/ 143/ 54/ 58/ 144.  Bicimad: Estaci—n 435 (calle San Claudio/ 154).;;3;http://www.madrid.es/sites/v/index.jsp?vgnextchannel=bfa48ab43d6bb410VgnVCM100000171f5a0aRCRD&vgnextoid=184a4b6faa61c010VgnVCM1000000b205a0aRCRD;ALBUFERA;AVENIDA;V;285;MADRID;MADRID;28038;4;Palomeras Sureste;https://wikidata.org/entity/Q10343901;13;Puente de Vallecas;https://wikidata.org/entity/Q2003054;445702;4470966;40.368;-3.623;913 909 975;;Centros Salud
9017;Centro de Salud Fuencarral;;;Metro: Fuencarral (l’nea 10).  Bus: 137/ 66/ 124.;Este Centro de Salud presta atenci—n continuada como centro de continuidad de cuidados de enfermer’a s‡bados/ domingos y festivos de 9 a 21 horas.;3;http://www.madrid.es/sites/v/index.jsp?vgnextchannel=bfa48ab43d6bb410VgnVCM100000171f5a0aRCRD&vgnextoid=aa5a4b6faa61c010VgnVCM1000000b205a0aRCRD;ISLA DE JAVA;CALLE;V;53;MADRID;MADRID;28034;6;Valverde;https://wikidata.org/entity/Q31132;8;Fuencarral-El Pardo;https://wikidata.org/entity/Q656196;441882;4482563;40.379;-3.669;917 293 471;;Centros Salud
9012;Centro de Salud Fuentelarreina;;;Bus: 67/ 82.;;3;http://www.madrid.es/sites/v/index.jsp?vgnextchannel=bfa48ab43d6bb410VgnVCM100000171f5a0aRCRD&vgnextoid=3d6a4b6faa61c010VgnVCM1000000b205a0aRCRD;ALFONSO RODRIGUEZ CASTELAO;CALLE;V;17;MADRID;MADRID;28035;3;Pe–agrande;https://wikidata.org/entity/Q3319582;8;Fuencarral-El Pardo;https://wikidata.org/entity/Q656196;437800;4481539;40.443;-3.696;913 738 448;;Centros Salud
104705;Centro de Salud Gandhi;;;Metro: Garc’a Noblejas (l’nea 7).  Bus: 109/ 38/ 4/ 48/ 70.  Bicimad: Estaci—n 490 (Hermanos Garc’a Noblejas/ 158).;;3;http://www.madrid.es/sites/v/index.jsp?vgnextchannel=bfa48ab43d6bb410VgnVCM100000171f5a0aRCRD&vgnextoid=918c8899fc81c010VgnVCM1000000b205a0aRCRD;GANDHI;CALLE;V;30;MADRID;MADRID;28017;2;Pueblo Nuevo;https://wikidata.org/entity/Q71753;15;Ciudad Lineal;https://wikidata.org/entity/Q1763694;446424;4475146;40.439;-3.647;913 042 927;;Centros Salud
44689;Centro de Salud Garc’a Noblejas;;;Metro: Simancas (l’nea 7)/ Alsacia (l’nea 2).  Bus: 38/ 4/ 48/ 70/ 109.  Bicimad: Estaci—n 490 (Hermanos Garcia Noblejas/ 158).;Este Centro de Salud presta atenci—n continuada como centro de atenci—n continuada mŽdica de lunes a viernes de 21 a 8 horas y los s‡bados/ domingos y festivos 24 horas.;3;http://www.madrid.es/sites/v/index.jsp?vgnextchannel=bfa48ab43d6bb410VgnVCM100000171f5a0aRCRD&vgnextoid=9b13598d1351c010VgnVCM1000000b205a0aRCRD;HERMANOS GARCIA NOBLEJAS;CALLE;V;168;MADRID;MADRID;28037;2;Pueblo Nuevo;https://wikidata.org/entity/Q71753;15;Ciudad Lineal;https://wikidata.org/entity/Q1763694;446737;4474936;40.387;-3.639;913 045 362;;Centros Salud
43144;Centro de Salud General Fanjul;;;Bus: 34/ 17/ 139.  Cercan’as Renfe: Las Aguilas (l’nea C5).;;3;http://www.madrid.es/sites/v/index.jsp?vgnextchannel=bfa48ab43d6bb410VgnVCM100000171f5a0aRCRD&vgnextoid=2e23598d1351c010VgnVCM1000000b205a0aRCRD;LAS AGUILAS;AVENIDA;V;18;MADRID;MADRID;28044;7;Las çguilas;https://wikidata.org/entity/Q5971372;10;Latina;https://wikidata.org/entity/Q794954;434034;4470441;40.491;-3.685;917 063 300;;Centros Salud
52655;Centro de Salud General Ricardos;;;Metro: Oporto (l’neas 5 y 6)/ Urgel (l’nea 5).  Bus: 118/ 34/ 35/ 119.  Bicimad: Estaci—n 352 (calle Algorta/ 2).;;3;http://www.madrid.es/sites/v/index.jsp?vgnextchannel=bfa48ab43d6bb410VgnVCM100000171f5a0aRCRD&vgnextoid=b043598d1351c010VgnVCM1000000b205a0aRCRD;GENERAL RICARDOS;CALLE;V;131;MADRID;MADRID;28019;2;Opa–el;https://wikidata.org/entity/Q3813756;11;Carabanchel;https://wikidata.org/entity/Q1001991;438193;4471373;40.482;-3.733;914 283 939 / 914 283 940;;Centros Salud
8986;Centro de Salud Goya;;;Metro: O'Donnell (l’nea 6).  Bus: 28/ 203/ E2/ E3/ 143/ 156/ 2/ 30/ 56/ 71/ E4/ E5.  Bicimad: Estaciones 62 (calle D'Donnell/ 50)/ 101 (calle Jorge Juan/ 131).;;3;http://www.madrid.es/sites/v/index.jsp?vgnextchannel=bfa48ab43d6bb410VgnVCM100000171f5a0aRCRD&vgnextoid=529a4b6faa61c010VgnVCM1000000b205a0aRCRD;O'DONNELL;CALLE;V;55;MADRID;MADRID;28009;2;Goya;https://wikidata.org/entity/Q3814578;4;Salamanca;https://wikidata.org/entity/Q1773521;443043;4474755;40.425;-3.631;915 042 210;;Centros Salud
9024;Centro de Salud Guayaba;;;Metro: Carabanchel Alto (l’nea 11).  Bus: 121/ 131/ 47/ 108/ 118.;;3;http://www.madrid.es/sites/v/index.jsp?vgnextchannel=bfa48ab43d6bb410VgnVCM100000171f5a0aRCRD&vgnextoid=e4aa4b6faa61c010VgnVCM1000000b205a0aRCRD;ANTONIA RODRIGUEZ SACRISTAN;CALLE;V;4;MADRID;MADRID;28044;6;Buenavista;https://wikidata.org/entity/Q953929;11;Carabanchel;https://wikidata.org/entity/Q1001991;436517;4469439;40.423;-3.627;915 081 004;;Centros Salud
8967;Centro de Salud Guzm‡n el Bueno;;;Metro: Arg&amp/uuml/elles (l’neas 3/ 4 y 6).  Bus: 2/ 002/ 21/ C03.  Bicimad: Estaci—n 123 (calle Guzm‡n el Bueno/ 1).;;3;http://www.madrid.es/sites/v/index.jsp?vgnextchannel=bfa48ab43d6bb410VgnVCM100000171f5a0aRCRD&vgnextoid=77ba4b6faa61c010VgnVCM1000000b205a0aRCRD;GUZMAN EL BUENO;CALLE;V;11;MADRID;MADRID;28015;1;Gaztambide;https://wikidata.org/entity/Q10288587;7;Chamber’;https://wikidata.org/entity/Q1763370;439473;4475872;40.381;-3.777;915 447 696;;Centros Salud
8999;Centro de Salud Ibiza;;;Metro: Ibiza (l’nea 9).  Bus: 15/ 2/ 215/ 26/ 61/ 63/ C1/ C2/ 152/ 20.  Bicimad: Estaci—n 181 (Ibiza/ 18).;;3;http://www.madrid.es/sites/v/index.jsp?vgnextchannel=bfa48ab43d6bb410VgnVCM100000171f5a0aRCRD&vgnextoid=0aca4b6faa61c010VgnVCM1000000b205a0aRCRD;IBIZA;CALLE;V;7;MADRID;MADRID;28009;4;Ibiza;https://wikidata.org/entity/Q15249910;3;Retiro;https://wikidata.org/entity/Q2002296;442484;4474430;40.393;-3.728;915 044 016;;Centros Salud
8990;Centro de Salud Infanta Mercedes;;;Metro: Estrecho (l’nea 1).  Bus: 43/ 3.  Bicimad: Estaci—n 152 (Avenida General Per—n/ 4).  Aparcamiento: Presidente Carmona (33) avenida Presidente Carmona.;;3;http://www.madrid.es/sites/v/index.jsp?vgnextchannel=bfa48ab43d6bb410VgnVCM100000171f5a0aRCRD&vgnextoid=cf7a4b6faa61c010VgnVCM1000000b205a0aRCRD;INFANTA MERCEDES;CALLE;V;7;MADRID;MADRID;28020;2;Cuatro Caminos;https://wikidata.org/entity/Q5824684;6;Tetu‡n;https://wikidata.org/entity/Q1773540;440692;4478273;40.421;-3.671;914 506 061 / 915 545 504;;Centros Salud
8993;Centro de Salud Isla de Oza;;;Bus: 82/ 137/ 64.;;3;http://www.madrid.es/sites/v/index.jsp?vgnextchannel=bfa48ab43d6bb410VgnVCM100000171f5a0aRCRD&vgnextoid=9cda4b6faa61c010VgnVCM1000000b205a0aRCRD;SAN MARTIN DE PORRES;CALLE;V;6;MADRID;MADRID;28035;3;Ciudad Universitaria;https://wikidata.org/entity/Q3319235;9;Moncloa-Aravaca;https://wikidata.org/entity/Q2017682;438346;4479962;40.373;-3.747;913 738 412;;Centros Salud
30526;Centro de Salud Jazm’n;;;Metro: Pinar de Chamart’n (l’neas 1/ 4 y ML1).  Bus: 129/ 125/ 150.  Cercan’as Renfe: Fuente de la Mora (l’neas C1/ C10 y Regional).  Bicimad: Estaci—n 540 (calle de Dulce Chac—n sin nœmero).  Aparcamiento: Fuente de la Mora (74) avenida de Manoteras/ 1D.;;3;http://www.madrid.es/sites/v/index.jsp?vgnextchannel=bfa48ab43d6bb410VgnVCM100000171f5a0aRCRD&vgnextoid=ee06b3e42751c010VgnVCM2000000c205a0aRCRD;JAZMIN;CALLE;V;33;MADRID;MADRID;28033;9;Costillares;https://wikidata.org/entity/Q331385;15;Ciudad Lineal;https://wikidata.org/entity/Q1763694;443771;4481483;40.431;-3.713;913 832 614;;Centros Salud
117595;Centro de Salud Joaqu’n Rodrigo;;;Bus: 6/ 60/ 81.  Bicimad: Estaciones 391 (calle Rafaela Ybarra/ 22)/ 387 (calle de Isabelita Usera/ 44).;;3;http://www.madrid.es/sites/v/index.jsp?vgnextchannel=bfa48ab43d6bb410VgnVCM100000171f5a0aRCRD&vgnextoid=249c8899fc81c010VgnVCM1000000b205a0aRCRD;MARIANO VELA;CALLE;V;62;MADRID;MADRID;28026;7;Pradolongo;https://wikidata.org/entity/Q10352360;12;Usera;https://wikidata.org/entity/Q953368;439757;4470333;40.418;-3.677;913 920 630;;Centros Salud
9022;Centro de Salud JosŽ Mar’a Llanos;;;Bus: 102/ 24.;;3;http://www.madrid.es/sites/v/index.jsp?vgnextchannel=bfa48ab43d6bb410VgnVCM100000171f5a0aRCRD&vgnextoid=2fea4b6faa61c010VgnVCM1000000b205a0aRCRD;CABO MACHICHACO;CALLE;V;62;MADRID;MADRID;28053;1;Entrev’as;https://wikidata.org/entity/Q71756;13;Puente de Vallecas;https://wikidata.org/entity/Q2003054;443827;4469194;40.453;-3.699;915 075 060;;Centros Salud
9090;Centro de Salud JosŽ Marv‡;;;Metro: Valdeacederas (l’nea 1).  Bus: 124/ 66/ 49.  Bicimad: Estaci—n 207 (Azucenas/ 1).;;3;http://www.madrid.es/sites/v/index.jsp?vgnextchannel=bfa48ab43d6bb410VgnVCM100000171f5a0aRCRD&vgnextoid=b10b4b6faa61c010VgnVCM1000000b205a0aRCRD;BRAVO MURILLO;CALLE;V;317;MADRID;MADRID;28020;5;Valdeacederas;https://wikidata.org/entity/Q10388711;6;Tetu‡n;https://wikidata.org/entity/Q1773540;440930;4479429;40.468;-3.727;915 718 303;;Centros Salud
190838;Centro de Salud Justicia;;;Metro: Chueca (l’nea 5)/ Alonso Mart’nez (l’neas 4/ 5 y 10)/ Tribunal (l’neas 1 y 10).  Bus: 37/ 3.  Cercan’as Renfe:  Recoletos (l’neas C1/ C2/ C7/ C10 y Regional).  Bicimad: Estaciones 7 (calle Hortaleza/ 75)/ 6 (calle Hortaleza/ 63)/ 26 (plaza de las Salesas/ 7).  Aparcamiento: Gravina 21 (89)/ calle Gravina/ Garaje Piamonte (96) calle de Piamonte/ aparcamiento Escuelas de San Ant—n (91)/ Santa Brigida.;;3;http://www.madrid.es/sites/v/index.jsp?vgnextchannel=bfa48ab43d6bb410VgnVCM100000171f5a0aRCRD&vgnextoid=7fe82a9d23d60110VgnVCM1000000b205a0aRCRD;REGUEROS;CALLE;V;3;MADRID;MADRID;28004;4;Justicia;https://wikidata.org/entity/Q1992319;1;Centro;https://wikidata.org/entity/Q1763376;440896;4475104;40.482;-3.663;917 025 483;;Centros Salud
40204;Centro de Salud La Ventilla;;;Metro: Ventilla (l’nea 9).  Bus: 177/ 42.  Bicimad: Estacion 296 (calle de Costa Verde/ 24).;;3;http://www.madrid.es/sites/v/index.jsp?vgnextchannel=bfa48ab43d6bb410VgnVCM100000171f5a0aRCRD&vgnextoid=4353598d1351c010VgnVCM1000000b205a0aRCRD;ASTURIAS;AVENIDA;V;61;MADRID;MADRID;28029;4;Almenara;https://wikidata.org/entity/Q2265427;6;Tetu‡n;https://wikidata.org/entity/Q1773540;440752;4480322;40.381;-3.709;913 156 112;;Centros Salud
8987;Centro de Salud Lagasca;;;Metro: Avenida de AmŽrica (l’nea 4/ 6/ 7 y 9)/ Nœ–ez de Balboa (l’neas 5 y 9).  Bus: 61/ 19/ 51/ 9.  Bicimad: Estaci—n 190 (calle Vel‡zquez/ 91).;;3;http://www.madrid.es/sites/v/index.jsp?vgnextchannel=bfa48ab43d6bb410VgnVCM100000171f5a0aRCRD&vgnextoid=441b4b6faa61c010VgnVCM1000000b205a0aRCRD;LAGASCA;CALLE;V;122;MADRID;MADRID;28006;6;Castellana;https://wikidata.org/entity/Q4781;4;Salamanca;https://wikidata.org/entity/Q1773521;441964;4476329;40.371;-3.661;915 618 463;;Centros Salud
8971;Centro de Salud Las çguilas;;;Bus: 34/ 155.  Cercan’as Renfe: Maestra Justa Freire - Polideportivo Aluche (antigua estaci—n de Fanjul) (l’nea C5).;Este Centro de Salud presta atenci—n continuada como centro de continuidad de cuidados de enfermer’a de lunes a viernes de 21 a 8 horas y los s‡bados/ domingos y festivos 24 horas.;3;http://www.madrid.es/sites/v/index.jsp?vgnextchannel=bfa48ab43d6bb410VgnVCM100000171f5a0aRCRD&vgnextoid=d62b4b6faa61c010VgnVCM1000000b205a0aRCRD;JOSE DE CADALSO;CALLE;V;51;MADRID;MADRID;28044;7;Las çguilas;https://wikidata.org/entity/Q5971372;10;Latina;https://wikidata.org/entity/Q794954;434762;4469976;40.463;-3.696;917 059 100;;Centros Salud
8976;Centro de Salud Las Calesas;;;Metro: Usera (l’nea 6).    Bus: 23/ 55/ 60.     Bicimad:   Estaci—n 222 (calle Eugenio Caxes/ 12).;;3;http://www.madrid.es/sites/v/index.jsp?vgnextchannel=bfa48ab43d6bb410VgnVCM100000171f5a0aRCRD&vgnextoid=693b4b6faa61c010VgnVCM1000000b205a0aRCRD;CALESAS;CALLE;V;12;MADRID;MADRID;28026;5;Moscard—;https://wikidata.org/entity/Q11937679;12;Usera;https://wikidata.org/entity/Q953368;440114;4471277;40.424;-3.696;915 001 247;;Centros Salud
8968;Centro de Salud Las Cortes;;;Metro: Sevilla (l’nea 2)/ Sol (l’neas 1/ 2 y 3).  Bus: 002/ 51/ M1/ 53/ 15/ 20/ 150/ 5/ 46.  Cercan’as Renfe: Sol (l’neas C3/ C4 y Regional).  Bicimad: Estaciones 28 (calle Alcal‡/ 27)/ 1a y 1b (Puerta del Sol/ 1).  Aparcamientos: Sevilla (41) calle Sevilla y calle Alcal‡/ Hub de Movilidad Canalejas 360 (1239)/ calle de Alcal‡/ 17/ Cortes (46)/ plaza de las Cortes/ plaza de Santa Ana (77).;;3;http://www.madrid.es/sites/v/index.jsp?vgnextchannel=bfa48ab43d6bb410VgnVCM100000171f5a0aRCRD&vgnextoid=fb4b4b6faa61c010VgnVCM1000000b205a0aRCRD;SAN JERONIMO;CARRERA;V;32;MADRID;MADRID;28014;3;Cortes;https://wikidata.org/entity/Q2535637;1;Centro;https://wikidata.org/entity/Q1763376;440694;4474219;40.471;-3.698;913 690 491;;Centros Salud
190840;Centro de Salud LavapiŽs;;;Metro: LavapiŽs (l’nea 3)/ Embajadores (l’nea 3).  Bus: M1.  Cercan’as Renfe: Embajadores (l’nea C5).  Bicimad: Estaciones 44 (calle Mes—n de Paredes 35)/ 48 (glorieta de Embajadores/ 2)/ 53 (calle Valencia/ 1).  Aparcamientos: Agust’n Lara (73) plaza Arturo Barea/ Casino de la Reina (19)/ calle Casino/ Garaje Amparo (75)/ calle Amparo.;;3;http://www.madrid.es/sites/v/index.jsp?vgnextchannel=bfa48ab43d6bb410VgnVCM100000171f5a0aRCRD&vgnextoid=d5092a9d23d60110VgnVCM1000000b205a0aRCRD;EMBAJADORES;CALLE;V;41;MADRID;MADRID;28012;2;Embajadores;https://wikidata.org/entity/Q2449844;1;Centro;https://wikidata.org/entity/Q1763376;440274;4473236;40.435;-3.684;915 272 745;;Centros Salud
8980;Centro de Salud Legazpi;;;Metro: Legazpi (l’neas 3 y 6).  Bus: 148/ 156/ 62.  Bicimad: Estaciones 235 (calle Sodio/ 1B)/ 270 (calle Teresa L—pez Varc‡rcel esquina Teniente Coronel Nore–a).;;3;http://www.madrid.es/sites/v/index.jsp?vgnextchannel=bfa48ab43d6bb410VgnVCM100000171f5a0aRCRD&vgnextoid=8e5b4b6faa61c010VgnVCM1000000b205a0aRCRD;ANTRACITA;CALLE;V;2;MADRID;MADRID;28045;4;Legazpi;https://wikidata.org/entity/Q3773990;2;Arganzuela;https://wikidata.org/entity/Q2000929;441297;4471237;40.377;-3.768;915 062 326;;Centros Salud
9068;Centro de Salud Linneo;;;Metro: Puerta del çngel (l’nea 6).  Bus: 36/ 50/ 62/ 31/ 65/ 138/ 25/ 33/ 39/ 41/ C1/ C2.  Bicimad: Estaci—n 167 (calle Segovia/ 45).;;3;http://www.madrid.es/sites/v/index.jsp?vgnextchannel=bfa48ab43d6bb410VgnVCM100000171f5a0aRCRD&vgnextoid=117b4b6faa61c010VgnVCM1000000b205a0aRCRD;LINNEO;CALLE;V;3;MADRID;MADRID;28005;1;Imperial;https://wikidata.org/entity/Q3773740;2;Arganzuela;https://wikidata.org/entity/Q2000929;438877;4473882;40.389;-3.705;913 654 868;;Centros Salud
6879417;Centro de Salud Londres;;;Metro: Ventas (l’nea 2 y 5).  Bus: 74/ 53.  Bicimad: Estaci—n 193 (avenida Toreros/ 49).;;3;http://www.madrid.es/sites/v/index.jsp?vgnextchannel=bfa48ab43d6bb410VgnVCM100000171f5a0aRCRD&vgnextoid=65925863bf6ad310VgnVCM2000000c205a0aRCRD;LONDRES;CALLE;V;55;MADRID;MADRID;28028;4;La Guindalera;https://wikidata.org/entity/Q3814559;4;Salamanca;https://wikidata.org/entity/Q1773521;443516;4475905;40.416;-3.699;913 611 674;;Centros Salud
112335;Centro de Salud Los Alpes;;;Metro: Las Musas (l’nea 7).  Bus: 140/ E2/ 38.;;3;http://www.madrid.es/sites/v/index.jsp?vgnextchannel=bfa48ab43d6bb410VgnVCM100000171f5a0aRCRD&vgnextoid=220415a11a81c010VgnVCM1000000b205a0aRCRD;SUECIA;CALLE;V;62;MADRID;MADRID;28022;5;Rosas;https://wikidata.org/entity/Q18880469;20;San Blas-Canillejas;https://wikidata.org/entity/Q2001937;448684;4475434;40.407;-3.703;917 759 109;;Centros Salud
21025;Centro de Salud Los çngeles;;;Metro: Villaverde Bajo Cruce (l’nea 3).  Bus: 116/ 18/ 86/ 130/ 22.  Cercan’as Renfe: Puente Alcocer (l’nea C5).;Este Centro de Salud presta atenci—n continuada como centro de atenci—n continuada mŽdica de lunes a viernes de 21 a 8 horas y los s‡bados/ domingos y festivos 24 horas.;3;http://www.madrid.es/sites/v/index.jsp?vgnextchannel=bfa48ab43d6bb410VgnVCM100000171f5a0aRCRD&vgnextoid=4111e35bba51c010VgnVCM2000000c205a0aRCRD;TOTANES;CALLE;V;1;MADRID;MADRID;28041;5;Los çngeles;https://wikidata.org/entity/Q390462;17;Villaverde;https://wikidata.org/entity/Q919536;440682;4466979;40.389;-3.691;917 972 509;;Centros Salud
51699;Centro de Salud Los C‡rmenes;;;Metro: Carpetana (l’nea 6).  Bus: 17/ 25.  Bicimad: Estaci—n 323 (calle Gallur/ 5).;;3;http://www.madrid.es/sites/v/index.jsp?vgnextchannel=bfa48ab43d6bb410VgnVCM100000171f5a0aRCRD&vgnextoid=d563598d1351c010VgnVCM1000000b205a0aRCRD;VIA CARPETANA;CALLE;V;202;MADRID;MADRID;28047;1;Los C‡rmenes;https://wikidata.org/entity/Q10319792;10;Latina;https://wikidata.org/entity/Q794954;437443;4472091;40.413;-3.721;914 663 139;;Centros Salud
4736570;Centro de Salud Los Rosales;;;Metro: Villaverde Bajo Cruce (l’nea 3).  Bus: 123/ 130/ 85.  Cercan’as Renfe: Villaverde Bajo (l’neas C3/ C4 y C4b).;;3;http://www.madrid.es/sites/v/index.jsp?vgnextchannel=bfa48ab43d6bb410VgnVCM100000171f5a0aRCRD&vgnextoid=8c6ca3c5ef0b7110VgnVCM1000000b205a0aRCRD;DIAMANTE;CALLE;V;12;MADRID;MADRID;28021;4;Los Rosales;https://wikidata.org/entity/Q10319807;17;Villaverde;https://wikidata.org/entity/Q919536;441587;4467180;40.431;-3.665;917 230 327;;Centros Salud
9057;Centro de Salud Los YŽbenes;;;Bus: 31/ 25.;;3;http://www.madrid.es/sites/v/index.jsp?vgnextchannel=bfa48ab43d6bb410VgnVCM100000171f5a0aRCRD&vgnextoid=a38b4b6faa61c010VgnVCM1000000b205a0aRCRD;LOS YEBENES;CALLE;V;46;MADRID;MADRID;28047;4;Aluche;https://wikidata.org/entity/Q31140;10;Latina;https://wikidata.org/entity/Q794954;436049;4471909;40.427;-3.604;917 178 412;;Centros Salud
4577760;Centro de Salud Lucero;;;Metro: Lucero (l’nea 6)/ Laguna (l’nea 6).  Bus: 55/ 138.  Cercan’as Renfe: Laguna (L’nea C5).;;3;http://www.madrid.es/sites/v/index.jsp?vgnextchannel=bfa48ab43d6bb410VgnVCM100000171f5a0aRCRD&vgnextoid=0c3f32bbaf892110VgnVCM1000000b205a0aRCRD;LA LATINA;CALLE;V;14;MADRID;MADRID;28047;3;Lucero;https://wikidata.org/entity/Q31162;10;Latina;https://wikidata.org/entity/Q794954;436295;4472562;40.351;-3.698;914 798 513 / 914 798 113;;Centros Salud
8994;Centro de Salud Maqueda;;;Metro: Campamento (l’nea 5).  Bus: 121/ 25.;;3;http://www.madrid.es/sites/v/index.jsp?vgnextchannel=bfa48ab43d6bb410VgnVCM100000171f5a0aRCRD&vgnextoid=369b4b6faa61c010VgnVCM1000000b205a0aRCRD;SESE„A;CALLE;V;44;MADRID;MADRID;28024;4;Aluche;https://wikidata.org/entity/Q31140;10;Latina;https://wikidata.org/entity/Q794954;435004;4472057;40.396;-3.737;917 119 112;;Centros Salud
9019;Centro de Salud Mar B‡ltico;;;Metro: San Lorenzo (l’nea 4).  Bus: 72.;Este Centro de Salud presta atenci—n continuada como centro de continuidad de cuidados de enfermer’a de lunes a viernes de 21 a 8 horas y los s‡bados/ domingos y festivos 24 horas.;3;http://www.madrid.es/sites/v/index.jsp?vgnextchannel=bfa48ab43d6bb410VgnVCM100000171f5a0aRCRD&vgnextoid=c8ab4b6faa61c010VgnVCM1000000b205a0aRCRD;MAR BALTICO;CALLE;V;2;MADRID;MADRID;28033;4;Pinar del Rey;https://wikidata.org/entity/Q10349788;16;Hortaleza;https://wikidata.org/entity/Q1928529;445548;4480405;40.353;-3.687;913 817 625;;Centros Salud
8962;Centro de Salud Mar’a Auxiliadora;;;Metro: Francos Rodr’guez (l’nea 7).  Bus: 44/ 64 /126/ 127/ 132.;;3;http://www.madrid.es/sites/v/index.jsp?vgnextchannel=bfa48ab43d6bb410VgnVCM100000171f5a0aRCRD&vgnextoid=5bbb4b6faa61c010VgnVCM1000000b205a0aRCRD;MARIA AUXILIADORA;CALLE;V;3;MADRID;MADRID;28040;3;Ciudad Universitaria;https://wikidata.org/entity/Q3319235;9;Moncloa-Aravaca;https://wikidata.org/entity/Q2017682;439472;4478795;40.395;-3.753;914 506 951;;Centros Salud
8981;Centro de Salud Mart’n de Vargas;;;Metro: Embajadores (l’nea 3)/ Acacias (l’nea 5).  Bus: 148/ 60/ 78/ 116/ 118.  Cercan’as Renfe: Embajadores (l’nea C5).  Bicimad: Estaciones 47 (glorieta de Embajadores/ 6)/ 48 (glorieta de Embajadores/ 2).;;3;http://www.madrid.es/sites/v/index.jsp?vgnextchannel=bfa48ab43d6bb410VgnVCM100000171f5a0aRCRD&vgnextoid=edcb4b6faa61c010VgnVCM1000000b205a0aRCRD;MARTIN DE VARGAS;CALLE;V;15;MADRID;MADRID;28005;2;Las Acacias;https://wikidata.org/entity/Q3319190;2;Arganzuela;https://wikidata.org/entity/Q2000929;440435;4472733;40.401;-3.753;915 171 218;;Centros Salud
8943;Centro de Salud Mart’nez de la Riva;;;Metro: Nueva Numancia (l’nea 1)/ Portazgo (l’nea 1).  Bus: 111/ 310/ 24.  Bicimad: Estaciones 227 (calle Arroyo del Olivar/ 6)/ 429 (calle de Carlos Mart’n çlvarez/ 38).;;3;http://www.madrid.es/sites/v/index.jsp?vgnextchannel=bfa48ab43d6bb410VgnVCM100000171f5a0aRCRD&vgnextoid=70eb4b6faa61c010VgnVCM1000000b205a0aRCRD;MARTINEZ DE LA RIVA;CALLE;V;57;MADRID;MADRID;28053;2;San Diego;https://wikidata.org/entity/Q11946851;13;Puente de Vallecas;https://wikidata.org/entity/Q2003054;443512;4471471;40.395;-3.765;914 772 561;;Centros Salud
6566847;Centro de Salud Mental Aguacate - Carabanchel;;Consultar telef—nicamente.;Metro: Carabanchel Alto (l’nea 11).  Bus: 108/ 118/ 121/ 131/ 47.;;3;http://www.madrid.es/sites/v/index.jsp?vgnextchannel=bfa48ab43d6bb410VgnVCM100000171f5a0aRCRD&vgnextoid=96f9862f9e3c9310VgnVCM2000000c205a0aRCRD;AGUACATE;CALLE;V;13;MADRID;MADRID;28044;6;Buenavista;https://wikidata.org/entity/Q953929;11;Carabanchel;https://wikidata.org/entity/Q1001991;436498;4469315;40.472;-3.642;914 655 021;csmcarabanchel@salud.madrid.org;Centros Salud Mental
8904;Centro de Salud Mental Ciudad Lineal;;Consultar telef—nicamente.;Metro: Ciudad Lineal (l’nea 5).  Bus: 105/ 38/ 4/ 48/ 70.;;3;http://www.madrid.es/sites/v/index.jsp?vgnextchannel=bfa48ab43d6bb410VgnVCM100000171f5a0aRCRD&vgnextoid=a6ea224e0d61c010VgnVCM1000000b205a0aRCRD;DOCTOR CIRAJAS;CALLE;V;20;MADRID;MADRID;28017;2;Pueblo Nuevo;https://wikidata.org/entity/Q71753;15;Ciudad Lineal;https://wikidata.org/entity/Q1763694;445965;4476279;40.457;-3.713;914 030 715 / 914 030 811 / 913 261 025;;Centros Salud Mental
8915;Centro de Salud Mental de Arganzuela;;Consultar telef—nicamente.;Metro: Puerta de Toledo (l’nea 5).  Bus: C2/ 17/ 41/ C1/ 148/ 3/ 18/ 23/ 35/ 60/ C03/ 002.  Bicimad: Estaci—n 45 (glorieta de la Puerta de Toledo/ 1).;;3;http://www.madrid.es/sites/v/index.jsp?vgnextchannel=bfa48ab43d6bb410VgnVCM100000171f5a0aRCRD&vgnextoid=477a224e0d61c010VgnVCM1000000b205a0aRCRD;SEGOVIA;RONDA;V;52;MADRID;MADRID;28005;1;Imperial;https://wikidata.org/entity/Q3773740;2;Arganzuela;https://wikidata.org/entity/Q2000929;439524;4473155;40.403;-3.701;914 182 981;;Centros Salud Mental
8916;Centro de Salud Mental de Barajas;;Consultar telef—nicamente.;Metro: Barajas (l’nea 8).  Bus: 105/ 115/ 101.;;3;http://www.madrid.es/sites/v/index.jsp?vgnextchannel=bfa48ab43d6bb410VgnVCM100000171f5a0aRCRD&vgnextoid=d98a224e0d61c010VgnVCM1000000b205a0aRCRD;GENERAL;AVENIDA;V;5;MADRID;MADRID;28042;3;Casco Hist—rico de Barajas;https://wikidata.org/entity/Q9701730;21;Barajas;https://wikidata.org/entity/Q807230;450997;4480426;40.391;-3.665;913 056 017;;Centros Salud Mental
8900;Centro de Salud Mental de Centro;;Consultar telef—nicamente.;Metro: Tirso de Molina (l’nea 1).  Bus: 26/ 32/ 6/ M1/ 002/ 50/ 65/ SE712.  Bicimad: Estaciones 43 (calle LavapiŽs/ 34)/ 44 (calle Mes—n de Paredes/ 35)/ 40 (plaza del Conde de Romanones/ 9).  Aparcamiento: Garaje Centro (68)/ calle Relatores/ 11;;3;http://www.madrid.es/sites/v/index.jsp?vgnextchannel=bfa48ab43d6bb410VgnVCM100000171f5a0aRCRD&vgnextoid=feaa224e0d61c010VgnVCM1000000b205a0aRCRD;CABEZA;CALLE;V;4;MADRID;MADRID;28012;2;Embajadores;https://wikidata.org/entity/Q2449844;1;Centro;https://wikidata.org/entity/Q1763376;440280;4473689;40.371;-3.748;915 271 418 / 915 271 095;;Centros Salud Mental
8912;Centro de Salud Mental de Chamart’n;;Consultar telef—nicamente.;Metro: Cartagena (l’nea 7)/ Parque de las Avenidas (l’nea 7).  Bus: 43/ 48.  Bicimad: Estaci—n 241 (avenida de Camilo JosŽ Cela/ 23).;;3;http://www.madrid.es/sites/v/index.jsp?vgnextchannel=bfa48ab43d6bb410VgnVCM100000171f5a0aRCRD&vgnextoid=81ca224e0d61c010VgnVCM1000000b205a0aRCRD;MARQUES DE AHUMADA;CALLE;V;11;MADRID;MADRID;28028;4;La Guindalera;https://wikidata.org/entity/Q3814559;4;Salamanca;https://wikidata.org/entity/Q1773521;443328;4476442;40.435;-3.637;917 131 991;;Centros Salud Mental
8909;Centro de Salud Mental de Chamber’;;Consultar telef—nicamente.;Metro: Alonso Cano (l’nea 7)/ R’os Rosas (l’nea 1)/ Gregorio Mara–—n (l’neas 7 y 10).  Bus: 5/ 12/ 45.  Bicimad: Estaci—n 129 (calle JosŽ Abascal/ 33).;;3;http://www.madrid.es/sites/v/index.jsp?vgnextchannel=bfa48ab43d6bb410VgnVCM100000171f5a0aRCRD&vgnextoid=14da224e0d61c010VgnVCM1000000b205a0aRCRD;MODESTO LAFUENTE;CALLE;V;21;MADRID;MADRID;28003;5;R’os Rosas;https://wikidata.org/entity/Q10366270;7;Chamber’;https://wikidata.org/entity/Q1763370;440951;4476834;40.406;-3.712;913 301 841 / 913 304 142;;Centros Salud Mental
37193;Centro de Salud Mental de Latina - Galiana;;Consultar telef—nicamente.;Metro: Puerta del çngel (l’nea 6).  Bus: 31/ 33/ 36/ 39/ 65/ 138.;;3;http://www.madrid.es/sites/v/index.jsp?vgnextchannel=bfa48ab43d6bb410VgnVCM100000171f5a0aRCRD&vgnextoid=6d77444a2951c010VgnVCM2000000c205a0aRCRD;GALIANA;CALLE;V;1;MADRID;MADRID;28011;2;Barrio de Puerta del çngel;https://wikidata.org/entity/Q31142;10;Latina;https://wikidata.org/entity/Q794954;437933;4473533;40.473;-3.578;915 261 928 / 915 263 368;;Centros Salud Mental
8911;Centro de Salud Mental de Moncloa;;Consultar telef—nicamente.;Metro: Ventura Rodr’guez (l’nea 3)/ Arg&amp/uuml/elles (l’neas 3/ 4 y 6).  Bus: 62/ 74/ 001/ 1/ 133/ 138/ 2/ 44/ C2/ 21/ C1/ 002/ C03.  Bicimad: Estaci—n 114 (calle Quintana/ 11).;;3;http://www.madrid.es/sites/v/index.jsp?vgnextchannel=bfa48ab43d6bb410VgnVCM100000171f5a0aRCRD&vgnextoid=5e1b224e0d61c010VgnVCM1000000b205a0aRCRD;QUINTANA;CALLE;V;11;MADRID;MADRID;28008;2;ArgŸelles;https://wikidata.org/entity/Q64874;9;Moncloa-Aravaca;https://wikidata.org/entity/Q2017682;439158;4475489;40.411;-3.703;915 417 267;;Centros Salud Mental
8910;Centro de Salud Mental de Moratalaz;;Consultar telef—nicamente.;Metro: Pavones (l’nea 9).  Bus: 20/ 30/ 32/ 71/ 8/ 142/ 140/ 144/ E.  Bicimad: Estaci—n 221 (calle Hacienda de Pavones/ 342).;;3;http://www.madrid.es/sites/v/index.jsp?vgnextchannel=bfa48ab43d6bb410VgnVCM100000171f5a0aRCRD&vgnextoid=e03b224e0d61c010VgnVCM1000000b205a0aRCRD;HACIENDA DE PAVONES;CALLE;V;348;MADRID;MADRID;28030;1;Pavones;https://wikidata.org/entity/Q71760;14;Moratalaz;https://wikidata.org/entity/Q2076109;446215;4472330;40.436;-3.668;913 283 209 / 913 283 081;;Centros Salud Mental
8921;Centro de Salud Mental de Salamanca;;Consultar telef—nicamente.;Metro: O&amp/acute/Donnell (l’nea 6).  Bus: 28/ 203/ E2/ E3/ 143/ 156/ 2/ 30/ 56/ 71/ E4/ E5.  Bicimad: Estaciones 62 (calle O'Donell/ 50)/ 101 (calle Jorge Juan/ 131).;;3;http://www.madrid.es/sites/v/index.jsp?vgnextchannel=bfa48ab43d6bb410VgnVCM100000171f5a0aRCRD&vgnextoid=986b224e0d61c010VgnVCM1000000b205a0aRCRD;O'DONNELL;CALLE;V;55;MADRID;MADRID;28009;2;Goya;https://wikidata.org/entity/Q3814578;4;Salamanca;https://wikidata.org/entity/Q1773521;443043;4474755;40.442;-3.696;915 042 796 / 915 040 034;;Centros Salud Mental
8919;Centro de Salud Mental de Villaverde;;Consultar telef—nicamente.;Metro: Villaverde Bajo-Cruce (l’nea 3).  Bus: 116/ 18/ 86/ 130/ 22.  Cercan’as Renfe: Puente Alcocer (l’nea C5).;;3;http://www.madrid.es/sites/v/index.jsp?vgnextchannel=bfa48ab43d6bb410VgnVCM100000171f5a0aRCRD&vgnextoid=d2bb224e0d61c010VgnVCM1000000b205a0aRCRD;TOTANES;CALLE;V;1;MADRID;MADRID;28041;5;Los çngeles;https://wikidata.org/entity/Q390462;17;Villaverde;https://wikidata.org/entity/Q919536;440682;4466979;40.413;-3.731;917 955 546;csmvillaverde@salud.madrid.org;Centros Salud Mental
8901;Centro de Salud Mental Fuencarral;;Consultar telef—nicamente.;Metro: Bego–a (l’nea 10)  Bus: 147/ 134/ 137/ 124/ 135/ 67.;;3;http://www.madrid.es/sites/v/index.jsp?vgnextchannel=bfa48ab43d6bb410VgnVCM100000171f5a0aRCRD&vgnextoid=39fa224e0d61c010VgnVCM1000000b205a0aRCRD;MELCHOR FERNANDEZ ALMAGRO;CALLE;V;1;MADRID;MADRID;28029;5;La Paz;https://wikidata.org/entity/Q5869740;8;Fuencarral-El Pardo;https://wikidata.org/entity/Q656196;441425;4480931;40.427;-3.717;913 238 180;;Centros Salud Mental
8903;Centro de Salud Mental Hortaleza;;Consultar telef—nicamente.;Metro: San Lorenzo (l’nea 4)/ Mar de Cristal (l’neas 4 y 8).  Bus: 72/ 120/ 125/ 172/ 172SF.;;3;http://www.madrid.es/sites/v/index.jsp?vgnextchannel=bfa48ab43d6bb410VgnVCM100000171f5a0aRCRD&vgnextoid=cb0b224e0d61c010VgnVCM1000000b205a0aRCRD;MAR DE KARA;CALLE;V;;MADRID;MADRID;28033;4;Pinar del Rey;https://wikidata.org/entity/Q10349788;16;Hortaleza;https://wikidata.org/entity/Q1928529;445399;4480385;40.399;-3.633;913 818 266 / 913 818 332;;Centros Salud Mental
7902951;Centro de Salud Mental Infanto Juvenil Carabanchel - Usera;;Consultar telef—nicamente.;Metro: Carabanchel Alto (l’nea 11).  Bus: 121/ 131/ 47/ 108/ 118.;;3;http://www.madrid.es/sites/v/index.jsp?vgnextchannel=bfa48ab43d6bb410VgnVCM100000171f5a0aRCRD&vgnextoid=9d9bb458986bb410VgnVCM1000000b205a0aRCRD;ANTONIA RODRIGUEZ SACRISTAN;CALLE;V;4;MADRID;MADRID;28044;6;Buenavista;https://wikidata.org/entity/Q953929;11;Carabanchel;https://wikidata.org/entity/Q1001991;436517;4469439;40.395;-3.667;915 084 398;usminfantojuvenil.hdoc@salud.madrid.org;Centros Salud Mental
5562342;Centro de Salud Mental Latina - Las çguilas;;Consultar telef—nicamente.;Cercan’as Renfe: Maestra Justa Freire - Polideportivo Aluche (antigua estaci—n de Fanjul) (l’nea C5).  Bus: 138/ 17/ 34.;;3;http://www.madrid.es/sites/v/index.jsp?vgnextchannel=bfa48ab43d6bb410VgnVCM100000171f5a0aRCRD&vgnextoid=dff7891b0ed86210VgnVCM2000000c205a0aRCRD;JOSE DE CADALSO;CALLE;V;;MADRID;MADRID;28044;7;Las çguilas;https://wikidata.org/entity/Q5971372;10;Latina;https://wikidata.org/entity/Q794954;434762;4469976;40.421;-3.671;917 060 061 / 917 062 587;;Centros Salud Mental
8918;Centro de Salud Mental Retiro;;Consultar telef—nicamente.;Metro: Ibiza (l’nea 9)  Bus: 152/ 20/ 15/ 2/ 215/ 26/ 61/ 63/ C1/ C2.  Bicimad: Estaci—n 61 (calle O'Donell/ 28).;;3;http://www.madrid.es/sites/v/index.jsp?vgnextchannel=bfa48ab43d6bb410VgnVCM100000171f5a0aRCRD&vgnextoid=065b224e0d61c010VgnVCM1000000b205a0aRCRD;LOPE DE RUEDA;CALLE;V;43;MADRID;MADRID;28009;4;Ibiza;https://wikidata.org/entity/Q15249910;3;Retiro;https://wikidata.org/entity/Q2002296;442516;4474556;40.351;-3.698;914 008 690 / 914 008 695;;Centros Salud Mental
8905;Centro de Salud Mental San Blas;;Consultar telef—nicamente.;Metro: Simancas (l’nea 7).  Bus: 109/ 28.;;3;http://www.madrid.es/sites/v/index.jsp?vgnextchannel=bfa48ab43d6bb410VgnVCM100000171f5a0aRCRD&vgnextoid=2b7b224e0d61c010VgnVCM1000000b205a0aRCRD;CASTILLO DE UCLES;CALLE;V;35;MADRID;MADRID;28037;1;Simancas;https://wikidata.org/entity/Q10371626;20;San Blas-Canillejas;https://wikidata.org/entity/Q2001937;447140;4475806;40.477;-3.691;913 135 540 / 913 135 541;;Centros Salud Mental
8907;Centro de Salud Mental Tetu‡n;;Consultal telef—nicamente.;Metro: Cuatro Caminos (l’neas 1/ 2 y 6)/ Nuevos Ministerios (l’nea 6/ 8 y 10).  Cercan’as Renfe: Nuevos Ministerios (l’neas C1/ C2/ C4/ C7/ C10 y Regional).  Bus: 149/ C1.  Bicimad: Estaci—n 133 (calle Raimundo Fern‡ndez Villaverde/ 33).;;3;http://www.madrid.es/sites/v/index.jsp?vgnextchannel=bfa48ab43d6bb410VgnVCM100000171f5a0aRCRD&vgnextoid=bd8b224e0d61c010VgnVCM1000000b205a0aRCRD;MAUDES;CALLE;V;32;MADRID;MADRID;28003;5;R’os Rosas;https://wikidata.org/entity/Q10366270;7;Chamber’;https://wikidata.org/entity/Q1763370;440674;4477400;40.472;-3.644;915 347 363 / 915 349 920;;Centros Salud Mental
8914;Centro de Salud Mental Usera;;Consultar telef—nicamente.;Metro: Almendrales (l’nea 3).  Bus: 78/ 6.;;3;http://www.madrid.es/sites/v/index.jsp?vgnextchannel=bfa48ab43d6bb410VgnVCM100000171f5a0aRCRD&vgnextoid=40ab224e0d61c010VgnVCM1000000b205a0aRCRD;VISITACION;CALLE;V;5;MADRID;MADRID;28026;4;Almendrales;https://wikidata.org/entity/Q9604761;12;Usera;https://wikidata.org/entity/Q953368;440437;4470393;40.373;-3.747;915 001 015;csmusera@salud.madrid.org;Centros Salud Mental
6566703;Centro de Salud Mental Vic‡lvaro;;Consultar telef—nicamente.;Metro: Vic‡lvaro (l’nea 9).  Bus: 100/ 106/ 4/ 130/ E3/ E5.;;3;http://www.madrid.es/sites/v/index.jsp?vgnextchannel=bfa48ab43d6bb410VgnVCM100000171f5a0aRCRD&vgnextoid=58629a368c3c9310VgnVCM2000000c205a0aRCRD;CALAHORRA;CALLE;V;11;MADRID;MADRID;28032;1;Casco Hist—rico de Vic‡lvaro;https://wikidata.org/entity/Q16544374;19;Vic‡lvaro;https://wikidata.org/entity/Q589403;448008;4473095;40.378;-3.768;917 753 260 / 917 753 262;;Centros Salud Mental
5562302;Centro de Salud Mental Villa de Vallecas;;Consultar telef—nicamente.;Metro: Miguel Hern‡ndez (l’nea 1).  Bus: 144/ 54/ 103/ 142/ 143/ 58.;;3;http://www.madrid.es/sites/v/index.jsp?vgnextchannel=bfa48ab43d6bb410VgnVCM100000171f5a0aRCRD&vgnextoid=5fa0891b0ed86210VgnVCM2000000c205a0aRCRD;SAN CLAUDIO;CALLE;V;154;MADRID;MADRID;28038;4;Palomeras Sureste;https://wikidata.org/entity/Q10343901;13;Puente de Vallecas;https://wikidata.org/entity/Q2003054;445757;4471100;40.419;-3.677;913 909 953 / 913 909 877;;Centros Salud Mental
176345;Centro de Salud Mirasierra;;;Metro: Mirasierra (l’nea 9).  Bus: 49/ 64.;;3;http://www.madrid.es/sites/v/index.jsp?vgnextchannel=bfa48ab43d6bb410VgnVCM100000171f5a0aRCRD&vgnextoid=03fb4b6faa61c010VgnVCM1000000b205a0aRCRD;MIRADOR DE LA REINA;CALLE;V;117;MADRID;MADRID;28035;7;Mirasierra;https://wikidata.org/entity/Q31134;8;Fuencarral-El Pardo;https://wikidata.org/entity/Q656196;439100;4482469;40.431;-3.623;913 767 451;;Centros Salud
8955;Centro de Salud Mon—var;;;Metro: Hortaleza (l’nea 4).  Bus: 129/ 29/ 7/ 172.;;3;http://www.madrid.es/sites/v/index.jsp?vgnextchannel=bfa48ab43d6bb410VgnVCM100000171f5a0aRCRD&vgnextoid=950c4b6faa61c010VgnVCM1000000b205a0aRCRD;MONOVAR;CALLE;V;11;MADRID;MADRID;28033;5;Ap—stol Santiago;https://wikidata.org/entity/Q11906303;16;Hortaleza;https://wikidata.org/entity/Q1928529;444332;4480963;40.445;-3.699;913 839 535;;Centros Salud
10759241;Centro de Salud Montesa;;;Metro: Manuel Becerra (l’neas 2 y 6)/ Lista (l’nea 4)/ Diego de Le—n (l’neas 4/ 5 y 6).  Bus: 12/ 210/ 43/ 48/ 56/ C1/ 1/ 74.  Bicimad: Estaciones 145 (calle Ortega y Gasset/ 87) y 192 (avenida de los Toreros/ 3).;;3;http://www.madrid.es/sites/v/index.jsp?vgnextchannel=bfa48ab43d6bb410VgnVCM100000171f5a0aRCRD&vgnextoid=bc3c855a64315610VgnVCM2000001f4a900aRCRD;MONTESA;CALLE;V;38;MADRID;MADRID;28006;5;Lista;https://wikidata.org/entity/Q4779;4;Salamanca;https://wikidata.org/entity/Q1773521;442999;4475775;40.382;-3.701;913 090 864;;Centros Salud
9025;Centro de Salud Nuestra Se–ora de F‡tima;;;Metro: Eugenia de Montijo (l’nea 5).  Bus: 35/ 34.;;3;http://www.madrid.es/sites/v/index.jsp?vgnextchannel=bfa48ab43d6bb410VgnVCM100000171f5a0aRCRD&vgnextoid=ba2c4b6faa61c010VgnVCM1000000b205a0aRCRD;NUESTRA SE„ORA DE FATIMA;AVENIDA;V;93;MADRID;MADRID;28047;4;Vista Alegre;https://wikidata.org/entity/Q3813741;11;Carabanchel;https://wikidata.org/entity/Q1001991;436437;4470112;40.406;-3.612;915 255 643;;Centros Salud
8947;Centro de Salud Numancia;;;Bus: 141.  Bicimad: Estaci—n 225 (calle Sierra Toledana/ 33).;;3;http://www.madrid.es/sites/v/index.jsp?vgnextchannel=bfa48ab43d6bb410VgnVCM100000171f5a0aRCRD&vgnextoid=4d3c4b6faa61c010VgnVCM1000000b205a0aRCRD;PUERTO DE COTOS;CALLE;V;2;MADRID;MADRID;28038;6;Numancia;https://wikidata.org/entity/Q10338144;13;Puente de Vallecas;https://wikidata.org/entity/Q2003054;444153;4472586;40.388;-3.639;913 287 410;;Centros Salud
17954;Centro de Salud Orcasitas;;;Bus: 116/ 121/ 131/ 6/ 60/ 78/ 81.  Bicimad: Estaci—n 386 (avenida de los Poblados/ 130).;Este Centro de Salud presta atenci—n continuada como centro de continuidad de cuidados de enfermer’a s‡bados/ domingos y festivos de 9 a 21 horas.;3;http://www.madrid.es/sites/v/index.jsp?vgnextchannel=bfa48ab43d6bb410VgnVCM100000171f5a0aRCRD&vgnextoid=d321e35bba51c010VgnVCM2000000c205a0aRCRD;CESTONA;CALLE;V;3;MADRID;MADRID;28041;1;Orcasitas;https://wikidata.org/entity/Q3773941;12;Usera;https://wikidata.org/entity/Q953368;439381;4469367;40.492;-3.718;913 412 009;;Centros Salud
10759192;Centro de Salud Orcasur;;;Bus: 116/ 76.   Cercan’as Renfe: Orcasitas (l’nea C5).  Bicimad: Estaci—n 397 (calle de Moreja/ 30).;;3;http://www.madrid.es/sites/v/index.jsp?vgnextchannel=bfa48ab43d6bb410VgnVCM100000171f5a0aRCRD&vgnextoid=b665dfe18de05610VgnVCM1000001d4a900aRCRD;ARENAS DEL REY;CALLE;V;1;MADRID;MADRID;28041;2;Orcasur;https://wikidata.org/entity/Q10341270;12;Usera;https://wikidata.org/entity/Q953368;440513;4468541;40.477;-3.656;913 171 103;;Centros Salud
9000;Centro de Salud Pac’fico;;;Metro: Conde de Casal (l’nea 6)/ MenŽndez Pelayo (l’nea 1).  Bus: 14/ 32/ 152/ 26/ 63/ C2/ 10/ C1.  Bicimad: Estaciones 75 (avenida MenŽndez Pelayo con calle Poeta Esteban Villegas)/ 76 (avenida del Mediterr‡neo/ 19).  Aparcamiento: Reyes Magos (35) plaza Reyes Magos.;;3;http://www.madrid.es/sites/v/index.jsp?vgnextchannel=bfa48ab43d6bb410VgnVCM100000171f5a0aRCRD&vgnextoid=f47c4b6faa61c010VgnVCM1000000b205a0aRCRD;REYES MAGOS;CALLE;V;21;MADRID;MADRID;28007;6;Ni–o Jesœs;https://wikidata.org/entity/Q3773746;3;Retiro;https://wikidata.org/entity/Q2002296;442553;4473260;40.431;-3.672;915 017 065;;Centros Salud
9058;Centro de Salud Palma Norte;;;Metro: Noviciado (l’nea 2)/ San Bernardo (l’neas 2 y 4).  Bus: 147/ 3/ 002.  Bicimad: Estaci—n 15 (calle Norte/ 8).;;3;http://www.madrid.es/sites/v/index.jsp?vgnextchannel=bfa48ab43d6bb410VgnVCM100000171f5a0aRCRD&vgnextoid=26254b6faa61c010VgnVCM1000000b205a0aRCRD;PALMA;CALLE;V;59;MADRID;MADRID;28015;5;Universidad;https://wikidata.org/entity/Q10387767;1;Centro;https://wikidata.org/entity/Q1763376;439995;4475350;40.379;-3.748;915 214 578;;Centros Salud
8997;Centro de Salud P‡rroco Julio Morate;;;Metro: Delicias (l’nea 3).  Bus: 148/ 6/ 78/ 59/ 85/ 19/ 247/ 45/ 47/ 8/ 86.  Cercan’as Renfe: Delicias (l’neas C1 y C10).  Bicimad: Estaci—n 175 (Jaime el Conquistador/ 30).;;3;http://www.madrid.es/sites/v/index.jsp?vgnextchannel=bfa48ab43d6bb410VgnVCM100000171f5a0aRCRD&vgnextoid=878c4b6faa61c010VgnVCM1000000b205a0aRCRD;PARROCO JULIO MORATE;CALLE;V;3;MADRID;MADRID;28045;3;La Chopera;https://wikidata.org/entity/Q3773750;2;Arganzuela;https://wikidata.org/entity/Q2000929;440687;4472079;40.402;-3.658;914 736 822;;Centros Salud
8972;Centro de Salud Pascual Rodr’guez;;;Metro: Lucero (l’nea 6).  Bus: 138/ 31.  Bicimad: Estaci—n 324 (calle de las Higueras/ 49).;La libre elecci—n de este centro se realiza en el Centro de Salud Lucero.;3;http://www.madrid.es/sites/v/index.jsp?vgnextchannel=bfa48ab43d6bb410VgnVCM100000171f5a0aRCRD&vgnextoid=1a9c4b6faa61c010VgnVCM1000000b205a0aRCRD;PASCUAL RODRIGUEZ;CALLE;V;21;MADRID;MADRID;28011;3;Lucero;https://wikidata.org/entity/Q31162;10;Latina;https://wikidata.org/entity/Q794954;436928;4473075;40.468;-3.685;914 646 445;;Centros Salud
10759171;Centro de Salud Paseo Imperial;;;Metro: Pir‡mides (l’nea 5).  Bus: 23/ 35/ 18/ 36/ 62/ 116/ 118/ 119/ 34.  Cercan’as Renfe: Pir‡mides (l’neas C1 y C10).  Bicimad: Estaci—n 169 (calle Toledo/ 181).;Este Centro de Salud presta atenci—n continuada como centro de atenci—n continuada mŽdica de lunes a viernes de 21 a 8 horas y los s‡bados/ domingos y festivos 24 horas.;3;http://www.madrid.es/sites/v/index.jsp?vgnextchannel=bfa48ab43d6bb410VgnVCM100000171f5a0aRCRD&vgnextoid=8762dfe18de05610VgnVCM1000001d4a900aRCRD;TOLEDO;CALLE;V;180;MADRID;MADRID;28005;1;Imperial;https://wikidata.org/entity/Q3773740;2;Arganzuela;https://wikidata.org/entity/Q2000929;439381;4472578;40.372;-3.714;913 640 762;;Centros Salud
8946;Centro de Salud Pavones;;;Metro: Pavones (l’nea 9).  Bus: 71/ 8/ E4/ 30.  Bicimad: Estaci—n 455 (calle Luis de Hoyos Sainz/ 198).;Este Centro de Salud presta atenci—n continuada como centro de continuidad de cuidados de enfermer’a de lunes a viernes de 21 a 8 horas y los s‡bados/ domingos y festivos 24 horas.;3;http://www.madrid.es/sites/v/index.jsp?vgnextchannel=bfa48ab43d6bb410VgnVCM100000171f5a0aRCRD&vgnextoid=3fbc4b6faa61c010VgnVCM1000000b205a0aRCRD;HACIENDA DE PAVONES;CALLE;V;271;MADRID;MADRID;28030;1;Pavones;https://wikidata.org/entity/Q71760;14;Moratalaz;https://wikidata.org/entity/Q2076109;446612;4472260;40.365;-3.793;913 016 261;;Centros Salud
8948;Centro de Salud Pe–a Prieta;;;Metro: Puente de Vallecas (l’nea 1).  Bus: 113/ 141/ 8/ 111/ 58/ 37/ 56/ 148/ 10/ 24/ 310/ 136/ 54/ 57.  Bicimad: Estaci—n 179 (avenida de la Albufera/ 6).;;3;http://www.madrid.es/sites/v/index.jsp?vgnextchannel=bfa48ab43d6bb410VgnVCM100000171f5a0aRCRD&vgnextoid=c1dc4b6faa61c010VgnVCM1000000b205a0aRCRD;ALTOS DE CABREJAS;CALLE;V;4;MADRID;MADRID;28038;6;Numancia;https://wikidata.org/entity/Q10338144;13;Puente de Vallecas;https://wikidata.org/entity/Q2003054;443318;4472205;40.407;-3.677;915 014 040;;Centros Especialidades Medicas
8983;Centro de Salud Potes;;;Bus: 76.  Cercan’as Renfe: Puente Alcocer (l’nea C5).;;3;http://www.madrid.es/sites/v/index.jsp?vgnextchannel=bfa48ab43d6bb410VgnVCM100000171f5a0aRCRD&vgnextoid=e6fc4b6faa61c010VgnVCM1000000b205a0aRCRD;POTES;CALLE;V;2;MADRID;MADRID;28021;1;Villaverde Alto - Casco Hist—rico de Villaverde;https://wikidata.org/entity/Q390435;17;Villaverde;https://wikidata.org/entity/Q919536;439735;4466933;40.426;-3.707;917 954 561;;Centros Salud
64009;Centro de Salud Potos’;;;Metro: Colombia (l’neas 8 y 9).  Bus: 14/ 11/ 40/ 16/ 29/ 51/ 7.  Bicimad: Estaci—n 160 (calle Colombia/ 7).  Aparcamiento: Repœblica Dominicana (61) plaza Repœblica Dominicana calle Costa Rica y calle Alberto Alcocer.;;3;http://www.madrid.es/sites/v/index.jsp?vgnextchannel=bfa48ab43d6bb410VgnVCM100000171f5a0aRCRD&vgnextoid=6873598d1351c010VgnVCM1000000b205a0aRCRD;POTOSI;CALLE;V;7;MADRID;MADRID;28016;4;HispanoamŽrica;https://wikidata.org/entity/Q3814573;5;Chamart’n;https://wikidata.org/entity/Q1766348;442401;4478719;40.397;-3.698;914 570 976;;Centros Salud
9035;Centro de Salud Pr’ncipe de Vergara;;;Metro : Avenida de AmŽrica (l’neas 4/ 6/ 7 y 9).  Bus: 29/ 52/ C2/ 73/ C1/ 9.  Bicimad: Estaci—n 194 (Francisco Silvela/ 86).  Aparcamiento: AmŽrica (16) avenida de AmŽrica (intercambiador).;;3;http://www.madrid.es/sites/v/index.jsp?vgnextchannel=bfa48ab43d6bb410VgnVCM100000171f5a0aRCRD&vgnextoid=790d4b6faa61c010VgnVCM1000000b205a0aRCRD;PRINCIPE DE VERGARA;CALLE;V;111;MADRID;MADRID;28002;1;El Viso;https://wikidata.org/entity/Q4778;5;Chamart’n;https://wikidata.org/entity/Q1766348;442402;4476815;40.405;-3.743;915 644 116;;Centros Salud
9008;Centro de Salud Prosperidad;;;Metro: Prosperidad (l’nea 4)/ Cartagena (l’nea 7).  Bus: 72/ 43.  Bicimad: Estaci—n 251 (calle Santa Hortensia/ 31).;;3;http://www.madrid.es/sites/v/index.jsp?vgnextchannel=bfa48ab43d6bb410VgnVCM100000171f5a0aRCRD&vgnextoid=0c1d4b6faa61c010VgnVCM1000000b205a0aRCRD;CANILLAS;CALLE;V;99;MADRID;MADRID;28002;2;Prosperidad;https://wikidata.org/entity/Q4776;5;Chamart’n;https://wikidata.org/entity/Q1766348;443218;4477257;40.401;-3.714;914 134 313;;Centros Salud
35956;Centro de Salud Puerta Bonita;;;Metro: Oporto (l’neas 5 y 6)/ Abrantes (l’nea 11).   Bus: 247.;;3;http://www.madrid.es/sites/v/index.jsp?vgnextchannel=bfa48ab43d6bb410VgnVCM100000171f5a0aRCRD&vgnextoid=7126b3e42751c010VgnVCM2000000c205a0aRCRD;ALEGRIA;CALLE;V;24;MADRID;MADRID;28025;5;Puerta Bonita;https://wikidata.org/entity/Q3813762;11;Carabanchel;https://wikidata.org/entity/Q1001991;437794;4470663;40.399;-3.629;914 611 195;;Centros Salud
174059;Centro de Salud Puerta del çngel;;;Metro: Alto de Extremadura (l’nea 6).  Bus: 31/ 33/ 36/ 39/ 65.;;3;http://www.madrid.es/sites/v/index.jsp?vgnextchannel=bfa48ab43d6bb410VgnVCM100000171f5a0aRCRD&vgnextoid=bfcd14c4d661c010VgnVCM1000000b205a0aRCRD;EXTREMADURA;PASEO;V;113;MADRID;MADRID;28011;2;Barrio de Puerta del çngel;https://wikidata.org/entity/Q31142;10;Latina;https://wikidata.org/entity/Q794954;437617;4473636;40.398;-3.667;914 797 414;;Centros Salud
9070;Centro de Salud Quince de Mayo;;;Metro: MarquŽs de Vadillo (l’nea 5).  Bus: 118/ 119/ 34/ 35/ 50.  Bicimad: Estaciones 212 (glorieta MarquŽs de Vadillo/ 9)/ 354 (calle Jacinto Verdaguer/ 12).;;3;http://www.madrid.es/sites/v/index.jsp?vgnextchannel=bfa48ab43d6bb410VgnVCM100000171f5a0aRCRD&vgnextoid=9e2d4b6faa61c010VgnVCM1000000b205a0aRCRD;QUINCE DE MAYO;PASEO;V;10;MADRID;MADRID;28019;3;San Isidro;https://wikidata.org/entity/Q3813733;11;Carabanchel;https://wikidata.org/entity/Q1001991;439073;4472153;40.351;-3.709;914 696 161;;Centros Salud
8949;Centro de Salud Rafael Alberti;;;Metro: Miguel Hern‡ndez (l’nea 1).  Bus: 144/ 54/ 103/ 142/ 143/ 58.  Bicimad: Estaci—n 435 (calle San Claudio/ 154).;;3;http://www.madrid.es/sites/v/index.jsp?vgnextchannel=bfa48ab43d6bb410VgnVCM100000171f5a0aRCRD&vgnextoid=214d4b6faa61c010VgnVCM1000000b205a0aRCRD;SAN CLAUDIO;CALLE;V;154;MADRID;MADRID;28038;4;Palomeras Sureste;https://wikidata.org/entity/Q10343901;13;Puente de Vallecas;https://wikidata.org/entity/Q2003054;445757;4471100;40.457;-3.679;913 909 900;;Centros Salud
8989;Centro de Salud Reina Victoria;;;Metro: Cuatro Caminos (l’neas 1/ 2 y 6)/ Guzm‡n el Bueno (lineas 6 y 7)  Bus: 127/ 45/ C2/ F/ C1/ 44.  Bicimad: Estaciones 132 (calle Santa Engracia/ 168) y 204 (calle Doctor Santero/ 1).;;3;http://www.madrid.es/sites/v/index.jsp?vgnextchannel=bfa48ab43d6bb410VgnVCM100000171f5a0aRCRD&vgnextoid=b35d4b6faa61c010VgnVCM1000000b205a0aRCRD;REINA VICTORIA;AVENIDA;V;21;MADRID;MADRID;28003;6;Vallehermoso;https://wikidata.org/entity/Q6122685;7;Chamber’;https://wikidata.org/entity/Q1763370;439993;4477597;40.439;-3.679;915 349 906;;Centros Salud
8954;Centro de Salud Rejas;;;Bus: 77.;;3;http://www.madrid.es/sites/v/index.jsp?vgnextchannel=bfa48ab43d6bb410VgnVCM100000171f5a0aRCRD&vgnextoid=59694b6faa61c010VgnVCM1000000b205a0aRCRD;EUTERPE;CALLE;V;12;MADRID;MADRID;28022;6;Rejas;https://wikidata.org/entity/Q10359029;20;San Blas-Canillejas;https://wikidata.org/entity/Q2001937;449738;4477098;40.444;-3.669;913 202 284;;Centros Salud
33524;Centro de Salud San AndrŽs;;;Metro: Villaverde Alto (l’nea 3).  Bus: 79/ 22/ T41.  Cercan’as Renfe: Villaverde Alto (l’neas C4/ C4b y C5).;;3;http://www.madrid.es/sites/v/index.jsp?vgnextchannel=bfa48ab43d6bb410VgnVCM100000171f5a0aRCRD&vgnextoid=0436b3e42751c010VgnVCM2000000c205a0aRCRD;ALBERTO PALACIOS;CALLE;V;22;MADRID;MADRID;28021;1;Villaverde Alto - Casco Hist—rico de Villaverde;https://wikidata.org/entity/Q390435;17;Villaverde;https://wikidata.org/entity/Q919536;439487;4466027;40.384;-3.732;917 972 884;;Centros Salud
9002;Centro de Salud San Crist—bal;;;Bus: 79/ 59.    Cercan’as Renfe: San Crist—bal de Los çngeles (l’nea C3).;;3;http://www.madrid.es/sites/v/index.jsp?vgnextchannel=bfa48ab43d6bb410VgnVCM100000171f5a0aRCRD&vgnextoid=466d4b6faa61c010VgnVCM1000000b205a0aRCRD;BENIMAMET;CALLE;V;24;MADRID;MADRID;28021;2;San Crist—bal;https://wikidata.org/entity/Q390457;17;Villaverde;https://wikidata.org/entity/Q919536;441811;4466065;40.411;-3.735;917 955 313;;Centros Salud
9075;Centro de Salud San Ferm’n;;;Metro: San Ferm’n-Orcasur (l’nea 3).  Bus: 123/ 23/ 78/ 18/ 22/ 59/ 79/ 85/ 86.  Bicimad: Estaci—n 383 (avenida de la Perla/ 35).;;3;http://www.madrid.es/sites/v/index.jsp?vgnextchannel=bfa48ab43d6bb410VgnVCM100000171f5a0aRCRD&vgnextoid=d87d4b6faa61c010VgnVCM1000000b205a0aRCRD;SAN FERMIN;AVENIDA;V;3;MADRID;MADRID;28041;3;San Ferm’n (Madrid);https://wikidata.org/entity/Q71758;12;Usera;https://wikidata.org/entity/Q953368;441179;4469206;40.397;-3.717;917 923 312;;Centros Salud
4551680;Centro de Salud Sanchinarro;;;Metro: Mar’a Tudor (l’nea ML1).  Bus: 173/ BR1/ 172/ 172SE.;;3;http://www.madrid.es/sites/v/index.jsp?vgnextchannel=bfa48ab43d6bb410VgnVCM100000171f5a0aRCRD&vgnextoid=5b7c76a68a6b1110VgnVCM1000000b205a0aRCRD;ANA DE AUSTRIA;CALLE;V;26;MADRID;MADRID;28050;6;Valdefuentes;https://wikidata.org/entity/Q10388714;16;Hortaleza;https://wikidata.org/entity/Q1928529;444268;4482769;40.388;-3.639;917 188 346;;Centros Salud
8952;Centro de Salud Santa Hortensia;;;Metro: Prosperidad (l’nea 4)/ Alfonso XIII (l’nea 4).  Bus: 72/ 73/ 9.  Bicimad: Estaci—n 251 (calle Santa Hortensia/ 31).;;3;http://www.madrid.es/sites/v/index.jsp?vgnextchannel=bfa48ab43d6bb410VgnVCM100000171f5a0aRCRD&vgnextoid=6b8d4b6faa61c010VgnVCM1000000b205a0aRCRD;SANTA HORTENSIA;CALLE;V;14;MADRID;MADRID;28002;2;Prosperidad;https://wikidata.org/entity/Q4776;5;Chamart’n;https://wikidata.org/entity/Q1766348;443192;4477384;40.446;-3.707;915 194 566;;Centros Salud
8995;Centro de Salud Segovia;;;Metro: La Latina (l’nea 5)/ Tirso de Molina (l’nea 1).  Bus: 31/ 50/ 65.  Bicimad: Estaci—n 35 (plaza del Cord—n).;;3;http://www.madrid.es/sites/v/index.jsp?vgnextchannel=bfa48ab43d6bb410VgnVCM100000171f5a0aRCRD&vgnextoid=fd9d4b6faa61c010VgnVCM1000000b205a0aRCRD;SEGOVIA;CALLE;V;4;MADRID;MADRID;28005;1;Palacio;https://wikidata.org/entity/Q2136510;1;Centro;https://wikidata.org/entity/Q1763376;439772;4473915;40.443;-3.592;915 482 224;;Centros Salud
9036;Centro de Salud Segre;;;Metro: Santiago BernabŽu (l’nea 10)/ Concha Espina (l’nea 9)  Bus: 120/ 43/ 14.  Bicimad: Estaciones 149 (Paseo de la Habana/ 42) y 159 (paseo de la Habana/ 63).;;3;http://www.madrid.es/sites/v/index.jsp?vgnextchannel=bfa48ab43d6bb410VgnVCM100000171f5a0aRCRD&vgnextoid=80bd4b6faa61c010VgnVCM1000000b205a0aRCRD;SEGRE;CALLE;V;27;MADRID;MADRID;28002;1;El Viso;https://wikidata.org/entity/Q4778;5;Chamart’n;https://wikidata.org/entity/Q1766348;441885;4478070;40.342;-3.712;915 644 254;;Centros Salud
4570184;Centro de Salud Silvano;;;Metro: Canillas (l’nea 4).  Bus: 120/ 112/ 153/ 122/ 73.;;3;http://www.madrid.es/sites/v/index.jsp?vgnextchannel=bfa48ab43d6bb410VgnVCM100000171f5a0aRCRD&vgnextoid=eecc439639562110VgnVCM1000000b205a0aRCRD;MACHUPICHU;AVENIDA;V;58;MADRID;MADRID;28043;3;Canillas;https://wikidata.org/entity/Q9694341;16;Hortaleza;https://wikidata.org/entity/Q1928529;446150;4479388;40.343;-3.685;913 815 100;;Centros Salud
9018;Centro de Salud Torito;;;Metro: Artilleros (l’nea 9).  Bus: 71/ 32.;;3;http://www.madrid.es/sites/v/index.jsp?vgnextchannel=bfa48ab43d6bb410VgnVCM100000171f5a0aRCRD&vgnextoid=a5dd4b6faa61c010VgnVCM1000000b205a0aRCRD;CAMINO DE LOS VINATEROS;CALLE;V;140;MADRID;MADRID;28030;6;Vinateros;https://wikidata.org/entity/Q10391533;14;Moratalaz;https://wikidata.org/entity/Q2076109;445217;4473042;40.371;-3.692;913 280 000;;Centros Salud
110788;Centro de Salud Valdebernardo;;;Metro: Valdebernardo (l’nea 9).  Bus: 130/ 71/ 8.;;3;http://www.madrid.es/sites/v/index.jsp?vgnextchannel=bfa48ab43d6bb410VgnVCM100000171f5a0aRCRD&vgnextoid=b41415a11a81c010VgnVCM1000000b205a0aRCRD;INDALECIO PRIETO;BULEVAR;V;26;MADRID;MADRID;28032;2;Valdebernardo;https://wikidata.org/entity/Q43025212;19;Vic‡lvaro;https://wikidata.org/entity/Q589403;447223;4472333;40.493;-3.657;913 016 290;;Centros Salud
9023;Centro de Salud Valdezarza-Sur;;;Metro: Valdezarza (l’nea 7).  Bus: 126/ 127/ 132/ 128.;;3;http://www.madrid.es/sites/v/index.jsp?vgnextchannel=bfa48ab43d6bb410VgnVCM100000171f5a0aRCRD&vgnextoid=cafd4b6faa61c010VgnVCM1000000b205a0aRCRD;AZUAGA;CALLE;V;13;MADRID;MADRID;28039;4;Valdezarza;https://wikidata.org/entity/Q10388728;9;Moncloa-Aravaca;https://wikidata.org/entity/Q2017682;439676;4479445;40.445;-3.669;913 115 878;;Centros Salud
47160;Centro de Salud Valle Inclan;;;Bus: 39/ 138/ 139.;;3;http://www.madrid.es/sites/v/index.jsp?vgnextchannel=bfa48ab43d6bb410VgnVCM100000171f5a0aRCRD&vgnextoid=fa83598d1351c010VgnVCM1000000b205a0aRCRD;VALLE INCLAN;CALLE;V;97;MADRID;MADRID;28044;7;Las çguilas;https://wikidata.org/entity/Q5971372;10;Latina;https://wikidata.org/entity/Q794954;434237;4469801;40.413;-3.709;917 062 100;;Centros Salud
8963;Centro de Salud Ventura Rodr’guez;;;Metro: Ventura Rodr’guez (l’nea 3)/ Plaza de Espa–a (l’neas 3 y 10).  Bus: 001/ 1/ 133/ 138/ 2/ 44/ 62/ 74/ C2/ C1.  Bicimad: Estaci—n 14 (calle Duque de Liria).  Aparcamiento: Plaza de Espa–a (53).;;3;http://www.madrid.es/sites/v/index.jsp?vgnextchannel=bfa48ab43d6bb410VgnVCM100000171f5a0aRCRD&vgnextoid=5d0e4b6faa61c010VgnVCM1000000b205a0aRCRD;VENTURA RODRIGUEZ;CALLE;V;7;MADRID;MADRID;28008;2;ArgŸelles;https://wikidata.org/entity/Q64874;9;Moncloa-Aravaca;https://wikidata.org/entity/Q2017682;439455;4475204;40.451;-3.685;915 590 240;;Centros Salud
9048;Centro de Salud Vicente Muzas;;;Metro: Arturo Soria (l’nea 4).  Bus: 53/ 11/ 70/ 72/ 73/ 9.  Bicimad: Estaci—n 480 (calle Vicente Muzas/ 12).;;3;http://www.madrid.es/sites/v/index.jsp?vgnextchannel=bfa48ab43d6bb410VgnVCM100000171f5a0aRCRD&vgnextoid=ef1e4b6faa61c010VgnVCM1000000b205a0aRCRD;VICENTE MUZAS;CALLE;V;8;MADRID;MADRID;28043;7;Colina;https://wikidata.org/entity/Q18475981;15;Ciudad Lineal;https://wikidata.org/entity/Q1763694;443953;4478848;40.463;-3.635;915 102 820;;Centros Salud
8950;Centro de Salud Vicente Soldevilla;;;Bus: 24.;;3;http://www.madrid.es/sites/v/index.jsp?vgnextchannel=bfa48ab43d6bb410VgnVCM100000171f5a0aRCRD&vgnextoid=723e4b6faa61c010VgnVCM1000000b205a0aRCRD;SIERRA DE ALQUIFE;CALLE;V;8;MADRID;MADRID;28053;2;San Diego;https://wikidata.org/entity/Q11946851;13;Puente de Vallecas;https://wikidata.org/entity/Q2003054;443383;4471142;40.406;-3.645;914 775 048;;Centros Salud
8991;Centro de Salud Villaamil (Doctor Castroviejo);;;Metro: Antonio Machado (l’nea 7).  Bus: 42/ 127/ 132.  Bicimad: Estaci—n 599 (calle La Cabrera sin nœmero).;;3;http://www.madrid.es/sites/v/index.jsp?vgnextchannel=bfa48ab43d6bb410VgnVCM100000171f5a0aRCRD&vgnextoid=975e4b6faa61c010VgnVCM1000000b205a0aRCRD;CANDIDO MATEOS;CALLE;V;11;MADRID;MADRID;28035;3;Pe–agrande;https://wikidata.org/entity/Q3319582;8;Fuencarral-El Pardo;https://wikidata.org/entity/Q656196;439135;4480478;40.399;-3.621;913 114 560;;Centros Salud
72851;Centro de Salud Villablanca;;;Metro: San Cipriano (l’nea 9).  Bus: 100/ 106/ 159.  Cercan’as Renfe: Vic‡lvaro (l’neas C2/ C7 y Regional).;;3;http://www.madrid.es/sites/v/index.jsp?vgnextchannel=bfa48ab43d6bb410VgnVCM100000171f5a0aRCRD&vgnextoid=945168540e41c010VgnVCM2000000c205a0aRCRD;VILLABLANCA;CALLE;V;81;MADRID;MADRID;28032;1;Casco Hist—rico de Vic‡lvaro;https://wikidata.org/entity/Q16544374;19;Vic‡lvaro;https://wikidata.org/entity/Q589403;449144;4472949;40.463;-3.711;913 716 200;;Centros Salud
9010;Centro de Salud Virgen de Bego–a;;;Metro: Bego–a (l’nea 10).  Bus: 124/ 137/ 66.;;3;http://www.madrid.es/sites/v/index.jsp?vgnextchannel=bfa48ab43d6bb410VgnVCM100000171f5a0aRCRD&vgnextoid=2a6e4b6faa61c010VgnVCM1000000b205a0aRCRD;LLANO CASTELLANO;AVENIDA;V;3;MADRID;MADRID;28034;6;Valverde;https://wikidata.org/entity/Q31132;8;Fuencarral-El Pardo;https://wikidata.org/entity/Q656196;441936;4481717;40.376;-3.774;913 582 023;;Centros Salud
9078;Centro de Salud Virgen del Cortijo;;;Metro Ligero: Virgen del Cortijo (l’nea ML1).  Bus: 150/ 174.  Cercan’as Renfe: Fuente de la Mora (l’neas C1/ C10 y Regional).  Bicimad: Estaci—n 540 (calle de Dulce Chac—n/ sin nœmero).;;3;http://www.madrid.es/sites/v/index.jsp?vgnextchannel=bfa48ab43d6bb410VgnVCM100000171f5a0aRCRD&vgnextoid=bc7e4b6faa61c010VgnVCM1000000b205a0aRCRD;MANOTERAS;AVENIDA;V;47;MADRID;MADRID;28050;6;Valdefuentes;https://wikidata.org/entity/Q10388714;16;Hortaleza;https://wikidata.org/entity/Q1928529;443791;4482087;40.425;-3.713;917 664 222;;Centros Salud
9174;Centro de Transfusi—n de la Comunidad de Madrid;;De lunes a s‡bado/ de 8:30 a 21 horas.;Metro: Valdebernardo (l’nea 9).  Bus: 71/ 130.;;3;http://www.madrid.es/sites/v/index.jsp?vgnextchannel=bfa48ab43d6bb410VgnVCM100000171f5a0aRCRD&vgnextoid=6f8e4b6faa61c010VgnVCM1000000b205a0aRCRD;DEMOCRACIA;AVENIDA;V;;MADRID;MADRID;28032;1;Casco Hist—rico de Vic‡lvaro;https://wikidata.org/entity/Q16544374;19;Vic‡lvaro;https://wikidata.org/entity/Q589403;447792;4471922;40.458;-3.661;913 017 200 / Informaci—n donantes: 900 303 530;centro.transfusion@salud.madrid.org;Otros Centros Medicos
8832;Centro de Vacunaci—n de la Comunidad de Madrid;;Con cita previa telef—nica o por web. Lunes a Viernes de 9 a 14 y de 15 a 20 horas.;Metro: Gregorio Mara–—n (l’neas 7 y 10)/ RubŽn Dar’o (l’nea 5)/ Nœ–ez de Balboa (l’neas 5 y 9).  Bus: 16/ 19/ 51/ 9/ 61/ 12.  Bicimad: Estaciones 141 (paseo Castellana/ 43)/ 190 (calle Vel‡zquez/ 91)/ 140 (calle Vel‡zquez/ 130).  Aparcamiento: Serrano I (62) calle Serrano entre hermanos Becquert y MarquŽs de Villamejor.;;3;http://www.madrid.es/sites/v/index.jsp?vgnextchannel=bfa48ab43d6bb410VgnVCM100000171f5a0aRCRD&vgnextoid=afd948afb2c5f010VgnVCM1000000b205a0aRCRD;GENERAL ORAA;CALLE;V;15;MADRID;MADRID;28006;6;Castellana;https://wikidata.org/entity/Q4781;4;Salamanca;https://wikidata.org/entity/Q1773521;441823;4476417;40.388;-3.667;Cita previa: 915 616 195 / 914 111 140;;Centros Prevencion Enfermedades
9355;Centro de Vacunaci—n Internacional. Delegaci—n del Gobierno en Madrid;;Horario de atenci—n presencial y telef—nica: De lunes a viernes de 9 a 14 horas. Cita previa en linea.;Metro: Diego de Le—n (l’neas 4/ 5 y 6).  Bus: 12/ C1/ 26/ C2/ 56/ 210/ 72/ 73/ 61.  Bicimad: Estaci—n 191 (calle Alsonso Heredia/ 1).  Aparcamiento: D’az Porlier (60)/ calle Diego de Le—n/ 64).;;3;http://www.madrid.es/sites/v/index.jsp?vgnextchannel=bfa48ab43d6bb410VgnVCM100000171f5a0aRCRD&vgnextoid=f1ae4b6faa61c010VgnVCM1000000b205a0aRCRD;FRANCISCO SILVELA;CALLE;V;57;MADRID;MADRID;28028;5;Lista;https://wikidata.org/entity/Q4779;4;Salamanca;https://wikidata.org/entity/Q1773521;442809;4476157;40.371;-3.622;912 729 441 (Cita previa);vacui.fcosil.madrid@correo.gob.es;Centros Prevencion Enfermedades
163281;Centro Joven de Madrid Salud;El Centro Joven cuenta con intŽrprete de Lengua de Signos Espa–ola (ILSE) y con psic—loga (persona sorda y signante) haciendo de esta manera accesible todos sus servicios a la comunidad sorda. Ver m‡s informaci—n en  Centro Joven accesible a personas sordas;Siempre con cita previa/ p—ngase en contacto telef—nico con el centro  Horario   de lunes a viernes de 9 a 13:30 y de 15 a 20 horas   Horario de verano:     del 15 de junio al 15 de septiembre: de 9 a 13 horas y de 15 a 19 horas   Agosto de 9 a 13 horas. Tardes cerrado     Anticoncepci—n de urgencia . En periodo de verano/ le sugerimos se ponga en contacto telŽfonico con el centro para asegurar su atenci—n.;Metro: Callao Bus: 1 / 2 / 44 / 46 / 74 / 75 / 133 / 146 / 147 / 148 Bicicletas:  Servicio Bicimad/ para consultar la estaci—n m‡s cercana/ acceda al mapa de geolocalizaci—n de las estaciones.;;1;http://www.madrid.es/sites/v/index.jsp?vgnextchannel=bfa48ab43d6bb410VgnVCM100000171f5a0aRCRD&vgnextoid=a139ac2e6481c010VgnVCM1000000b205a0aRCRD;NAVAS DE TOLOSA;CALLE;V;10;MADRID;MADRID;28013;6;Sol;https://wikidata.org/entity/Q2465181;1;Centro;https://wikidata.org/entity/Q1763376;440025;4474530;40.472;-3.718;CITACIONES: 91 588 96 77 / 91 588 96 78;centrojoven@madrid.es;Centros Prevencion Enfermedades
4614547;Centro Madrid Salud Internacional. Centro de Vacunaci—n Internacional;;De lunes a viernes de 8:30 a 14:00 horas  Es necesario pedir cita previa (salvo para la emisi—n de duplicados de certificado internacional de vacunaci—n de aquellas personas que anteriormente fueron vacunadas en el Centro);Metro: Manuel Becerra / Lista / Diego de Le—nBus: 1/ 2/ 12/ 15/ 21/ 26/ 29/ 30/ 38/ 43/ 48/ 53/ 56/ 61/ 63/ C1/ C2/ 71/ 74/ 106/ 110/ 210/ 143/ 146/ 152 y 215. Bicicletas:  Servicio Bicimad/ para consultar la estaci—n m‡s cercana/ acceda al mapa de geolocalizaci—n de las estaciones.;Es conveniente acudir al centro al menos con un mes de antelaci—n al viaje. Se debe aportar la m‡xima informaci—n sobre el viaje que se va a realizar: zonas a visitar/ duraci—n/ tipo de viaje. Para la expedici—n de duplicados de cartilla de fiebre amarilla a aquellas personas que anteriormente fueron vacunados en nuestro Centro no ser‡ necesario solicitar  cita previa.  Se solicitar‡ una cita por cada una de las personas que necesite acudir a la consulta/ independientemente de su edad. En caso de poblaci—n menor que no dispongan de documento acreditativo de identidad/ la cita se solicitar‡ a nombre del padre/ madre o persona que ejerza la tutor’a. La persona menor de edad deber‡ acudir a la consulta acompa–ada por padre/ madre o tutor. Para cualquier aclaraci—n ponte en contacto con nuestro centro.;1;http://www.madrid.es/sites/v/index.jsp?vgnextchannel=bfa48ab43d6bb410VgnVCM100000171f5a0aRCRD&vgnextoid=8fe90c576ddc3110VgnVCM1000000b205a0aRCRD;MONTESA;CALLE;V;22;MADRID;MADRID;28006;5;Lista;https://wikidata.org/entity/Q4779;4;Salamanca;https://wikidata.org/entity/Q1773521;442986;4475588;40.405;-3.599;"010 L’nea Madrid (91 529 82 10 si llaman desde fuera del municipio de Madrid)Citas: 91 529 82 10";msconsultadelviajero@madrid.es;Centros Prevencion Enfermedades
7928372;Centro para la prevenci—n y atenci—n de las adicciones en adolescentes y j—venes Los Mesejo;;Lunes a viernes/ de 9 a 21 horas.;Metro: Puente de Vallecas (l’nea 1).  Bus: 141/ 24/ 54/ 57/ 8/ 10/ 136/ 310/ 37/ 56/ 111/ 58/ 148/ 113.  Bicimad: Estaci—n 179 (avenida de la Albufera/ 6).;;3;http://www.madrid.es/sites/v/index.jsp?vgnextchannel=bfa48ab43d6bb410VgnVCM100000171f5a0aRCRD&vgnextoid=d5ae13b45bdfb410VgnVCM2000000c205a0aRCRD;LOS MESEJO;CALLE;V;9;MADRID;MADRID;28007;2;Adelfas;https://wikidata.org/entity/Q3774001;3;Retiro;https://wikidata.org/entity/Q2002296;443139;4472316;40.484;-3.685;913 442 400 / 901 350 350;mesejo9@salud.madrid.org;Centros Asistencia Drogodependientes
57586;Cl’nica CEMTRO;;;Metro: Mirasierra (l’nea 9).  Bus: 49.;;3;http://www.madrid.es/sites/v/index.jsp?vgnextchannel=bfa48ab43d6bb410VgnVCM100000171f5a0aRCRD&vgnextoid=9d1b8ed67151c010VgnVCM2000000c205a0aRCRD;VENTISQUERO DE LA CONDESA;AVENIDA;V;42;MADRID;MADRID;28035;7;Mirasierra;https://wikidata.org/entity/Q31134;8;Fuencarral-El Pardo;https://wikidata.org/entity/Q656196;439221;4482838;40.487;-3.663;917 355 757;clinica.cemtro@clinicacemtro.com;Hospitales Clinicas Sanatorios
9148;Cl’nica Doctor Le—n;;;Metro: MenŽndez Pelayo (l’nea 1)/ Conde de Casal (l’nea 6).  Bus: 14/ 32/ 152/ 26/ 63/ C2/ C1/ 10.  Bicimad: Estaci—n 75 (Avenida MenŽndez Pelayo/ 70).  Apacamiento: Reyes Magos (35)/ plaza Reyes Magos.;;3;http://www.madrid.es/sites/v/index.jsp?vgnextchannel=bfa48ab43d6bb410VgnVCM100000171f5a0aRCRD&vgnextoid=0fc9224e0d61c010VgnVCM1000000b205a0aRCRD;MARIANO DE CAVIA;PLAZA;V;3;MADRID;MADRID;28007;6;Ni–o Jesœs;https://wikidata.org/entity/Q3773746;3;Retiro;https://wikidata.org/entity/Q2002296;442451;4473229;40.396;-3.615;915 517 722;;Hospitales Clinicas Sanatorios
9170;Cl’nica Isadora;;;Metro: Francos Rodriguez (l’nea 7).  Bus: 64/ 44.;;3;http://www.madrid.es/sites/v/index.jsp?vgnextchannel=bfa48ab43d6bb410VgnVCM100000171f5a0aRCRD&vgnextoid=40804b6faa61c010VgnVCM1000000b205a0aRCRD;PIRINEOS;CALLE;V;7;MADRID;MADRID;28040;3;Ciudad Universitaria;https://wikidata.org/entity/Q3319235;9;Moncloa-Aravaca;https://wikidata.org/entity/Q2017682;439254;4478746;40.436;-3.685;913 111 000;;Hospitales Clinicas Sanatorios
9161;Cl’nica L—pez Ibor;;;Metro: Antonio Machado (l’nea 7).  Bus: 64/ 137.;;3;http://www.madrid.es/sites/v/index.jsp?vgnextchannel=bfa48ab43d6bb410VgnVCM100000171f5a0aRCRD&vgnextoid=8ac04b6faa61c010VgnVCM1000000b205a0aRCRD;DOCTOR JUAN JOSE LOPEZ IBOR;CALLE;V;2;MADRID;MADRID;28035;4;Valdezarza;https://wikidata.org/entity/Q10388728;9;Moncloa-Aravaca;https://wikidata.org/entity/Q2017682;438589;4479945;40.434;-3.674;913 162 740;;Hospitales Clinicas Sanatorios
9138;Cl’nica Nuestra Se–ora de la Paz;;;Metro: Avenida de la Paz (l’nea 4).  Bus: 53/ 72/ 73/ 9.  Bicimad: Estaci—n 480 (calle Vicente Muzas/ 12).;;3;http://www.madrid.es/sites/v/index.jsp?vgnextchannel=bfa48ab43d6bb410VgnVCM100000171f5a0aRCRD&vgnextoid=57214b6faa61c010VgnVCM1000000b205a0aRCRD;LOPEZ DE HOYOS;CALLE;V;259;MADRID;MADRID;28043;7;Colina;https://wikidata.org/entity/Q18475981;15;Ciudad Lineal;https://wikidata.org/entity/Q1763694;443946;4478671;40.419;-3.706;914 156 000;;Hospitales Clinicas Sanatorios
9146;Cl’nica San Miguel;;;Metro: Arturo Soria (l’nea 4).  Bus: 11/ 70/ 72/ 73/ 9/ 53/ 87/ 7.  Bicimad: Estaci—n 480 (calle Vicente Muzas/ 12).;;3;http://www.madrid.es/sites/v/index.jsp?vgnextchannel=bfa48ab43d6bb410VgnVCM100000171f5a0aRCRD&vgnextoid=dbb14b6faa61c010VgnVCM1000000b205a0aRCRD;ARTURO SORIA;CALLE;V;204;MADRID;MADRID;28043;7;Colina;https://wikidata.org/entity/Q18475981;15;Ciudad Lineal;https://wikidata.org/entity/Q1763694;444000;4479006;40.428;-3.672;914 135 011;info.sanmiguel@hospitalarias.es;Hospitales Clinicas Sanatorios
11174880;Cl’nica San Vicente;;;Bus:  116/ 121/ 131/ 155.;;3;http://www.madrid.es/sites/v/index.jsp?vgnextchannel=bfa48ab43d6bb410VgnVCM100000171f5a0aRCRD&vgnextoid=f44f5be190212710VgnVCM1000001d4a900aRCRD;CERILLERAS;CALLE;V;7;MADRID;MADRID;28054;6;Buenavista;https://wikidata.org/entity/Q953929;11;Carabanchel;https://wikidata.org/entity/Q1001991;438227;4469272;40.399;-3.674;916 318 212 / 916 317 938;info@clinicasanvicente.es;Hospitales Clinicas Sanatorios
10613510;Cl’nica Universidad de Navarra en Madrid;;;Bus: 114/ 104/ 146.;;3;http://www.madrid.es/sites/v/index.jsp?vgnextchannel=bfa48ab43d6bb410VgnVCM100000171f5a0aRCRD&vgnextoid=b940308874a61610VgnVCM2000001f4a900aRCRD;MARQUESADO DE SANTA MARTA;CALLE;V;1;MADRID;MADRID;28027;8;Salvador;https://wikidata.org/entity/Q10367095;20;San Blas-Canillejas;https://wikidata.org/entity/Q2001937;447014;4477655;40.494;-3.717;913 531 920;;Hospitales Clinicas Sanatorios
8870;CMSc Centro Municipal de Salud Comunitaria  Chamber’;;Antes de acudir/ p—ngase en contacto telŽfonico con el centro   Horario de verano: ma–anas de 8 a 14 horas y tardes de 14 a 20 horas Este centro permanecer‡ cerrado en turno de tarde:   del 10 de julio al 22 de agosto    Anticoncepci—n de urgencia. En periodo de verano/ le sugerimos se ponga en contacto telŽfonico con el centro para asegurar su atenci—n.  Vacunaci—n: con cita previa;Metro: Iglesia  Bus: 3 / 5 / 16 / 40 / 61 / 147 Bicicletas:  Servicio Bicimad/ para consultar la estaci—n m‡s cercana/ acceda al mapa de geolocalizaci—n de las estaciones.;çmbito de Influencia:  Distrito de Chamart’n: Barrios de Prosperidad/ El Viso y Ciudad Jard’n Distrito de Chamber’.  Los programas marco de salud de abordaje prioritario que desarrollan los Centros Municipales de Salud Comunitaria son:  Alimentaci—n/ actividad f’sica y salud Salud sexual y reproductiva Promoci—n de la salud en el ‡mbito educativo Envejecimiento activo y saludable Salud materno-infantil Prevenci—n y control del consumo de tabaco Promoci—n de Salud Mental Desigualdades sociales en salud  Los que se desarrollan actualmente los puede consultar en la P‡gina Web de Madrid Salud;1;http://www.madrid.es/sites/v/index.jsp?vgnextchannel=bfa48ab43d6bb410VgnVCM100000171f5a0aRCRD&vgnextoid=e1b24b6faa61c010VgnVCM1000000b205a0aRCRD;RAFAEL CALVO;CALLE;V;6;MADRID;MADRID;28010;4;Almagro;https://wikidata.org/entity/Q10954432;7;Chamber’;https://wikidata.org/entity/Q1763370;440985;4476318;40.407;-3.678;CITACIONES:  915 886 784 / 915 886 783;cmschamberi@madrid.es;Centros Prevencion Enfermedades
8866;CMSc Centro Municipal de Salud Comunitaria Arganzuela;;Antes de acudir/ p—ngase en contacto telef—nico con el centro       Horario de verano: ma–anas de 8 a 14 horas y tardes de 14 a 20 horas Este centro permanecer‡ cerrado en turno de tarde:   del 10 al 28 de julio  14 de agosto     Anticoncepci—n de urgencia. En periodo de verano/ le sugerimos se ponga en contacto telŽfonico con el centro para asegurar su atenci—n.  Vacunaci—n: cita previa;Metro: Puerta de Toledo/ Acacias/ Pir‡mides/ Embajadores Bus: 3/ 6/ 17/ 18/ 23/ 34/ 35/ 36/ 41/ 60/ 62/ 116/ 118/ 119/ 148 y circular Renfe: Pir‡mides/ Embajadores Bicicletas:  Servicio Bicimad/ para consultar la estaci—n m‡s cercana/ acceda al mapa de geolocalizaci—n de las estaciones.;çmbito de influencia  Distrito de Arganzuela: Imperial/ Acacias/ Chopera/ Legazpi/ Delicias/ Palos de Moguer/ Atocha/ Comillas Los programas marco de salud de abordaje prioritario que desarrollan los Centros Municipales de Salud Comunitaria son:  Alimentaci—n/ actividad f’sica y salud Salud sexual y reproductiva Promoci—n de la salud en el ‡mbito educativo Envejecimiento activo y saludable Salud materno-infantil Prevenci—n y control del consumo de tabaco Promoci—n de Salud Mental Desigualdades sociales en salud  Los que se desarrollan en el CMSc Centro Municipal de Salud Comunitaria Arganzuela actualmente los puede consultar en la  P‡gina Web de Madrid Salud;1;http://www.madrid.es/sites/v/index.jsp?vgnextchannel=bfa48ab43d6bb410VgnVCM100000171f5a0aRCRD&vgnextoid=fe324b6faa61c010VgnVCM1000000b205a0aRCRD;CONCEJAL BENITO MARTIN LOZANO;CALLE;V;1;MADRID;MADRID;28005;2;Las Acacias;https://wikidata.org/entity/Q3319190;2;Arganzuela;https://wikidata.org/entity/Q2000929;439685;4473029;40.457;-3.716;CITACIONES: 913 541 784/ 913 541 785;cmsarganzuela@madrid.es;Centros Prevencion Enfermedades
8880;CMSc Centro Municipal de Salud Comunitaria Carabanchel;;Antes de acudir/ p—ngase en contacto telŽfonico con el centro   Horario de verano: ma–anas de 8 a 14 horas y tardes de 14 a 20 horas  Anticoncepci—n de urgencia. En periodo de verano/ le sugerimos se ponga en contacto telŽfonico con el centro para asegurar su atenci—n.  Vacunaci—n: con cita previa;Bus: 34 / 35 Bicicletas:  Servicio Bicimad/ para consultar la estaci—n m‡s cercana/ acceda al mapa de geolocalizaci—n de las estaciones.;çmbito de influencia  Distrito de Carabanchel: Comillas/ Abrantes/ Buenavista/ Opa–el/ Puerta Bonita/ Vista Alegre/ San Isidro. Los programas marco de salud de abordaje prioritario que desarrollan los Centros Municipales de Salud Comunitaria son:  Alimentaci—n/ actividad f’sica y salud Salud sexual y reproductiva Promoci—n de la salud en el ‡mbito educativo Envejecimiento activo y saludable Salud materno-infantil Prevenci—n y control del consumo de tabaco Promoci—n de Salud Mental Desigualdades sociales en salud  Los que se desarrollan en el CMSc Centro Municipal de Salud Comunitaria Carabanchel actualmente los puede consultar en la  P‡gina Web de Madrid Salud;1;http://www.madrid.es/sites/v/index.jsp?vgnextchannel=bfa48ab43d6bb410VgnVCM100000171f5a0aRCRD&vgnextoid=45624b6faa61c010VgnVCM1000000b205a0aRCRD;EUGENIA DE MONTIJO;CALLE;V;90;MADRID;MADRID;28025;4;Vista Alegre;https://wikidata.org/entity/Q3813741;11;Carabanchel;https://wikidata.org/entity/Q1001991;436587;4470216;40.467;-3.724;CITACIONES:913 696 072 / 913 602 200;cmscarabanchel@madrid.es;Centros Prevencion Enfermedades
8882;CMSc Centro Municipal de Salud Comunitaria Centro;;Antes de acudir/ p—ngase en contacto telŽfonico con el centro   Horario de verano: ma–anas de 8 a 14 horas y tardes de 14 a 20 horas  Anticoncepci—n de urgencia. En periodo de verano/ le sugerimos se ponga en contacto telŽfonico con el centro para asegurar su atenci—n.  Vacunaci—n: con cita previa;Metro: CallaoBus: 1 / 2 / 44 / 46 / 74 / 75 / 133 / 146 / 147 / 148 / 202 Bicicletas:  Servicio Bicimad/ para consultar la estaci—n m‡s cercana/ acceda al mapa de geolocalizaci—n de las estaciones.;çMBITO DE INFLUENCIA   Distrito de Centro: Palacio/ Embajadores/ Universidad/ Cortes/ Sol/ Justicia Distrito de Moncloa: Casa de Campo/ Arg&amp/uuml/elles/ Ciudad Universitaria/ Valdezarza/ Valdemar’n/ El Plant’o/ Aravaca  Los programas marco de salud de abordaje prioritario que desarrollan los Centros Municipales de Salud Comunitaria son:  Alimentaci—n/ actividad f’sica y salud Salud sexual y reproductiva Promoci—n de la salud en el ‡mbito educativo Envejecimiento activo y saludable Salud materno-infantil Prevenci—n y control del consumo de tabaco Promoci—n de Salud Mental Desigualdades sociales en salud  Los que se desarrollan en el CMSc Centro Municipal de Salud Comunitaria Centro actualmente los puede consultar en la P‡gina Web de Madrid Salud;1;http://www.madrid.es/sites/v/index.jsp?vgnextchannel=bfa48ab43d6bb410VgnVCM100000171f5a0aRCRD&vgnextoid=9b824b6faa61c010VgnVCM1000000b205a0aRCRD;NAVAS DE TOLOSA;CALLE;V;10;MADRID;MADRID;28013;6;Sol;https://wikidata.org/entity/Q2465181;1;Centro;https://wikidata.org/entity/Q1763376;440026;4474527;40.456;-3.661;CITACIONES: 915 889 661 / 915 889 660;cmscentro@madrid.es;Centros Prevencion Enfermedades
8881;CMSc Centro Municipal de Salud Comunitaria Ciudad Lineal;;Antes de acudir/ p—ngase en contacto telŽfonico con el centro   Horario de verano: ma–anas de 8 a 14 horas y tardes de 14 a 20 horas  Anticoncepci—n de urgencia. En periodo de verano/ le sugerimos se ponga en contacto telŽfonico con el centro para asegurar su atenci—n.  Vacunaci—n: con cita previa;Metro: L2 Autobuses: 106/ 113 Bicicletas:  Servicio Bicimad/ para consultar la estaci—n m‡s cercana/ acceda al mapa de geolocalizaci—n de las estaciones.;çmbito de influencia: Distrito Ciudad Lineal  Barrios: Ventas/ Pueblo Nuevo/ Quintana/ Concepci—n/ San Pascual/ San Juan Bautista/ Colina/ Atalaya/ Costillares Los programas marco de salud de abordaje prioritario que desarrollan los Centros Municipales de Salud Comunitaria son:  Alimentaci—n/ actividad f’sica y salud Salud sexual y reproductiva Promoci—n de la salud en el ‡mbito educativo Envejecimiento activo y saludable Salud materno-infantil Prevenci—n y control del consumo de tabaco Promoci—n de Salud Mental Desigualdades sociales en salud;1;http://www.madrid.es/sites/v/index.jsp?vgnextchannel=bfa48ab43d6bb410VgnVCM100000171f5a0aRCRD&vgnextoid=38d24b6faa61c010VgnVCM1000000b205a0aRCRD;DE AGUSTêN GONZALEZ;PLAZA;V;1;MADRID;MADRID;28017;1;Ventas;https://wikidata.org/entity/Q71762;15;Ciudad Lineal;https://wikidata.org/entity/Q1763694;445107;4475424;40.459;-3.665;Citaciones: 914 061 578 / 914 064 134;cmsciudadlineal@madrid.es;Centros Prevencion Enfermedades
8867;CMSc Centro Municipal de Salud Comunitaria Fuencarral;;Antes de acudir/ p—ngase en contacto telef—nico con el centro   Horario de verano: ma–anas de 9 a 14 horas y tardes de 14 a 20 horas Este centro permanecer‡ cerrado en turno de tarde:   del 7 al 6 de septiembre   Anticoncepci—n de urgencia. En periodo de verano/ le sugerimos se ponga en contacto telŽfonico con el centro para asegurar su atenci—n.;Metro: Barrio del Pilar Bus: 83 / 128 / 132 / 134/ 137/ 49 Interurbano: 602 Bicicletas:  Servicio Bicimad/ para consultar la estaci—n m‡s cercana/ acceda al mapa de geolocalizaci—n de las estaciones.;çmbito de influencia:   Distrito de Fuencarral - El Pardo.  Los programas marco de salud de abordaje prioritario que desarrollan los Centros Municipales de Salud Comunitaria son:  Alimentaci—n/ actividad f’sica y salud Salud sexual y reproductiva Promoci—n de la salud en el ‡mbito educativo Envejecimiento activo y saludable Salud materno-infantil Prevenci—n y control del consumo de tabaco Promoci—n de Salud Mental Desigualdades sociales en salud  Los que se desarrollan actualmente los puede consultar en la P‡gina Web de Madrid Salud;1;http://www.madrid.es/sites/v/index.jsp?vgnextchannel=bfa48ab43d6bb410VgnVCM100000171f5a0aRCRD&vgnextoid=8ef24b6faa61c010VgnVCM1000000b205a0aRCRD;MONFORTE DE LEMOS;AVENIDA;V;38;MADRID;MADRID;28029;4;El Pilar;https://wikidata.org/entity/Q3773964;8;Fuencarral-El Pardo;https://wikidata.org/entity/Q656196;439867;4481122;40.371;-3.727;CITACIONES: 91 588 68 71 / 91 588 68 73;cmsfuencarral@madrid.es;Centros Prevencion Enfermedades
17433;CMSc Centro Municipal de Salud Comunitaria Hortaleza;;Antes de acudir/ p—ngase en contacto telŽfonico con el centro   Horario de verano: ma–anas de 8 a 14 horas y tardes de 14 a 20 horas Este centro permanecer‡ cerrado en turno de tarde:   14 de agosto    Anticoncepci—n de urgencia. En periodo de verano/ le sugerimos se ponga en contacto telŽfonico con el centro para asegurar su atenci—n.  Vacunaci—n: con cita previa;Bus: 73 / 120 / 122 Metro: L 4/ estaci—n Canillas Bicicletas:  Servicio Bicimad/ para consultar la estaci—n m‡s cercana/ acceda al mapa de geolocalizaci—n de las estaciones.;çmbito de influencia:   Distrito de Hortaleza Distrito de Barajas.  Los programas marco de salud de abordaje prioritario que desarrollan los Centros Municipales de Salud Comunitaria son:  Alimentaci—n/ actividad f’sica y salud Salud sexual y reproductiva Promoci—n de la salud en el ‡mbito educativo Envejecimiento activo y saludable Salud materno-infantil Prevenci—n y control del consumo de tabaco Promoci—n de Salud Mental Desigualdades sociales en salud  Los que se desarrollan actualmente los puede consultar en la P‡gina Web de Madrid Salud;1;http://www.madrid.es/sites/v/index.jsp?vgnextchannel=bfa48ab43d6bb410VgnVCM100000171f5a0aRCRD&vgnextoid=aec4e35bba51c010VgnVCM2000000c205a0aRCRD;JUAN CLEMENTE NU„EZ;CALLE;V;3;MADRID;MADRID;28043;3;Canillas;https://wikidata.org/entity/Q9694341;16;Hortaleza;https://wikidata.org/entity/Q1928529;446841;4479247;40.447;-3.624;CITACIONES: 917 489 197 / 917 489 207;cmshortaleza@madrid.es;Centros Prevencion Enfermedades
8876;CMSc Centro Municipal de Salud Comunitaria Latina;;Antes de acudir/ p—ngase en contacto telŽfonico con el centro   Horario de verano: ma–anas de 8 a 14 horas   Anticoncepci—n de urgencia. En periodo de verano/ le sugerimos se ponga en contacto telŽfonico con el centro para asegurar su atenci—n.  Vacunaci—n: con cita previa;Metro: Alto de Extremadura Bus: 31 / 33 / 36 / 39 / 65 Bicicletas:  Servicio Bicimad/ para consultar la estaci—n m‡s cercana/ acceda al mapa de geolocalizaci—n de las estaciones.;çmbito de influencia:   Distrito de Latina.  Los programas marco de salud de abordaje prioritario que desarrollan los Centros Municipales de Salud Comunitaria son:  Alimentaci—n/ actividad f’sica y salud Salud sexual y reproductiva Promoci—n de la salud en el ‡mbito educativo Envejecimiento activo y saludable Salud materno-infantil Prevenci—n y control del consumo de tabaco Promoci—n de Salud Mental Desigualdades sociales en salud  Los que se desarrollan actualmente los puede consultar en la P‡gina Web de Madrid Salud;1;http://www.madrid.es/sites/v/index.jsp?vgnextchannel=bfa48ab43d6bb410VgnVCM100000171f5a0aRCRD&vgnextoid=d4234b6faa61c010VgnVCM1000000b205a0aRCRD;EXTREMADURA;PASEO;V;147;MADRID;MADRID;28011;2;Barrio de Puerta del çngel;https://wikidata.org/entity/Q31142;10;Latina;https://wikidata.org/entity/Q794954;437283;4473479;40.433;-3.697;CITACIONES:  914 649 972 / 914 794 666;cmslatina@madrid.es;Centros Prevencion Enfermedades
148488;CMSc Centro Municipal de Salud Comunitaria Puente de Vallecas;;Antes de acudir/ p—ngase en contacto telŽfonico con el centro   Horario de verano: ma–anas de 8 a 14 horas y tardes de 14 a 20 horas  Anticoncepci—n de urgencia. En periodo de verano/ le sugerimos se ponga en contacto telŽfonico con el centro para asegurar su atenci—n.  Vacunaci—n: con cita previa;Metro: Nueva Numancia Bus: 10 / 24 / 54 / 57 / 58 / 111 / 140 Bicicletas:  Servicio Bicimad/ para consultar la estaci—n m‡s cercana/ acceda al mapa de geolocalizaci—n de las estaciones.;çmbito de influencia:   Distrito de Puente de Vallecas: Entrev’as/ Palomeras Bajas/ Numancia/ San Diego/ Palomeras Altas/ Portazgo   Los programas marco de salud de abordaje prioritario que desarrollan los Centros Municipales de Salud Comunitaria son:  Alimentaci—n/ actividad f’sica y salud Salud sexual y reproductiva Promoci—n de la salud en el ‡mbito educativo Envejecimiento activo y saludable Salud materno-infantil Prevenci—n y control del consumo de tabaco Promoci—n de Salud Mental Desigualdades sociales en salud  Los que se desarrollan actualmente los puede consultar en la P‡gina Web de Madrid Salud;1;http://www.madrid.es/sites/v/index.jsp?vgnextchannel=bfa48ab43d6bb410VgnVCM100000171f5a0aRCRD&vgnextoid=f759ac2e6481c010VgnVCM1000000b205a0aRCRD;CONCORDIA;CALLE;NUM;15;MADRID;MADRID;28053;2;San Diego;https://wikidata.org/entity/Q11946851;13;Puente de Vallecas;https://wikidata.org/entity/Q2003054;443512;4471842;40.405;-3.712;CITACIONES: 915 886 016 / 915 133 025;cmsvallecasp@madrid.es;Centros Prevencion Enfermedades
8872;CMSc Centro Municipal de Salud Comunitaria Salamanca Retiro;;Antes de acudir/ p—ngase en contacto telŽfonico con el centro   Horario de verano: ma–anas de 8 a 14 horas   Anticoncepci—n de urgencia. En periodo de verano/ le sugerimos se ponga en contacto telŽfonico con el centro para asegurar su atenci—n.  Vacunaci—n: con cita previa;Metro: Vel‡zquez (l’nea 9) y Nu–ez de Balboa (l’neas 4 y 5)  Autobœs: 1/ 9/ 19/ 21/ 29/ 51/ 52/ 53 y 74 Bicicletas:  Servicio Bicimad/ para consultar la estaci—n m‡s cercana/ acceda al mapa de geolocalizaci—n de las estaciones.;çmbito de influencia:   Distrito de Retiro: Pac’fico/ Adelfas/ Estrella/ Ibiza/ Jer—nimos/ Ni–o Jesœs  Distrito de Salamanca: Recoletos/ Goya/ Fuente del Berro/ Guindalera/ Lista/ Castellana  Los programas marco de salud de abordaje prioritario que desarrollan los Centros Municipales de Salud Comunitaria son:  Alimentaci—n/ actividad f’sica y salud Salud sexual y reproductiva Promoci—n de la salud en el ‡mbito educativo Envejecimiento activo y saludable Salud materno-infantil Prevenci—n y control del consumo de tabaco Promoci—n de Salud Mental Desigualdades sociales en salud  Los que se desarrollan actualmente los puede consultar en la P‡gina Web de Madrid Salud;1;http://www.madrid.es/sites/v/index.jsp?vgnextchannel=bfa48ab43d6bb410VgnVCM100000171f5a0aRCRD&vgnextoid=2b434b6faa61c010VgnVCM1000000b205a0aRCRD;NU„EZ DE BALBOA;CALLE;V;40;MADRID;MADRID;28001;1;Recoletos;https://wikidata.org/entity/Q3814551;4;Salamanca;https://wikidata.org/entity/Q1773521;442103;4475356;40.378;-3.748;CITACIONES: 913 601 530 / 913 697 721;cmssalamancaretiro@madrid.es;Centros Prevencion Enfermedades
8871;CMSc Centro Municipal de Salud Comunitaria Salud Tetu‡n;;Antes de acudir/ p—ngase en contacto telŽfonico con el centro   Horario de verano: ma–anas de 8 a 14 horas y tardes de 14 a 20 horas Este centro permanecer‡ cerrado en turno de tarde:   14 de agosto    Anticoncepci—n de urgencia. En periodo de verano/ le sugerimos se ponga en contacto telŽfonico con el centro para asegurar su atenci—n.  Vacunaci—n: con cita previa;Metro: Valdeacederas/ Plaza de Castilla  Bus: 42 / 49 / 124 Bicicletas:  Servicio Bicimad/ para consultar la estaci—n m‡s cercana/ acceda al mapa de geolocalizaci—n de las estaciones.;çmbito de influencia:   Distrito de Chamart’n: Barrios de HispanoamŽrica / Nueva Espa–a y Castilla Distrito de Tetu‡n.  Los programas marco de salud de abordaje prioritario que desarrollan los Centros Municipales de Salud Comunitaria son:  Alimentaci—n/ actividad f’sica y salud Salud sexual y reproductiva Promoci—n de la salud en el ‡mbito educativo Envejecimiento activo y saludable Salud materno-infantil Prevenci—n y control del consumo de tabaco Promoci—n de Salud Mental Desigualdades sociales en salud  Los que se desarrollan actualmente los puede consultar en la P‡gina Web de Madrid Salud;1;http://www.madrid.es/sites/v/index.jsp?vgnextchannel=bfa48ab43d6bb410VgnVCM100000171f5a0aRCRD&vgnextoid=71734b6faa61c010VgnVCM1000000b205a0aRCRD;AGUILE„AS;CALLE;V;1;MADRID;MADRID;28029;4;Almenara;https://wikidata.org/entity/Q2265427;6;Tetu‡n;https://wikidata.org/entity/Q1773540;441196;4479654;40.419;-3.706;CITACIONES: 915 886 675/ 915 886 689;cmstetuan@madrid.es;Centros Prevencion Enfermedades
4645539;CMSc Centro Municipal de Salud Comunitaria San Blas;;Antes de acudir/ p—ngase en contacto telef—nico con el centro    Anticoncepci—n de urgencia. En periodo de verano/ le sugerimos se ponga en contacto telŽfonico con el centro para asegurar su atenci—n. Prueba r‡pida del VIH con cita previa:ma–anas de 9 a 13 horas/ martes/ miŽrcoles y jueves por la tarde de 15 a 19 horas.   Horario de verano: ma–anas de 8 a 14 horas y tardes de 14 a 20 horas Este centro permanecer‡ cerrado en turno de tarde:   del 24 al 28 de julio  del 7 al 25 de agosto  del 1 al 4 de septiembre;Autobus: 38/ 48/ 153 Metro: San Blas Bicicletas:  Servicio Bicimad/ para consultar la estaci—n m‡s cercana/ acceda al mapa de geolocalizaci—n de las estaciones.;çmbito de influencia: Barrios de Simancas/ Salvador/ Hell’n/ Amposta/ Arcos y Rosas Los programas marco de salud de abordaje prioritario que desarrollan los Centros Municipales de Salud Comunitaria son:  Alimentaci—n/ actividad f’sica y salud Salud sexual y reproductiva Promoci—n de la salud en el ‡mbito educativo Envejecimiento activo y saludable Salud materno-infantil Prevenci—n y control del consumo de tabaco Promoci—n de Salud Mental Desigualdades sociales en salud  Los que se desarrollan actualmente los puede consultar en la P‡gina Web de Madrid Salud;1;http://www.madrid.es/sites/v/index.jsp?vgnextchannel=bfa48ab43d6bb410VgnVCM100000171f5a0aRCRD&vgnextoid=40b3b8facf715110VgnVCM1000000b205a0aRCRD;POBLADURA DEL VALLE;CALLE;V;13;MADRID;MADRID;28037;3;Amposta;https://wikidata.org/entity/Q11905392;20;San Blas-Canillejas;https://wikidata.org/entity/Q2001937;447403;4475213;40.427;-3.647;CITACIONES: 917 609 656/47;;Centros Prevencion Enfermedades
8878;CMSc Centro Municipal de Salud Comunitaria Usera;;Atenci—n a la ciudadan’a con cita previa   Horario de verano: ma–anas de 8 a 14 horas y tardes de 14 a 20 horas Este centro permanecer‡ cerrado en turno de tarde:   del 12 al 30 de julio  del 14 al 25 de agosto    Anticoncepci—n de urgencia. En periodo de verano/ le sugerimos se ponga en contacto telef—nico con el centro para asegurar su atenci—n.;Bus: 6 / 60 / 78 / 81 Metro: Plaza El’ptica Bicicletas:  Servicio Bicimad/ para consultar la estaci—n m‡s cercana/ acceda al mapa de geolocalizaci—n de las estaciones.;çmbito de influencia:   Distrito de Usera: Orcasitas/ Orcasur/ San Ferm’n/ Almendrales/ Moscard—/ Zof’o/ Pradolongo  Los programas marco de salud de abordaje prioritario que desarrollan los Centros Municipales de Salud Comunitaria son:  Alimentaci—n/ actividad f’sica y salud Salud sexual y reproductiva Promoci—n de la salud en el ‡mbito educativo Envejecimiento activo y saludable Salud materno-infantil Prevenci—n y control del consumo de tabaco Promoci—n de Salud Mental Desigualdades sociales en salud  Los que se desarrollan actualmente los puede consultar en la P‡gina Web de Madrid Salud;1;http://www.madrid.es/sites/v/index.jsp?vgnextchannel=bfa48ab43d6bb410VgnVCM100000171f5a0aRCRD&vgnextoid=c7934b6faa61c010VgnVCM1000000b205a0aRCRD;AVENA;CALLE;V;3;MADRID;MADRID;28026;6;El Zof’o;https://wikidata.org/entity/Q71751;12;Usera;https://wikidata.org/entity/Q953368;439249;4469929;40.478;-3.709;CITACIONES: 914 609 850 / 914 607 200;cmsusera@madrid.es;Centros Prevencion Enfermedades
8877;CMSc Centro Municipal de Salud Comunitaria Vic‡lvaro;;Antes de acudir/ p—ngase en contacto telŽfonico con el centro   Horario de verano: ma–anas de 8 a 14 horas y tardes de 14 a 20 horas  Anticoncepci—n de urgencia. En periodo de verano/ le sugerimos se ponga en contacto telŽfonico con el centro para asegurar su atenci—n.  Vacunaci—n: con cita previa;Metro: Vic‡lvaro Bus: 4 / 100 / 106 / 130/ E3 Bicicletas:  Servicio Bicimad/ para consultar la estaci—n m‡s cercana/ acceda al mapa de geolocalizaci—n de las estaciones.;çmbito de influencia:   Distrito de Moratalaz: Pavones/ Horcajo/ Marroquina/ Media Legua/ Fontarr—n/ Vinateros    Distrito de Vic‡lvaro: Casco Hist—rico de Vic‡lvaro/ Ambroz   Los programas marco de salud de abordaje prioritario que desarrollan los Centros Municipales de Salud Comunitaria son:  Alimentaci—n/ actividad f’sica y salud Salud sexual y reproductiva Promoci—n de la salud en el ‡mbito educativo Envejecimiento activo y saludable Salud materno-infantil Prevenci—n y control del consumo de tabaco Promoci—n de Salud Mental Desigualdades sociales en salud  Los que se desarrollan actualmente los puede consultar en la P‡gina Web de Madrid Salud;1;http://www.madrid.es/sites/v/index.jsp?vgnextchannel=bfa48ab43d6bb410VgnVCM100000171f5a0aRCRD&vgnextoid=1eb34b6faa61c010VgnVCM1000000b205a0aRCRD;CALAHORRA;CALLE;V;11;MADRID;MADRID;28032;1;Casco Hist—rico de Vic‡lvaro;https://wikidata.org/entity/Q16544374;19;Vic‡lvaro;https://wikidata.org/entity/Q589403;448180;4473179;40.462;-3.627;Citaciones: 917 602 401 / 917 753 260 / 917 753 262;cmsvicalvaro@madrid.es;Centros Prevencion Enfermedades
8873;CMSc Centro Municipal de Salud Comunitaria Villa de Vallecas;;Antes de acudir/ p—ngase en contacto telŽfonico con el centro   Horario de verano: ma–anas de 8 a 14 horas y tardes de 14 a 20 horas Este centro permanecer‡ cerrado en turno de tarde:   del 7 al 18 de agosto    Anticoncepci—n de urgencia. En periodo de verano/ le sugerimos se ponga en contacto telŽfonico con el centro para asegurar su atenci—n.  Vacunaci—n: con cita previa;Metro: Villa de Vallecas Bus: 54 / 58 / 130 / 143 Bicicletas:  Servicio Bicimad/ para consultar la estaci—n m‡s cercana/ acceda al mapa de geolocalizaci—n de las estaciones.;çmbito de influencia:   Distrito de Villa de Vallecas. Barrios:  Casco hist—rico de Vallecas Santa Eugenia Ensanche de Vallecas    Los programas marco de salud de abordaje prioritario que desarrollan los CMSc Centros Municipales de Salud Comunitaria son:  Alimentaci—n/ actividad f’sica y salud Salud sexual y reproductiva Promoci—n de la salud en el ‡mbito educativo Envejecimiento activo y saludable Salud materno-infantil Prevenci—n y control del consumo de tabaco Promoci—n de Salud Mental Desigualdades sociales en salud  Los que se desarrollan actualmente los puede consultar en la P‡gina Web de Madrid Salud;1;http://www.madrid.es/sites/v/index.jsp?vgnextchannel=bfa48ab43d6bb410VgnVCM100000171f5a0aRCRD&vgnextoid=64e34b6faa61c010VgnVCM1000000b205a0aRCRD;SIERRA GADOR;CALLE;V;68;MADRID;MADRID;28031;1;Casco Hist—rico de Vallecas;https://wikidata.org/entity/Q16544370;18;Villa de Vallecas;https://wikidata.org/entity/Q1947988;447199;4470097;40.409;-3.739;CITACIONES: 917 791 312 / 913 807 910;cmsvallecasv@madrid.es;Centros Prevencion Enfermedades
6017257;CMSc Centro Municipal de Salud Comunitaria Villaverde;;Antes de acudir/ p—ngase en contacto telŽfonico con el centro   Horario de verano: ma–anas de 8 a 14 horas y tardes de 14 a 20 horas Este centro permanecer‡ cerrado en turno de tarde:   del 19 de junio al 15 de septiembre    Anticoncepci—n de urgencia. En periodo de verano/ le sugerimos se ponga en contacto telŽfonico con el centro para asegurar su atenci—n.  Vacunaci—n: con cita previa;Metro: Ciudad de los çngeles salida calle Tertulia (L 3) Bus: 22/ 23/ 59/ 85/ 79 y 123 Renfe: Villaverde Bajo Bicicletas:  Servicio Bicimad/ para consultar la estaci—n m‡s cercana/ acceda al mapa de geolocalizaci—n de las estaciones.;çmbito de influencia: Distrito Villaverde Barrios:  Villaverde Alto San Cristobal (San Cristobal de los çngeles) Butarque (Nuevo Rosales) Los Rosales (Villaverde Bajo y El Espinillo) Los çngeles (Ciudad de los çngeles)  Los programas marco de salud de abordaje prioritario que desarrollan los CMSc Centros Municipales de Salud Comunitaria son:  Alimentaci—n/ actividad f’sica y salud Salud sexual y reproductiva Promoci—n de la salud en el ‡mbito educativo Envejecimiento activo y saludable Salud materno-infantil Prevenci—n y control del consumo de tabaco Promoci—n de Salud Mental Desigualdades sociales en salud  Los que se desarrollan actualmente los puede consultar en la P‡gina Web de Madrid Salud;1;http://www.madrid.es/sites/v/index.jsp?vgnextchannel=bfa48ab43d6bb410VgnVCM100000171f5a0aRCRD&vgnextoid=df3d7f073900f210VgnVCM1000000b205a0aRCRD;FELICIDAD;AVENIDA;V;17;MADRID;MADRID;28041;4;Los Rosales;https://wikidata.org/entity/Q10319807;17;Villaverde;https://wikidata.org/entity/Q919536;441347;4467878;40.395;-3.665;Recepci—n: 914 80 49 39 / 915 88 92 60;cmsvillaverde@madrid.es;Centros Prevencion Enfermedades
9164;Complejo Hospitalario Ruber Juan Bravo;;;Metro: Diego de Le—n (l’neas 4/ 5 y 6)/ Nœ–ez de Balboa (l’nea 5 y 9).  Bus: 29/ 52.  Bicimad: Estaciones 144 (calle Juan Bravo/ 50) y 143 (calle Diego de Le—n/ 52).  Aparcamiento: D’az Porlier (60) calle Diego de Le—n/ 64.;;3;http://www.madrid.es/sites/v/index.jsp?vgnextchannel=bfa48ab43d6bb410VgnVCM100000171f5a0aRCRD&vgnextoid=91714b6faa61c010VgnVCM1000000b205a0aRCRD;JUAN BRAVO;CALLE;V;39;MADRID;MADRID;28006;5;Lista;https://wikidata.org/entity/Q4779;4;Salamanca;https://wikidata.org/entity/Q1773521;442513;4476005;40.426;-3.682;910 687 777 / 910 687 999;;Hospitales Clinicas Sanatorios
11174884;Fundaci—n Vianorte-Laguna;;;Metro: Laguna (l’nea 6).  Bus: 55.  Cercan’as Renfe: Laguna (l’nea C5).;;3;http://www.madrid.es/sites/v/index.jsp?vgnextchannel=bfa48ab43d6bb410VgnVCM100000171f5a0aRCRD&vgnextoid=eb7f5be190212710VgnVCM1000001d4a900aRCRD;CONCEJAL FRANCISCO JOSE JIMENEZ MARTIN;CALLE;V;128;MADRID;MADRID;28047;3;Lucero;https://wikidata.org/entity/Q31162;10;Latina;https://wikidata.org/entity/Q794954;436609;4472480;40.465;-3.693;915 099 137;informa@lagunacuida.org;Hospitales Clinicas Sanatorios
9133;Hospital Beata Mar’a Ana de Hermanas Hospitalarias;;;Metro: Sainz de Baranda (l’nea 6 y 9)/ O'Donnell (l’nea 6).  Bus: 143/ 156/ 2/ 30/ 56/ 15/ 215.  Bicimad: Estaciones 63 (calle Ibiza/ 62)/ 72 (calle Doctor Esquerdo/ 99).;;3;http://www.madrid.es/sites/v/index.jsp?vgnextchannel=bfa48ab43d6bb410VgnVCM100000171f5a0aRCRD&vgnextoid=56211c7a2c61c010VgnVCM1000000b205a0aRCRD;DOCTOR ESQUERDO;CALLE;V;83;MADRID;MADRID;28007;3;Estrella;https://wikidata.org/entity/Q3773738;3;Retiro;https://wikidata.org/entity/Q2002296;443243;4474375;40.425;-3.626;914 097 423;;Hospitales Clinicas Sanatorios
12025292;Hospital Cantoblanco;;;Renfe Cercan’as: C4/ C4a/ C4b;;3;http://www.madrid.es/sites/v/index.jsp?vgnextchannel=bfa48ab43d6bb410VgnVCM100000171f5a0aRCRD&vgnextoid=bfbd707bf0c68810VgnVCM1000001d4a900aRCRD;COLMENAR VIEJO;CARRETERA;V;;MADRID;MADRID;28049;;El Goloso;https://wikidata.org/entity/Q10271137;;Fuencarral-El Pardo;https://wikidata.org/entity/Q656196;441197;4487855;40.377;-3.715;915 867 556 / 915 867 558;;Hospitales Clinicas Sanatorios
9127;Hospital Carlos III;;;Metro: Barrio del Pilar (l’nea 9)  Bus: 126/ 64 127/ 132;;3;http://www.madrid.es/sites/v/index.jsp?vgnextchannel=bfa48ab43d6bb410VgnVCM100000171f5a0aRCRD&vgnextoid=e8311c7a2c61c010VgnVCM1000000b205a0aRCRD;SINESIO DELGADO;CALLE;V;10;MADRID;MADRID;28029;5;La Paz;https://wikidata.org/entity/Q5869740;8;Fuencarral-El Pardo;https://wikidata.org/entity/Q656196;441011;4480715;40.407;-3.613;914 532 500;;Hospitales Clinicas Sanatorios
9131;Hospital Central de la Cruz Roja San JosŽ y Santa Adela;;;Metro: Guzm‡n el Bueno (l’neas 6/ 7)/ Cuatro Caminos (l’neas 1/ 2/ 6)  Bus: 127/ 45/ C2/ F/ C1/ 44;;3;http://www.madrid.es/sites/v/index.jsp?vgnextchannel=bfa48ab43d6bb410VgnVCM100000171f5a0aRCRD&vgnextoid=7b411c7a2c61c010VgnVCM1000000b205a0aRCRD;REINA VICTORIA;AVENIDA;V;22;MADRID;MADRID;28003;1;Bellas Vistas;https://wikidata.org/entity/Q11908929;6;Tetu‡n;https://wikidata.org/entity/Q1773540;440051;4477637;40.379;-3.622;914 538 300;;Hospitales Clinicas Sanatorios
9118;Hospital Central de la Defensa G—mez Ulla;;;Metro: Carabanchel (l’nea 5)  Bus: 17/ 35;;3;http://www.madrid.es/sites/v/index.jsp?vgnextchannel=bfa48ab43d6bb410VgnVCM100000171f5a0aRCRD&vgnextoid=0e511c7a2c61c010VgnVCM1000000b205a0aRCRD;EJERCITO;GLORIETA;V;1;MADRID;MADRID;28047;4;Aluche;https://wikidata.org/entity/Q31140;10;Latina;https://wikidata.org/entity/Q794954;436724;4471089;40.359;-3.692;914 222 000;hcdgomezulla@oc.mde.es;Hospitales Clinicas Sanatorios
9104;Hospital Cl’nico San Carlos;;;Metro: Moncloa (l’neas 3/ 6)/ Vicente Aleixandre (l’nea 6)/ Islas Filipinas (l’nea 7)  Bus: C2/ C1/ 12/ 44/ 82/ 132/ 1/ 62/ 138  Bicimad: Estaci—n 244 (Calle Isaac Peral/ 44);;3;http://www.madrid.es/sites/v/index.jsp?vgnextchannel=bfa48ab43d6bb410VgnVCM100000171f5a0aRCRD&vgnextoid=43811c7a2c61c010VgnVCM1000000b205a0aRCRD;PROFESOR MARTIN LAGOS;CALLE;V;2;MADRID;MADRID;28040;3;Ciudad Universitaria;https://wikidata.org/entity/Q3319235;9;Moncloa-Aravaca;https://wikidata.org/entity/Q2017682;439012;4476800;40.432;-3.677;913 303 000 / 913 303 001;buzgen.hcsc@salud.madrid.org;Hospitales Clinicas Sanatorios
11298560;Hospital de Emergencias Enfermera Isabel Zendal;;;Renfe Cercan’as: Valdebebas (l’nea C1)  Bus: SE709/ BR1;;3;http://www.madrid.es/sites/v/index.jsp?vgnextchannel=bfa48ab43d6bb410VgnVCM100000171f5a0aRCRD&vgnextoid=159467d7b2cd6710VgnVCM2000001f4a900aRCRD;MANUEL FRAGA IRIBARNE;AVENIDA;V;2;MADRID;MADRID;28055;4;Tim—n;https://wikidata.org/entity/Q10382570;21;Barajas;https://wikidata.org/entity/Q807230;448461;4481639;40.415;-3.747;917 996 300;;Hospitales Clinicas Sanatorios
9135;Hospital de la VOT de San Francisco de As’s;;;Metro: Puerta de Toledo (l’nea 5).  Bus: 148/ 3/ 60/ C1/  C2.  Bicimad: Estaciones 37 (plaza de San Francisco/ 5) y 45 (glorieta de la Puerta de Toledo/ 1)/ 38 (carrera de San Francisco/ 1).  Aparcamientos: Parking VOT (97)/ calle Ventosa/ La Latina (86)/ calle de Toledo/ Puerta Toledo (64)/ glorieta Puerta de Toledo con vuelta Capit‡n Salazar Mart’nez.;;3;http://www.madrid.es/sites/v/index.jsp?vgnextchannel=bfa48ab43d6bb410VgnVCM100000171f5a0aRCRD&vgnextoid=8dc11c7a2c61c010VgnVCM1000000b205a0aRCRD;SAN BERNABE;CALLE;V;13;MADRID;MADRID;28005;1;Palacio;https://wikidata.org/entity/Q2136510;1;Centro;https://wikidata.org/entity/Q1763376;439424;4473404;40.418;-3.668;910 791 516;info@hospitalvot.org;Hospitales Clinicas Sanatorios
10131886;Hospital Doctor Rodr’guez Lafora;;;Bus (interurbanos): 711/ 712/ 713/ 716/ 717/ 721/ 722/ 724/ 725/ 726 (todos ellos con salida en el intercambiador de Plaza de Castilla).;;3;http://www.madrid.es/sites/v/index.jsp?vgnextchannel=bfa48ab43d6bb410VgnVCM100000171f5a0aRCRD&vgnextoid=7efb00c34d907510VgnVCM2000001f4a900aRCRD;COLMENAR VIEJO;CARRETERA;V;;MADRID;MADRID;28049;;Valverde;https://wikidata.org/entity/Q31132;;Fuencarral-El Pardo;https://wikidata.org/entity/Q656196;441896;4481341;40.475;-3.695;915 867 500;;Hospitales Clinicas Sanatorios
9098;Hospital General Universitario Gregorio Mara–—n;;;Metro: O&amp/acute/Donnell (l’nea 6)  Bus: 143/ 156/ 2/ 30/ 56  Bicimad: Estaci—n 63 (calle Ibiza/ 62);;3;http://www.madrid.es/sites/v/index.jsp?vgnextchannel=bfa48ab43d6bb410VgnVCM100000171f5a0aRCRD&vgnextoid=7a221c7a2c61c010VgnVCM1000000b205a0aRCRD;DOCTOR ESQUERDO;CALLE;V;46;MADRID;MADRID;28007;4;Ibiza;https://wikidata.org/entity/Q15249910;3;Retiro;https://wikidata.org/entity/Q2002296;443211;4474518;40.447;-3.706;915 868 000;gcomunicacion.hgugm@salud.madrid.org;Hospitales Clinicas Sanatorios
7389333;Hospital Hestia Madrid;;;Cercanias C4B.;;3;http://www.madrid.es/sites/v/index.jsp?vgnextchannel=bfa48ab43d6bb410VgnVCM100000171f5a0aRCRD&vgnextoid=4dbba2ff906b4410VgnVCM2000000c205a0aRCRD;M-607;CARRETERA;T;1600;MADRID;MADRID;28049;8;El Goloso;https://wikidata.org/entity/Q10271137;8;Fuencarral-El Pardo;https://wikidata.org/entity/Q656196;440721;4487960;40.388;-3.745;917 340 500;;Hospitales Clinicas Sanatorios
9166;Hospital HLA Universitario Moncloa;;;Bus: 46/ 106/ 161/ A.;;3;http://www.madrid.es/sites/v/index.jsp?vgnextchannel=bfa48ab43d6bb410VgnVCM100000171f5a0aRCRD&vgnextoid=1dd04b6faa61c010VgnVCM1000000b205a0aRCRD;VALLADOLID;AVENIDA;V;83;MADRID;MADRID;28008;1;Casa de Campo;https://wikidata.org/entity/Q16302441;9;Moncloa-Aravaca;https://wikidata.org/entity/Q2017682;437763;4476097;40.439;-3.719;917 581 196 / 915 957 000;;Hospitales Clinicas Sanatorios
9151;Hospital HM Nuevo BelŽn;;;Metro: Arturo Soria (l’nea 4).  Bus: 120/ 122/ 11/ 70.;;3;http://www.madrid.es/sites/v/index.jsp?vgnextchannel=bfa48ab43d6bb410VgnVCM100000171f5a0aRCRD&vgnextoid=32014b6faa61c010VgnVCM1000000b205a0aRCRD;JOSE SILVA;CALLE;V;7;MADRID;MADRID;28043;6;San Juan Bautista;https://wikidata.org/entity/Q165609;15;Ciudad Lineal;https://wikidata.org/entity/Q1763694;444235;4478477;40.483;-3.608;917 444 100 / 800 088 050;atpaciente.hmb@hmhospitales.com;Hospitales Clinicas Sanatorios
9099;Hospital Infantil Universitario Ni–o Jesœs;;;Metro: Ibiza (l’nea 9)/ Sainz de Baranda (l’neas 6/ 9)  Bus: 20/ 26/ 63/ 152/ C2/ C1/ 61  Bicimad: Estaci—n 83 (calle P’o Baroja/ 10) / Estaci—n 70 (Avenida MenŽndez Pelayo/ 63);;3;http://www.madrid.es/sites/v/index.jsp?vgnextchannel=bfa48ab43d6bb410VgnVCM100000171f5a0aRCRD&vgnextoid=42621c7a2c61c010VgnVCM1000000b205a0aRCRD;MENENDEZ PELAYO;AVENIDA;V;65;MADRID;MADRID;28009;6;Ni–o Jesœs;https://wikidata.org/entity/Q3773746;3;Retiro;https://wikidata.org/entity/Q2002296;442563;4473913;40.409;-3.713;915 035 900 (centralita);;Hospitales Clinicas Sanatorios
9155;Hospital La Luz;;;Metro: Guzm‡n el Bueno (l’neas 6 y 7).  Bus: 2/ 44  Bicimad: Estaciones 203 (calle General Ampudia/ 2)/ 256 (calle Beatriz de Bobadilla/ 2).;;3;http://www.madrid.es/sites/v/index.jsp?vgnextchannel=bfa48ab43d6bb410VgnVCM100000171f5a0aRCRD&vgnextoid=d2904b6faa61c010VgnVCM1000000b205a0aRCRD;MAESTRO ANGEL LLORCA;CALLE;V;8;MADRID;MADRID;28003;6;Vallehermoso;https://wikidata.org/entity/Q6122685;7;Chamber’;https://wikidata.org/entity/Q1763370;439450;4477295;40.531;-3.691;914 530 303;info.laluz@quironsalud.es;Hospitales Clinicas Sanatorios
9142;Hospital La Milagrosa;;;Metro: Alonso Cano (l’nea 7)/ Iglesia (l’nea 1)/ Gregorio Mara–—n (l’neas 7 y 10).  Bus: 12/ 5.  Bicimad:  Estaciones 129 (calle JosŽ Abascal/ 33) y 125 (calle Fern‡ndez de la Hoz/ 29).;;3;http://www.madrid.es/sites/v/index.jsp?vgnextchannel=bfa48ab43d6bb410VgnVCM100000171f5a0aRCRD&vgnextoid=65a04b6faa61c010VgnVCM1000000b205a0aRCRD;MODESTO LAFUENTE;CALLE;V;14;MADRID;MADRID;28010;4;Almagro;https://wikidata.org/entity/Q10954432;7;Chamber’;https://wikidata.org/entity/Q1763370;440946;4476497;40.419;-3.669;914 472 100;secretaria.lamilagrosa@vithas.es;Hospitales Clinicas Sanatorios
9145;Hospital Quir—nsalud San JosŽ;;;Metro: Cartagena (l’nea 7)/ Avenida de AmŽrica (l’neas 4/ 6/ 7 y 9).  Bus: 1/ 72.  Bicimad: Estaci—n 195 (calle Padre Indalecio Hern‡ndez/ 1).;;3;http://www.madrid.es/sites/v/index.jsp?vgnextchannel=bfa48ab43d6bb410VgnVCM100000171f5a0aRCRD&vgnextoid=49a14b6faa61c010VgnVCM1000000b205a0aRCRD;CARTAGENA;CALLE;V;111;MADRID;MADRID;28002;2;Prosperidad;https://wikidata.org/entity/Q4776;5;Chamart’n;https://wikidata.org/entity/Q1766348;442797;4476873;40.539;-3.701;910 687 000;;Hospitales Clinicas Sanatorios
9137;Hospital Ruber Internacional;;;Metro: Mirasierra (l’nea 9).  Bus: 134/ 49.;;3;http://www.madrid.es/sites/v/index.jsp?vgnextchannel=bfa48ab43d6bb410VgnVCM100000171f5a0aRCRD&vgnextoid=1fb21c7a2c61c010VgnVCM1000000b205a0aRCRD;LA MASO;CALLE;V;38;MADRID;MADRID;28034;7;Mirasierra;https://wikidata.org/entity/Q31134;8;Fuencarral-El Pardo;https://wikidata.org/entity/Q656196;439395;4482306;40.433;-3.733;913 875 000;;Hospitales Clinicas Sanatorios
9134;Hospital San Rafael;;;Metro: Concha Espina (l’nea 9).  Bus: 51/ 7/ 120/ 43.  Bicimad: Estaci—n 148 (calle Serrano/ 210).;;3;http://www.madrid.es/sites/v/index.jsp?vgnextchannel=bfa48ab43d6bb410VgnVCM100000171f5a0aRCRD&vgnextoid=a1d21c7a2c61c010VgnVCM1000000b205a0aRCRD;SERRANO;CALLE;V;199;MADRID;MADRID;28016;4;HispanoamŽrica;https://wikidata.org/entity/Q3814573;5;Chamart’n;https://wikidata.org/entity/Q1766348;442213;4478144;40.455;-3.657;915 649 943;hsrmadrid.secretaria@sjd.es;Hospitales Clinicas Sanatorios
9106;Hospital Universitario 12 de Octubre;;;Metro: Hospital 12 octubre (l’nea 3)  Bus: 81/ 121  Renfe: Doce de Octubre;;3;http://www.madrid.es/sites/v/index.jsp?vgnextchannel=bfa48ab43d6bb410VgnVCM100000171f5a0aRCRD&vgnextoid=1c031c7a2c61c010VgnVCM1000000b205a0aRCRD;CORDOBA;AVENIDA;V;41;MADRID;MADRID;28041;2;Orcasur;https://wikidata.org/entity/Q10341270;12;Usera;https://wikidata.org/entity/Q953368;440935;4469975;40.489;-3.666;913 908 000;;Hospitales Clinicas Sanatorios
9100;Hospital Universitario de  La Princesa;;;Metro: Diego de Le—n (l’neas 4/ 5/ 6)  Bus: 61/ 56/ 26/ 210/ 72/ 73/ 12/ C2/ C1  Bicimad: estaci—n 191 (calle Alonso Heredia/ 1)  Aparcamiento: D’az Porlier (60)/ calle Diego de Le—n/ 64 (Pr’ncipe de Vergara - Conde de Pe–alver);;3;http://www.madrid.es/sites/v/index.jsp?vgnextchannel=bfa48ab43d6bb410VgnVCM100000171f5a0aRCRD&vgnextoid=f3331c7a2c61c010VgnVCM1000000b205a0aRCRD;DIEGO DE LEON;CALLE;V;62;MADRID;MADRID;28006;5;Lista;https://wikidata.org/entity/Q4779;4;Salamanca;https://wikidata.org/entity/Q1773521;442687;4476195;40.413;-3.676;915 202 200;;Hospitales Clinicas Sanatorios
9130;Hospital Universitario Fundaci—n JimŽnez D’az;;;Metro: Islas Filipinas (l’nea 7) y Moncloa (l’neas 3/ 6)  Bus: 1/ C2/ C1/ 12/ 44/ 82/ 132/ 138/ 62  Bicimad: Estaci—n 244 (Calle Isaac Peral/ 44);;3;http://www.madrid.es/sites/v/index.jsp?vgnextchannel=bfa48ab43d6bb410VgnVCM100000171f5a0aRCRD&vgnextoid=c4114b6faa61c010VgnVCM1000000b205a0aRCRD;REYES CATOLICOS;AVENIDA;V;2;MADRID;MADRID;28040;3;Ciudad Universitaria;https://wikidata.org/entity/Q3319235;9;Moncloa-Aravaca;https://wikidata.org/entity/Q2017682;439030;4476683;40.444;-3.713;915 504 800;;Hospitales Clinicas Sanatorios
9136;Hospital Universitario HM Madrid;;;Metro: San Bernardo (l’neas 2/ 4)/ Quevedo (l’nea 2).  Bus: 16/ 61.  Bicimad: Estaciones 3 (Plaza del Conde del Valle de Suchil/ 3)/ 127 (calle Fernando el Cat—lico/ 19)/ 200 (glorieta de Quevedo/ 5).;;3;http://www.madrid.es/sites/v/index.jsp?vgnextchannel=bfa48ab43d6bb410VgnVCM100000171f5a0aRCRD&vgnextoid=10e11c7a2c61c010VgnVCM1000000b205a0aRCRD;CONDE DEL VALLE DE SUCHIL;PLAZA;V;16;MADRID;MADRID;28015;2;Arapiles;https://wikidata.org/entity/Q10856744;7;Chamber’;https://wikidata.org/entity/Q1763370;440048;4475872;40.437;-3.696;914 476 600 / 800 088 050;atpaciente.hm@hmhospitales.com;Hospitales Clinicas Sanatorios
4820572;Hospital Universitario Infanta Leonor;;;Metro: Sierra de Guadalupe (l’nea 1)    Bus: H1/ 58/ 145/ E/ 130  Cercan’as: Vallecas (C1/ C2/ C7);;3;http://www.madrid.es/sites/v/index.jsp?vgnextchannel=bfa48ab43d6bb410VgnVCM100000171f5a0aRCRD&vgnextoid=f56815a5c9478110VgnVCM1000000b205a0aRCRD;GRAN VIA DEL ESTE;AVENIDA;V;80;MADRID;MADRID;28031;2;Santa Eugenia;https://wikidata.org/entity/Q390463;18;Villa de Vallecas;https://wikidata.org/entity/Q1947988;447495;4470713;40.442;-3.674;911 918 000;;Hospitales Clinicas Sanatorios
9105;Hospital Universitario la Paz;;;Metro: Bego–a (l’nea 10)  Bus: 173/ 175/ 176/ 178/ 124/ 134/ 135/ 67/ 174;;3;http://www.madrid.es/sites/v/index.jsp?vgnextchannel=bfa48ab43d6bb410VgnVCM100000171f5a0aRCRD&vgnextoid=61231c7a2c61c010VgnVCM1000000b205a0aRCRD;CASTELLANA;PASEO;V;261;MADRID;MADRID;28046;5;La Paz;https://wikidata.org/entity/Q5869740;8;Fuencarral-El Pardo;https://wikidata.org/entity/Q656196;441867;4481322;40.489;-3.715;917 277 000;;Hospitales Clinicas Sanatorios
9163;Hospital Universitario La Zarzuela;;;Bus: 161/ 160.;;3;http://www.madrid.es/sites/v/index.jsp?vgnextchannel=bfa48ab43d6bb410VgnVCM100000171f5a0aRCRD&vgnextoid=67821c7a2c61c010VgnVCM1000000b205a0aRCRD;PLEYADES;CALLE;V;25;MADRID;MADRID;28023;7;Aravaca;https://wikidata.org/entity/Q3314682;9;Moncloa-Aravaca;https://wikidata.org/entity/Q2017682;433525;4479376;40.451;-3.681;9158 58 000;;Hospitales Clinicas Sanatorios
9140;Hospital Universitario Nuestra Se–ora del Rosario;;;Metro: Nœ–ez de Balboa (l’nea 5 y 9)/ Lista (l’nea 4)/ Diego de Le—n (l’neas 4/ 5 y 6).  Bus: 29/ 52.  Bicimad: Estaciones 143 (calle Diego de Le—n/ 52) y 109 (calle JosŽ Ortega y Gasset/ 30).  Aparcamiento: MarquŽs de Salamanca (25)/ plaza MarquŽs de Salamanca.;;3;http://www.madrid.es/sites/v/index.jsp?vgnextchannel=bfa48ab43d6bb410VgnVCM100000171f5a0aRCRD&vgnextoid=91e9224e0d61c010VgnVCM1000000b205a0aRCRD;PRINCIPE DE VERGARA;CALLE;V;53;MADRID;MADRID;28006;6;Castellana;https://wikidata.org/entity/Q4781;4;Salamanca;https://wikidata.org/entity/Q1773521;442341;4475932;40.378;-3.695;914 359 100;info@hospitalrosario.com;Hospitales Clinicas Sanatorios
9102;Hospital Universitario Ram—n y Cajal;;;Metro: Bego–a (l’nea 10)  Bus: 125/ 135/ 165/ 166  Cercan’as Renfe: Ram—n y Cajal (l’neas C3/ C7/ C8/ Regional);;3;http://www.madrid.es/sites/v/index.jsp?vgnextchannel=bfa48ab43d6bb410VgnVCM100000171f5a0aRCRD&vgnextoid=8ca21c7a2c61c010VgnVCM1000000b205a0aRCRD;SAN MODESTO;CALLE;V;50;MADRID;MADRID;28034;6;Valverde;https://wikidata.org/entity/Q31132;8;Fuencarral-El Pardo;https://wikidata.org/entity/Q656196;441183;4482120;40.434;-3.675;913 368 000;;Hospitales Clinicas Sanatorios
9144;Hospital Universitario San Francisco de As’s;;;Metro: Repœblica Argentina (l’nea 6).  Bus: C1/ C2/ 16/ 19/ 51.;;3;http://www.madrid.es/sites/v/index.jsp?vgnextchannel=bfa48ab43d6bb410VgnVCM100000171f5a0aRCRD&vgnextoid=b60a224e0d61c010VgnVCM1000000b205a0aRCRD;JOAQUIN COSTA;CALLE;V;28;MADRID;MADRID;28002;1;El Viso;https://wikidata.org/entity/Q4778;5;Chamart’n;https://wikidata.org/entity/Q1766348;442071;4477098;40.438;-3.718;915 617 100;hsfda@hsfda.com;Hospitales Clinicas Sanatorios
176770;Hospital Universitario Sanitas La Moraleja;;;Metro: Blasco Ib‡–ez (ML1).  Bus: 173.;;3;http://www.madrid.es/sites/v/index.jsp?vgnextchannel=bfa48ab43d6bb410VgnVCM100000171f5a0aRCRD&vgnextoid=34e21c7a2c61c010VgnVCM1000000b205a0aRCRD;FRANCISCO PI Y MARGALL;AVENIDA;V;81;MADRID;MADRID;28050;6;Valdefuentes;https://wikidata.org/entity/Q10388714;16;Hortaleza;https://wikidata.org/entity/Q1928529;443860;4482607;40.431;-3.706;917 679 100;;Hospitales Clinicas Sanatorios
9110;Hospital Universitario Santa Cristina;Fue inaugurado en 1926 por el Rey Alfonso XIII y la Reina Victoria Eugenia. Fruto de la arquitectura civil de principios del siglo XX el edificio fue declarado monumento art’stico de interŽs cultural por el gobierno de la naci—n. (Real Decreto 984/1999 de 4 de junio).;;Metro: O&amp/acute/Donnell (l’nea 6)  Bus: 28/ 203/ E2/ E3/ 143/ 156/ 2/ 30/ 56/ 71/ E4  Bicimad: Estaci—n 62 (calle O'Donnell/ 50);;3;http://www.madrid.es/sites/v/index.jsp?vgnextchannel=bfa48ab43d6bb410VgnVCM100000171f5a0aRCRD&vgnextoid=19531c7a2c61c010VgnVCM1000000b205a0aRCRD;MAESTRO VIVES;CALLE;V;3;MADRID;MADRID;28009;2;Goya;https://wikidata.org/entity/Q3814578;4;Salamanca;https://wikidata.org/entity/Q1773521;443072;4474794;40.385;-3.618;91 5 574 300;;Hospitales Clinicas Sanatorios
9156;Hospital Viamed Fuensanta;;;Metro: Ciudad Lineal (l’nea 5).  Bus: 70/ 146/ 48.;;3;http://www.madrid.es/sites/v/index.jsp?vgnextchannel=bfa48ab43d6bb410VgnVCM100000171f5a0aRCRD&vgnextoid=bd604b6faa61c010VgnVCM1000000b205a0aRCRD;ARTURO SORIA;CALLE;V;17;MADRID;MADRID;28027;3;Quintana;https://wikidata.org/entity/Q71810;15;Ciudad Lineal;https://wikidata.org/entity/Q1763694;445723;4476812;40.482;-3.685;900 907 950;;Hospitales Clinicas Sanatorios
9152;Hospital Viamed Santa Elena;;;Metro: Vicente Aleixandre (l’nea 6)/ Guzm‡n el Bueno (l’neas 6 y 7).  Bus: C1/ 132/ C2/ F.;;3;http://www.madrid.es/sites/v/index.jsp?vgnextchannel=bfa48ab43d6bb410VgnVCM100000171f5a0aRCRD&vgnextoid=6ec14b6faa61c010VgnVCM1000000b205a0aRCRD;GRANJA;CALLE;V;8;MADRID;MADRID;28003;6;Vallehermoso;https://wikidata.org/entity/Q6122685;7;Chamber’;https://wikidata.org/entity/Q1763370;439187;4477477;40.462;-3.784;914 539 400;;Hospitales Clinicas Sanatorios
9141;Hospital Virgen de La Paloma;;;Metro: Guzm‡n el Bueno (l’nea 6 y 7)/ Vicente Aleixandre (l’nea 6).  Bus: 45/ 2/ C1/ F.  Bicimad: Estaci—n 256 (calle Beatriz de Bobadilla/ 2).;;3;http://www.madrid.es/sites/v/index.jsp?vgnextchannel=bfa48ab43d6bb410VgnVCM100000171f5a0aRCRD&vgnextoid=53a31c7a2c61c010VgnVCM1000000b205a0aRCRD;LOMA;CALLE;V;1;MADRID;MADRID;28003;6;Vallehermoso;https://wikidata.org/entity/Q6122685;7;Chamber’;https://wikidata.org/entity/Q1763370;439282;4477434;40.432;-3.679;915 348 207;;Hospitales Clinicas Sanatorios
9103;Hospital Virgen de La Torre;;;Metro: Villa de Vallecas (l’nea 1)  Bus: 54/ 58/ 103/ 142;;3;http://www.madrid.es/sites/v/index.jsp?vgnextchannel=bfa48ab43d6bb410VgnVCM100000171f5a0aRCRD&vgnextoid=78c31c7a2c61c010VgnVCM1000000b205a0aRCRD;PUERTO DE LUMBRERAS;CALLE;V;5;MADRID;MADRID;28031;1;Casco Hist—rico de Vallecas;https://wikidata.org/entity/Q16544370;18;Villa de Vallecas;https://wikidata.org/entity/Q1947988;447448;4470245;40.487;-3.693;911 918 000;;Hospitales Clinicas Sanatorios
9143;Hospital Virgen del Mar;;;Metro: Colombia (l’neas 8 y 9).  Bus: 11/ 40/ 16/ 29/ 51/ 150.  Bicimad: Estaci—n 254 (avenida P’o XII/ 3).  Aparcamiento: Repœblica Dominicana (61)/ plaza Repœblica Dominicana/ calle Costa Rica y calle Alberto Alcocer.;;3;http://www.madrid.es/sites/v/index.jsp?vgnextchannel=bfa48ab43d6bb410VgnVCM100000171f5a0aRCRD&vgnextoid=24f9224e0d61c010VgnVCM1000000b205a0aRCRD;HONDURAS;CALLE;V;14;MADRID;MADRID;28016;5;Nueva Espa–a;https://wikidata.org/entity/Q10338128;5;Chamart’n;https://wikidata.org/entity/Q1766348;442468;4478986;40.442;-3.683;913 539 500;;Hospitales Clinicas Sanatorios
4897073;Hospital Vithas Madrid Aravaca;;;Bus: 161.;;3;http://www.madrid.es/sites/v/index.jsp?vgnextchannel=bfa48ab43d6bb410VgnVCM100000171f5a0aRCRD&vgnextoid=54747d4d00089110VgnVCM2000000c205a0aRCRD;LA SALLE;CALLE;V;12;MADRID;MADRID;28023;5;Valdemar’n;https://wikidata.org/entity/Q10388725;9;Moncloa-Aravaca;https://wikidata.org/entity/Q2017682;433581;4479812;40.492;-3.662;915 129 000;;Hospitales Clinicas Sanatorios
8924;Instituto Provincial de Oftalmolog’a;;;Metro: RubŽn Dar’o (l’nea 5).  Bus: 7/ 147/ 40.  Bicimad: Estaciones 198 (paseo de la Castellana/ 33)/ 122 (calle Santa Engracia/ 14).  Aparcamiento: Almagro (12) calle Almagro/ 11.;;3;http://www.madrid.es/sites/v/index.jsp?vgnextchannel=bfa48ab43d6bb410VgnVCM100000171f5a0aRCRD&vgnextoid=f8151c7a2c61c010VgnVCM1000000b205a0aRCRD;GENERAL ARRANDO;CALLE;V;17;MADRID;MADRID;28010;4;Almagro;https://wikidata.org/entity/Q10954432;7;Chamber’;https://wikidata.org/entity/Q1763370;441216;4475919;40.421;-3.671;915 867 307 (Informaci—n) / 915 867 339 (Atenci—n al paciente);;Centros Especialidades Medicas
8923;Instituto Provincial de Rehabilitaci—n;;;Metro: Diego de Le—n (l’neas 4/ 5 y 6).  Bus: 43/ 48/ 12/ 210/ 56/ C2/ C1/ 26/ 61/ 1/ 74.  Bicimad: Estaciones 191 (calle Alonso Heredia/ 1)/ 192 (avenida  de los Toreros/ 3).  Aparcamiento: D’az Porlier (60) calle Diego de Le—n/ 64.;;3;http://www.madrid.es/sites/v/index.jsp?vgnextchannel=bfa48ab43d6bb410VgnVCM100000171f5a0aRCRD&vgnextoid=8b251c7a2c61c010VgnVCM1000000b205a0aRCRD;FRANCISCO SILVELA;CALLE;V;40;MADRID;MADRID;28028;4;La Guindalera;https://wikidata.org/entity/Q3814559;4;Salamanca;https://wikidata.org/entity/Q1773521;442940;4476047;40.445;-3.639;Centralita: 915 868 000 / Atenci—n al paciente: 915 868 556 y 915 868 557;;Centros Especialidades Medicas
25900;Laboratorio de An‡lisis Cl’nicos;;Secretar’a: de lunes a viernes de 8 a 14 horas Extracciones sanguineas: lunes/ martes y miercoles de 8:30 a 10:30 horas sin cita previa;Metro: L2 y L6 (Manuel Becerra)/ L4 (Lista)Bus: 1 / 2 / 12 / 21 / 43 / 48 / 53 / 56 / 74 / 146 / 210 / L’nea C Bicicletas:  Servicio Bicimad/ para consultar la estaci—n m‡s cercana/ acceda al mapa de geolocalizaci—n de las estaciones.;;1;http://www.madrid.es/sites/v/index.jsp?vgnextchannel=bfa48ab43d6bb410VgnVCM100000171f5a0aRCRD&vgnextoid=74ed92355c51c010VgnVCM2000000c205a0aRCRD;MONTESA;CALLE;NUM;22;MADRID;MADRID;28006;5;Lista;https://wikidata.org/entity/Q4779;4;Salamanca;https://wikidata.org/entity/Q1773521;443095;4475795;40.445;-3.717;914 803 549/ 914 803 550;mspanalisis@madrid.es;Centros Especialidades Medicas
10168171;MD Anderson Cancer Center Madrid;;;Bus: 107/ 29/ 7.;;3;http://www.madrid.es/sites/v/index.jsp?vgnextchannel=bfa48ab43d6bb410VgnVCM100000171f5a0aRCRD&vgnextoid=b34c7f53ae1e7510VgnVCM2000001f4a900aRCRD;ARTURO SORIA;CALLE;V;270;MADRID;MADRID;28033;9;Costillares;https://wikidata.org/entity/Q331385;15;Ciudad Lineal;https://wikidata.org/entity/Q1763694;443487;4480155;40.445;-3.715;912 777 220;info@mdanderson.es;Hospitales Clinicas Sanatorios
9175;Organizaci—n Nacional de Trasplantes;;;Metro: Bego–a (l’nea 10)/  Chamart’n (l’nea 1/ 10)  Bus: 147/ 42  Renfe: Chamartin;;3;http://www.madrid.es/sites/v/index.jsp?vgnextchannel=bfa48ab43d6bb410VgnVCM100000171f5a0aRCRD&vgnextoid=d2071c7a2c61c010VgnVCM1000000b205a0aRCRD;SINESIO DELGADO;CALLE;V;6;MADRID;MADRID;28029;4;Almenara;https://wikidata.org/entity/Q2265427;6;Tetu‡n;https://wikidata.org/entity/Q1773540;441690;4480603;40.381;-3.619;917 278 699;ont@sanidad.gob.es;Otros Centros Medicos
9147;Sanatorio Esquerdo;;;Metro: Aluche (l’nea 5).  Bus: 121/ 131/ 139.   Cercan’as Renfe: Aluche (l’nea C5).;;3;http://www.madrid.es/sites/v/index.jsp?vgnextchannel=bfa48ab43d6bb410VgnVCM100000171f5a0aRCRD&vgnextoid=7cb9224e0d61c010VgnVCM1000000b205a0aRCRD;POBLADOS;AVENIDA;V;70;MADRID;MADRID;28044;7;Las çguilas;https://wikidata.org/entity/Q5971372;10;Latina;https://wikidata.org/entity/Q794954;435667;4470423;40.459;-3.678;917 061 100;;Hospitales Clinicas Sanatorios
8835;Servicio de Inmunoprofilaxis de la Rabia Humana;;De lunes a viernes de 8:30 a 14:00 horas;Metro: Manuel BecerraBus: 1 / 2 / 12 / 21 / 43 / 48 / 53 / 56 / 74 / 146 / 210 / C;;1;http://www.madrid.es/sites/v/index.jsp?vgnextchannel=bfa48ab43d6bb410VgnVCM100000171f5a0aRCRD&vgnextoid=706f34c0e2c5f010VgnVCM2000000c205a0aRCRD;MONTESA;CALLE;V;22;MADRID;MADRID;28006;5;Lista;https://wikidata.org/entity/Q4779;4;Salamanca;https://wikidata.org/entity/Q1773521;442986;4475588;40.466;-3.783;914 801 360;msconsultadelviajero@madrid.es;Centros Prevencion Enfermedades
7318822;Unidad de Salud Mental de ni–os y adolescentes Fuencarral;;Consultar telef—nicamente.;Metro: Antonio Machado (l’nea 7).  Bus: 42/ 127/ 132.;;3;http://www.madrid.es/sites/v/index.jsp?vgnextchannel=bfa48ab43d6bb410VgnVCM100000171f5a0aRCRD&vgnextoid=2cef244e96704410VgnVCM2000000c205a0aRCRD;CANDIDO MATEOS;CALLE;V;11;MADRID;MADRID;28035;3;Pe–agrande;https://wikidata.org/entity/Q3319582;8;Fuencarral-El Pardo;https://wikidata.org/entity/Q656196;439135;4480478;40.431;-3.693;913 733 597 / 913 733 977;;Centros Salud Mental
4795428;Unidad m—vil Madro–o;;De lunes a viernes de 11:30 a 14 horas S‡bado/ domingo y festivo de 12:30 a 14 horas;;;1;http://www.madrid.es/sites/v/index.jsp?vgnextchannel=bfa48ab43d6bb410VgnVCM100000171f5a0aRCRD&vgnextoid=d360361d139f7110VgnVCM1000000b205a0aRCRD;REY;PASEO;V;36;MADRID;MADRID;28008;2;ArgŸelles;https://wikidata.org/entity/Q64874;9;Moncloa-Aravaca;https://wikidata.org/entity/Q2017682;439092;4474684;40.433;-3.672;916 433 652;;Centros Asistencia Drogodependientes
9154;Vithas Madrid Arturo Soria;;;Metro: Arturo Soria (l’nea 4).  Bus: 11/ 70/ 122/ 114.;;3;http://www.madrid.es/sites/v/index.jsp?vgnextchannel=bfa48ab43d6bb410VgnVCM100000171f5a0aRCRD&vgnextoid=afe04b6faa61c010VgnVCM1000000b205a0aRCRD;ARTURO SORIA;CALLE;V;103;MADRID;MADRID;28043;6;San Juan Bautista;https://wikidata.org/entity/Q165609;15;Ciudad Lineal;https://wikidata.org/entity/Q1763694;444735;4477885;40.428;-3.672;912 143 100;infomadrid@vithas.es;Hospitales Clinicas Sanatorios
