PK;NOMBRE;DESCRIPCION-ENTIDAD;HORARIO;EQUIPAMIENTO;TRANSPORTE;DESCRIPCION;ACCESIBILIDAD;CONTENT-URL;NOMBRE-VIA;CLASE-VIAL;TIPO-NUM;NUM;PLANTA;PUERTA;ESCALERAS;ORIENTACION;LOCALIDAD;PROVINCIA;CODIGO-POSTAL;COD-BARRIO;BARRIO;COD-DISTRITO;DISTRITO;COORDENADA-X;COORDENADA-Y;LATITUD;LONGITUD;TELEFONO;FAX;EMAIL;TIPO;
11576332;"Aula de estudio de Manoteras. Sala de estudio (Hortaleza)";"";"De lunes a domingo, de 9 a 14 y de 15 a 21 horas.";"Aforo: 60 plazas Acceso a ordenadores Wifi";"Metro: Manoteras (línea 4)  Bus: 129, 29, 7";"";"1";"http://www.madrid.es/sites/v/index.jsp?vgnextchannel=bfa48ab43d6bb410VgnVCM100000171f5a0aRCRD&vgnextoid=27ada5bf3137e710VgnVCM1000001d4a900aRCRD";"CUEVAS DEL ALMANZORA";"CALLE";"V";"187";"";"";"";"";"MADRID";"MADRID";"28033";"5";"APOSTOL SANTIAGO";"16";"HORTALEZA";"444197";"4480995";"40.477775164880356";"-3.6583397911756297";"626 470 381";"";"";"/contenido/entidadesYorganismos/SalasEstudioLectura"; 
11848432;"Centro Cultural Emilia Pardo Bazán (Salamanca)";"";"De lunes a viernes, de 9 a 21 horas, ininterrumpidamente. A partir de octubre, sábados y domingos, de 9 a 21 horas, ininterrrumpidamente. Festivos cerrado.";"Espacio para exposiciones. Sala de trabajo (57 plazas). Horario:    De Lunes a Viernes, de 9 a 21:00 horas     Sábados, domingos y festivos, cerrado  Ludoteca infantil (capacidad 27 personas). Horario:    De lunes a viernes, de 9 a 21:00 horas        Sábados, domingos y festivos, cerrado  Sala de conferencias/auditorio (capacidad 77 personas) Sala polivalente (capacidad 30 personas)";"Metro: Colón (línea 4), Serrano (línea 4)   Bus:  21, 53, 14, 150, 27, 45, 5, 37, C03, 119, 51, 74, 9  Bicimad: Estación 93 (calle Goya 1)  Aparcamiento: Colón (2), Plaza de Colón";"";"1";"http://www.madrid.es/sites/v/index.jsp?vgnextchannel=bfa48ab43d6bb410VgnVCM100000171f5a0aRCRD&vgnextoid=dc8d531521b74810VgnVCM1000001d4a900aRCRD";"GOYA";"CALLE";"V";"1";"";"";"";"A (también acceso Bulevar a la altura de Paseo Castellana, 1)";"MADRID";"MADRID";"28001";"1";"RECOLETOS";"4";"SALAMANCA";"441502";"4475253";"40.42585800515975";"-3.689601594290468";"913 052 081";"";"ccemiliapardobazan@madrid.es";"/contenido/entidadesYorganismos/SalasEstudioLectura"; 
1958;"Centro Cultural San Juan Bautista (Ciudad Lineal)";"";"Lunes a sábado, de 9 a 22 horas. Julio, de lunes a viernes, de 9 a 14 horas. Septiembre, de lunes a viernes, de 9 a 22 horas.";"Sala de exposiciones Sala de lectura y estudio (según disponibilidad aulas) Salón de actos / auditorio (aforo 276) 8 Aulas Zona wifi   Sala de lectura y estudio: Durante el mes de julio, de 10 a 14 horas.";"Metro: Avenida de la Paz (línea 4)  Bus: 53, 11, 70, 122";"";"1";"http://www.madrid.es/sites/v/index.jsp?vgnextchannel=bfa48ab43d6bb410VgnVCM100000171f5a0aRCRD&vgnextoid=618b1e79ee71c010VgnVCM1000000b205a0aRCRD";"SAN NEMESIO";"CALLE";"V";"4";"";"";"";"";"MADRID";"MADRID";"28043";"6";"SAN JUAN BAUTISTA";"15";"CIUDAD LINEAL";"444202";"4478162";"40.45224737965276";"-3.6580402287911937";"914 157 705";"";"ccsanjuanbautista@madrid.es";"/contenido/entidadesYorganismos/SalasEstudioLectura"; 
11575320;"Espacio Cultural Núñez de Balboa, 40 (Salamanca)";"";"Horario de atención al público:  De lunes a viernes de 7:45 a 20:45 horas. Sábados de 9:30 a 14 horas y de 16 a 20:45 horas. Domingos de 9:30 a 20:45 horas.  Julio, agosto y septiembre:  De lunes a viernes: horario de apertura al publico 7:45 a 20:45 horas. Sábados y domingos cerrado.  Fuera de este horario el centro permanecerá abierto durante la celebración de las actividades que se programen.";"4 aulas polivalentes. Salas de estudio (30, 9 y 12 plazas). Servicio Bibliored (consultar información relacionada).";"Metro: Velázquez (línea 4), Serrano (línea 4)  Bus: 1, 9, 19, 21, 51, 53, 74  Bicimad: Estación 87 (calle Ayala, 44)";"";"1";"http://www.madrid.es/sites/v/index.jsp?vgnextchannel=bfa48ab43d6bb410VgnVCM100000171f5a0aRCRD&vgnextoid=aab225880cd6e710VgnVCM2000001f4a900aRCRD";"NUÑEZ DE BALBOA";"CALLE";"V";"40";"";"";"";"";"MADRID";"MADRID";"28001";"1";"RECOLETOS";"4";"SALAMANCA";"442103";"4475356";"40.426826159507435";"-3.6825349481985135";"913 982 399";"";"ccemiliapardobazan@madrid.es";"/contenido/entidadesYorganismos/SalasEstudioLectura"; 
12004930;"Sala de Estudio Dolores Catarineu  (Moncloa-Aravaca)";"";"De lunes a domingo, de 9 a 21 horas. (consultad horario especial en días festivos).";"Aforo: 32 personas.";"Bus: 160, 161.";"Zona wifi.";"1";"http://www.madrid.es/sites/v/index.jsp?vgnextchannel=bfa48ab43d6bb410VgnVCM100000171f5a0aRCRD&vgnextoid=fbff57ae976e7810VgnVCM2000001f4a900aRCRD";"CAROLI";"CALLE";"V";"1";"";"";"";"";"MADRID";"MADRID";"28023";"7";"ARAVACA";"9";"MONCLOA-ARAVACA";"433467";"4478971";"40.45874611322162";"-3.7847137684669288";"917 401 596";"";"ccjgenoves@madrid.es";"/contenido/entidadesYorganismos/SalasEstudioLectura"; 
8637537;"Sala de Estudio del Centro Sociocultural Clara Campoamor (Retiro)";"";"Lunes a viernes de 9 a 21 horas. Sábados, domingos y festivos de 10 a 21 horas.";"Sala Dulce Chacón (1&amp;ordf; planta): 20 puestos (Esta sala no podrá usarse como sala de estudio cuando esté ocupada por cesiones/actividades socioculturales)     Sala de estudio Gloria Fuertes (2&amp;ordf; planta): 24 puestos .  Sala Las Sinsombrero (2&amp;ordf; y 3&amp;ordf; planta): 24 puestos (Esta sala no podrá usarse como sala de estudio cuando esté ocupada por cesiones/actividades socioculturales). Zona wifi";"Metro: Pacífico (línea 1 y 6)  Bus: 24, 37, 54, 57, 141  Bicimad: Estación 178 (calle León Gil de Palacio, 3)  Aparcamiento: Daoíz y Velarde (23), avenida Ciudad de Barcelona ( calle Alberche y calle Téllez)";"Acceso por plaza de Daoíz y Velarde.";"1,4,5";"http://www.madrid.es/sites/v/index.jsp?vgnextchannel=bfa48ab43d6bb410VgnVCM100000171f5a0aRCRD&vgnextoid=ad345442c6452510VgnVCM2000000c205a0aRCRD";"DAOIZ Y VELARDE";"PLAZA";"V";"2";"";"";"";"";"MADRID";"MADRID";"28007";"1";"PACIFICO";"3";"RETIRO";"442527";"4472618";"40.402190438836826";"-3.6772826298329093";"915 886 348";"";"culturetiro@madrid.es";"/contenido/entidadesYorganismos/SalasEstudioLectura"; 
4813751;"Sala de estudio Alfonso XII (Fuencarral - El Pardo)";"El foro de la sala es de 18 puestos,  El acceso a los puestos se hará por riguroso orden de llegada. Transcurrido 30 minutos desde el abandono del puesto, de estudio, éste podrá ser ocupado por otra persona. Es recomendable el uso de la mascarilla. Mantener la distancia de seguridad. Está prohibido comer, cambiarse de puesto o mover el mobiliario de la sala. Mantener la ventilación de la sala. Guardar silencio. Atender las indicaciones del personal del Centro Cultural. El incumplimiento de estas normas podrá suponer la denegación de la utilización de la sala.";"De lunes a viernes de 8:30 a 21 horas  Sábados y domingos de 9:30 a 20 horas";"";"";"";"1";"http://www.madrid.es/sites/v/index.jsp?vgnextchannel=bfa48ab43d6bb410VgnVCM100000171f5a0aRCRD&vgnextoid=2e7a8917a2058110VgnVCM2000000c205a0aRCRD";"MIRA EL RIO";"CALLE";"V";"4";"";"";"";"";"MADRID";"MADRID";"28048";"1";"EL PARDO";"8";"FUENCARRAL-EL PARDO";"434105";"4485730";"40.519673311658686";"-3.7779055687726535";"913 762 060";"";"";"/contenido/entidadesYorganismos/SalasEstudioLectura"; 
4813737;"Sala de estudio Alfredo Kraus (Fuencarral - El Pardo)";"El acceso a los puestos se hará por riguroso orden de llegada. Transcurrido 30 minutos desde el abandono del puesto, de estudio, éste podrá ser ocupado por otra persona. Es recomendable el uso de la mascarilla. Mantener la distancia de seguridad. Está prohibido comer, cambiarse de puesto o mover el mobiliario de la sala. Mantener la ventilación de la sala. Guardar silencio. Atender las indicaciones del personal del Centro Cultural. El incumplimiento de estas normas podrá suponer la denegación de la utilización de la sala.";"De lunes a viernes de 9:30 a 14 y de 16 a 21 horas      Sábados de 9:30 a 13:45 y de 16 a 20:45 h.";"";"";"";"1";"http://www.madrid.es/sites/v/index.jsp?vgnextchannel=bfa48ab43d6bb410VgnVCM100000171f5a0aRCRD&vgnextoid=2ec62928b1058110VgnVCM2000000c205a0aRCRD";"PRADERA DE VAQUERIZAS";"GLORIETA";"V";"9";"";"";"";"";"MADRID";"MADRID";"28035";"7";"MIRASIERRA";"8";"FUENCARRAL-EL PARDO";"438848";"4482487";"40.49082275610172";"-3.7216054330053647";"913 767 085 (Centro Cultural)";"";"";"/contenido/entidadesYorganismos/SalasEstudioLectura"; 
8041076;"Sala de estudio Almirante Churruca (Latina)";"";"En horario de funcionamiento del centro:  Lunes a Viernes de 9 a 21:30 horas. Sábados de 9 a 13:30 horas.";"Puestos de lectura: 120.  WIFI.";"Metro de Madrid. Línea 10. Estación: Aviación Española. Autobuses de la EMT. Líneas: 17 y 34. Cercanías RENFE. Línea C 5. Estación: Las Águilas.";"";"1";"http://www.madrid.es/sites/v/index.jsp?vgnextchannel=bfa48ab43d6bb410VgnVCM100000171f5a0aRCRD&vgnextoid=3ab67c6cd874d410VgnVCM1000000b205a0aRCRD";"FUENTE DEL TIRO";"CALLE";"V";"72";"1.ª";"";"";"";"MADRID";"MADRID";"28024";"7";"LAS AGUILAS";"10";"LATINA";"433786";"4470559";"40.382992678408066";"-3.7800773802118117";"915 090 581 / 917 053 794";"";"";"/contenido/entidadesYorganismos/SalasEstudioLectura"; 
4815112;"Sala de estudio Carril del Conde (Hortaleza)";"";"Horario habitual: De lunes a domingos y festivos, de 9 a 22 horas.";"Puestos de lectura: 210 plazas. Wifi.";"Metro: Arturo Soria (línea 4)  Bus: 9, 72, 73";"";"1";"http://www.madrid.es/sites/v/index.jsp?vgnextchannel=bfa48ab43d6bb410VgnVCM100000171f5a0aRCRD&vgnextoid=cdc10e4d44558110VgnVCM1000000b205a0aRCRD";"CARRIL DEL CONDE";"CALLE";"V";"57";"";"";"";"ubicada en el Centro Cultural Carril del Conde";"MADRID";"MADRID";"28043";"3";"CANILLAS";"16";"HORTALEZA";"444516";"4479119";"40.46088946853693";"-3.654432812836867";"917 161 240";"";"";"/contenido/entidadesYorganismos/SalasEstudioLectura"; 
11187846;"Sala de estudio Centro Cultural San Juan Bautista (Ciudad Lineal)";"";"De lunes a viernes, de 9 a 21 horas. Julio y Semana San Isidro, de lunes a viernes, de 9 a 14 horas.";"Puestos de lectura: 10. Se trata de un aula que se utiliza cuando no hay talleres, durante julio, septiembre y Semana Santa. Zona wifi";"Metro: Avenida de la Paz (línea 4)  Bus: 53, 11, 79, 122";"";"1";"http://www.madrid.es/sites/v/index.jsp?vgnextchannel=bfa48ab43d6bb410VgnVCM100000171f5a0aRCRD&vgnextoid=e10cd76f718a2710VgnVCM1000001d4a900aRCRD";"SAN NEMESIO";"CALLE";"V";"4";"";"";"";"";"MADRID";"MADRID";"28043";"6";"SAN JUAN BAUTISTA";"15";"CIUDAD LINEAL";"444202";"4478162";"40.45224710166";"-3.658029027767765";"914 157 705";"";"";"/contenido/entidadesYorganismos/SalasEstudioLectura"; 
4812338;"Sala de estudio Centro Dotacional Integrado de Arganzuela";"";"De lunes a sábado, de 9 a 21 horas. Cerrado agosto y festivos.  Cerrado: 15 mayo, 6, 8, 24, 25, 26 y 31 diciembre, 1 y 6 enero.";"Puestos de lectura (aforo máximo): 152 personas. Zona wifi.";"Metro: Palos de la Frontera (línea 3)  Bus: 19, 247, 45, 47, 8, 86, 55, 6, E1, 59, 85  Cercanías RENFE: Delicias (líneas C1, C7, C10)  Bicimad: Estación 120 (calle Palos de la Frontera, 40)";"";"1";"http://www.madrid.es/sites/v/index.jsp?vgnextchannel=bfa48ab43d6bb410VgnVCM100000171f5a0aRCRD&vgnextoid=217024521f048110VgnVCM1000000b205a0aRCRD";"CANARIAS";"CALLE";"V";"17";"";"";"";"Ubicada en el Centro Dotacional Integrado Arganzuela";"MADRID";"MADRID";"28045";"6";"PALOS DE MOGUER";"2";"ARGANZUELA";"440979";"4472617";"40.40207279862862";"-3.6955325387824014";"915 063 610";"";"cdiarganzuela@madrid.es";"/contenido/entidadesYorganismos/SalasEstudioLectura"; 
4815363;"Sala de estudio Centro Juvenil El Sitio de mi Recreo (Villa de Vallecas)";"Edad de 14 a 30 años.";"Consultar telefonicamente";"";"Metro: Villa de Vallecas (línea 1) Bus: 58";"Puestos de lectura: 40";"0";"http://www.madrid.es/sites/v/index.jsp?vgnextchannel=bfa48ab43d6bb410VgnVCM100000171f5a0aRCRD&vgnextoid=af2192cfd9558110VgnVCM1000000b205a0aRCRD";"REAL DE ARGANDA";"CALLE";"V";"39";"";"";"";"";"MADRID";"MADRID";"28031";"2";"SANTA EUGENIA";"18";"VILLA DE VALLECAS";"447634";"4470066";"40.37953682427198";"-3.616901585603186";"913 052 448";"";"";"/contenido/entidadesYorganismos/SalasEstudioLectura"; 
11187831;"Sala de estudio Centro Sociocultural Ciudad Lineal (Ciudad Lineal)";"";"Lunes a viernes de 9 a 13:45 y de 14:15 a 20:30 horas. Julio: de lunes a viernes, de 9 a 13:30 horas.";"Puestos de lectura: 12 Zona wifi";"Bus: 110, 113, 210, 15, 28";"";"1";"http://www.madrid.es/sites/v/index.jsp?vgnextchannel=bfa48ab43d6bb410VgnVCM100000171f5a0aRCRD&vgnextoid=a179d76f718a2710VgnVCM1000001d4a900aRCRD";"POETA BLAS DE OTERO";"CALLE";"V";"81";"";"";"";"";"MADRID";"MADRID";"28017";"1";"VENTAS";"15";"CIUDAD LINEAL";"444717";"4474895";"40.42285715768873";"-3.651680076113881";"917 817 494";"";"";"/contenido/entidadesYorganismos/SalasEstudioLectura"; 
10510680;"Sala de estudio Centro Sociocultural El Greco (Latina)";"";"Horario de verano:    Cerrado del 1 al 25 de agosto.   Julio, agosto y septiembre, de 9 a 21 horas.   En horario de funcionamiento del centro:  Lunes a Viernes de 9 a 21:30 horas. Sábados de 9 a 13:30 horas.";"Puestos de lectura: 59. Zona WIFI.";"Metro de Madrid. Línea 6, estación Lucero y línea 10, estación Batán. Autobuses de la EMT. Líneas: 33, 36, 39 y 65.";"";"1";"http://www.madrid.es/sites/v/index.jsp?vgnextchannel=bfa48ab43d6bb410VgnVCM100000171f5a0aRCRD&vgnextoid=bbad79e15d7ee510VgnVCM2000001f4a900aRCRD";"EL GRECO";"CALLE";"V";"29";"";"";"";"";"MADRID";"MADRID";"28024";"7";"LAS AGUILAS";"10";"LATINA";"433786";"4470559";"40.382992678408066";"-3.7800773802118117";"914 793 261 / 914 793 150";"";"";"/contenido/entidadesYorganismos/SalasEstudioLectura"; 
4815051;"Sala de estudio Centro Sociocultural Moratalaz";"";"Lunes a viernes, de 9 a 13:50 y de 15:05 a 20:50 horas.  Sábados, de 10 a 13:50 y de 16 a 21:50 horas. Domingos, de 10 a 13:50 y de 16:30 a 20:20 horas. Festivos de 10 a 13:50 horas. Julio: lunes a viernes, de 9 a 13:50 y de 15:05 a 20:50 horas. Sábados, de 16 a 21:50 horas. Domingos y festivos, cerrado. Agosto:  lunes a viernes, de 9 a 13:50 y de 15:05 a 20:50 horas. Sábados, domingos y festivos, cerrado.";"Puestos de lectura: 80 (reducido 39) Zona wifi.";"Metro: Pavones (línea 9)  Bus: 142, 144, 8, 20, 32, 140";"";"1,5";"http://www.madrid.es/sites/v/index.jsp?vgnextchannel=bfa48ab43d6bb410VgnVCM100000171f5a0aRCRD&vgnextoid=32c2b51383558110VgnVCM1000000b205a0aRCRD";"FUENTE CARRANTONA";"CALLE";"V";"10";"";"";"";"";"MADRID";"MADRID";"28030";"1";"PAVONES";"14";"MORATALAZ";"445953";"4472221";"40.39883403330691";"-3.636898142855895";"915 880 459";"";"";"/contenido/entidadesYorganismos/SalasEstudioLectura"; 
8026323;"Sala de estudio Centro Sociocultural Siena (Ciudad Lineal)";"";"De 9 a 21 horas.";"Puestos de lectura: 24 Zona wifi";"Metro: Quintana (línea 5)  Bus: 21, 38";"";"0";"http://www.madrid.es/sites/v/index.jsp?vgnextchannel=bfa48ab43d6bb410VgnVCM100000171f5a0aRCRD&vgnextoid=e4e458caf0f1d410VgnVCM1000000b205a0aRCRD";"SIENA";"CALLE";"V";"52";"";"";"";"";"MADRID";"MADRID";"28027";"3";"QUINTANA";"15";"CIUDAD LINEAL";"444709";"4476040";"40.433168908505294";"-3.651871341017642";"914 039 011";"";"cscsiena@madrid.es";"/contenido/entidadesYorganismos/SalasEstudioLectura"; 
4814996;"Sala de estudio Centro Sociocultural Talleres de Creatividad (Puente de Vallecas)";"";"Jueves y viernes, de 13:30 a 17 horas.";"";"Metro: Nueva Numancia, Portazgo (línea 1)  Bus: 111, 24, 310";"Puestos de lectura: 22 Zona wifi.";"0";"http://www.madrid.es/sites/v/index.jsp?vgnextchannel=bfa48ab43d6bb410VgnVCM100000171f5a0aRCRD&vgnextoid=ada6f5fea2558110VgnVCM1000000b205a0aRCRD";"SIERRA CARBONERA";"CALLE";"V";"74";"";"";"";"";"MADRID";"MADRID";"28053";"2";"SAN DIEGO";"13";"PUENTE DE VALLECAS";"443532";"4471268";"40.39010138870244";"-3.6653235716960015";"917 570 189 / 917 570 240";"";"ctcepvallecas@madrid.es";"/contenido/entidadesYorganismos/SalasEstudioLectura"; 
5709413;"Sala de estudio Centro cultural El Torito (Moratalaz)";"";"Lunes a viernes, de 9 a 13:30 y de 15:30 a 21:30 horas. Sábados, de 9 a 13:30 y de 16:30 a 21:30.  Julio, de lunes a viernes, 9 a 13:30 y de 17 a 19:30 horas. Septiembre, de lunes a viernes de 9 a 13:30 y de 16:30 a 21:30 horas. Sábados de 10 a 13:30 y de 16:30 a 21:30. Agosto cerrado.";"";"Metro: Artilleros (línea 9)  Bus: 32";"Puestos de lectura: 21 Zona wifi";"1";"http://www.madrid.es/sites/v/index.jsp?vgnextchannel=bfa48ab43d6bb410VgnVCM100000171f5a0aRCRD&vgnextoid=3874efd1977f8210VgnVCM1000000b205a0aRCRD";"MORATALAZ";"AVENIDA";"V";"130";"";"";"";"";"MADRID";"MADRID";"28030";"6";"VINATEROS";"14";"MORATALAZ";"445141";"4473033";"40.40609591857167";"-3.646536107063507";"913 287 385";"";"";"/contenido/entidadesYorganismos/SalasEstudioLectura"; 
8000760;"Sala de estudio Centro cultural Lope de Vega (Puente de Vallecas)";"";"De 9 a 21:30 horas.";"Puestos de lectura: 44 Zona wifi";"Bus: 102, 24.  Cercanías Renfe: Asamblea de Madrid-Entrevías (línea C2).";"";"1";"http://www.madrid.es/sites/v/index.jsp?vgnextchannel=bfa48ab43d6bb410VgnVCM100000171f5a0aRCRD&vgnextoid=a190e189b66dc410VgnVCM2000000c205a0aRCRD";"CONCEJO DE TEVERGA";"CALLE";"V";"1";"";"";"";"";"MADRID";"MADRID";"28053";"1";"ENTREVIAS";"13";"PUENTE DE VALLECAS";"442974";"4470850";"40.386296991431074";"-3.671858416387963";"917 570 580";"";"cclopedevega@madrid.es";"/contenido/entidadesYorganismos/SalasEstudioLectura"; 
4816516;"Sala de estudio Centro cultural Quinta del Berro - Rafael Altamira (Salamanca)";"";"De 1 octubre a 30 junio: Lunes a viernes, de 9 a 21:30 horas. Sábado, de 9:30 a 21:30 horas. Domingo, de 10:30 a 20:30 horas. Septiembre: Lunes a domingo, de 10:30 a 19:30 horas.";"";"Bus: 15, 28, 71";"";"1";"http://www.madrid.es/sites/v/index.jsp?vgnextchannel=bfa48ab43d6bb410VgnVCM100000171f5a0aRCRD&vgnextoid=1947371b6e958110VgnVCM1000000b205a0aRCRD";"ENRIQUE D'ALMONTE";"CALLE";"V";"1";"";"";"";"ubicada en el Centro Cultural Quinta del Berro";"MADRID";"MADRID";"28028";"3";"FUENTE DEL BERRO";"4";"SALAMANCA";"443760";"4474815";"40.42206608753629";"-3.662956288628484";"";"";"";"/contenido/entidadesYorganismos/SalasEstudioLectura"; 
4814317;"Sala de estudio Centro sociocultural Cánovas del Castillo (Usera)";"";"De lunes a viernes de 9 a 14 y de 15 a 21:30 horas. Sábados de 9 a 14 horas.";"Puestos de lectura: 27 Zona wifi";"Metro: Almendrales (línea 3)  Bus: 6, 78, 23, 123";"";"1,4";"http://www.madrid.es/sites/v/index.jsp?vgnextchannel=bfa48ab43d6bb410VgnVCM100000171f5a0aRCRD&vgnextoid=b10c750b1c058110VgnVCM2000000c205a0aRCRD";"JULIO AGUIRRE";"CALLE";"V";"10";"";"";"";"y 12";"MADRID";"MADRID";"28026";"4";"ALMENDRALES";"12";"USERA";"440579";"4470866";"40.38627312379031";"-3.700074755609488";"915 005 489";"";"canovascastillocs@madrid.es";"/contenido/entidadesYorganismos/SalasEstudioLectura"; 
8071924;"Sala de estudio Ciudad Pegaso (San Blas - Canillejas)";"";"Lunes a domingo, de 9:30 a 14:30 y de 16:30 a 21:30 horas.";"Puestos de lectura: 50 Zona wifi";"Bus: 77";"Puestos de lectura: 50 Zona wifi";"1";"http://www.madrid.es/sites/v/index.jsp?vgnextchannel=bfa48ab43d6bb410VgnVCM100000171f5a0aRCRD&vgnextoid=df3576e159ead410VgnVCM1000000b205a0aRCRD";"SEPTIMA";"AVENIDA";"V";"11";"";"";"";"";"MADRID";"MADRID";"28022";"6";"REJAS";"20";"SAN BLAS-CANILLEJAS";"449281";"4477704";"40.44844757572015";"-3.598099871155595";"917 415 852";"";"cccpegaso@madrid.es";"/contenido/entidadesYorganismos/SalasEstudioLectura"; 
11875008;"Sala de estudio Corín Tellado  (Moncloa-Aravaca)";"";"De lunes a domingo, de 9 a 21 horas. Bibliored, de lunes a viernes, de 13:30 a 20 horas.";"Puestos de lectura: 50";"Bus: 41, 75";"Zona wifi";"1";"http://www.madrid.es/sites/v/index.jsp?vgnextchannel=bfa48ab43d6bb410VgnVCM100000171f5a0aRCRD&vgnextoid=97903bb468515810VgnVCM1000001d4a900aRCRD";"SANTA POLA";"CALLE";"V";"22";"";"";"";"";"MADRID";"MADRID";"28008";"1";"CASA DE CAMPO";"9";"MONCLOA-ARAVACA";"437516";"4475994";"40.432243310641894";"-3.7366613378902462";"915 487 772";"";"ccadiaz@madrid.es";"/contenido/entidadesYorganismos/SalasEstudioLectura"; 
4815414;"Sala de estudio El Madroño (Vicálvaro)";"";"Sábados, domingos y festivos de 9 a 14 y de 16 a 19:45 horas.  Cerrada los días festivos de Navidad y Reyes.";"Puestos de lectura: 30 Zona wifi";"Metro: Vicálvaro (línea 9)  Bus: 130, 100";"";"1";"http://www.madrid.es/sites/v/index.jsp?vgnextchannel=bfa48ab43d6bb410VgnVCM100000171f5a0aRCRD&vgnextoid=62c0c0e48a558110VgnVCM1000000b205a0aRCRD";"VILLARDONDIEGO";"CALLE";"V";"36";"";"";"";"";"MADRID";"MADRID";"28032";"1";"CASCO H.VICALVARO";"19";"VICALVARO";"448357";"4472920";"40.40529229274289";"-3.6086152959929514";"917 753 140";"";"ccelmadrono@madrid.es";"/contenido/entidadesYorganismos/SalasEstudioLectura"; 
5753713;"Sala de estudio Fernando Lázaro Carreter (Carabanchel)";"";"Lunes a viernes, de 9 a 21 horas. Sábados, de 10 a 13:30 y de 16:30 a 21 horas. Domingos, de 10:30 a 14:30 horas. Festivos y agosto cerrado.";"Puestos de lectura: 25 Zona wifi";"Bus: 116  Metro: Marqués de Vadillo (línea 5), Plaza Elíptica (línea 6 y 11)";"";"1";"http://www.madrid.es/sites/v/index.jsp?vgnextchannel=bfa48ab43d6bb410VgnVCM100000171f5a0aRCRD&vgnextoid=b0bb1c35f67a9210VgnVCM1000000b205a0aRCRD";"VERDAD";"CALLE";"V";"29";"";"";"";"";"MADRID";"MADRID";"28019";"2";"OPAÑEL";"11";"CARABANCHEL";"439136";"4471474";"40.39164343238081";"-3.717140510927299";"914 690 895";"";"";"/contenido/entidadesYorganismos/SalasEstudioLectura"; 
5753557;"Sala de estudio Fernando Vizcaíno Casas (Chamberí)";"";"Lunes a domingo, de 8:30 a 21:30 horas. Abierta todos los días, excepto 1 y 6 enero y 25 diciembre.";"Puestos de lectura: 170 Zona wifi";"Metro: Moncloa (líneas 3, 6) , Quevedo (línea 2)  Bus: 2, 16, 61  Bicimad: 127 (calle Fernando el Católico, 19)";"";"1";"http://www.madrid.es/sites/v/index.jsp?vgnextchannel=bfa48ab43d6bb410VgnVCM100000171f5a0aRCRD&vgnextoid=08a9964bd47a9210VgnVCM1000000b205a0aRCRD";"BLASCO DE GARAY";"CALLE";"V";"38";"";"";"";"";"MADRID";"MADRID";"28015";"2";"ARAPILES";"7";"CHAMBERI";"439652";"4476078";"40.43315623845001";"-3.7114971034427264";"913 094 237";"";"";"/contenido/entidadesYorganismos/SalasEstudioLectura"; 
6924985;"Sala de estudio Francisco José González Tejera (Hortaleza)";"";"Horario habitual: de lunes a domingos y festivos, de 9 a 22 horas.";"Puestos de lectura: 45 plazas. Wifi.";"Metro: Parque de Santa María (línea 4)  Bus: 107, 9";"";"1";"http://www.madrid.es/sites/v/index.jsp?vgnextchannel=bfa48ab43d6bb410VgnVCM100000171f5a0aRCRD&vgnextoid=dd6f094110a5e310VgnVCM1000000b205a0aRCRD";"SANTA VIRGILIA";"CALLE";"V";"15";"";"";"";"ubicada en el Centro Cultural Hortaleza";"MADRID";"MADRID";"28033";"4";"PINAR DEL REY";"16";"HORTALEZA";"445577";"4480884";"40.47685971480448";"-3.6420589279590887";"913 821 493";"";"";"/contenido/entidadesYorganismos/SalasEstudioLectura"; 
8071938;"Sala de estudio José Luis López Vázquez (San Blas - Canillejas)";"";"Lunes a domingo, de 9 a 13:30 y de 15 a 20:30 horas.";"Puestos de lectura: 152 Zona wifi";"Bus: 167, 77";"";"2";"http://www.madrid.es/sites/v/index.jsp?vgnextchannel=bfa48ab43d6bb410VgnVCM100000171f5a0aRCRD&vgnextoid=9db676e159ead410VgnVCM1000000b205a0aRCRD";"FEBRERO";"CALLE";"V";"4";"En la 2ª Planta del edificio";"";"";"";"MADRID";"MADRID";"28022";"6";"REJAS";"20";"SAN BLAS-CANILLEJAS";"451431";"4477510";"40.446826729909155";"-3.5727382893523254";"913 293 900";"";"ccjllopezvazquez@madrid.es";"/contenido/entidadesYorganismos/SalasEstudioLectura"; 
4813757;"Sala de estudio Julio Cortázar (Moncloa-Aravaca)";"";"De lunes a domingo de 9 a 21 horas.  Cerrada: 24 y 31 de enero por la tarde. 25 de diciembre, 1 y 6 de enero, sábado santo y 15 de agosto cerrada todo el día.";"";"Metro: Valdezarza (línea 7) y Antonio Machado (línea 7).  Bus: 127, 132, 126.";"Puestos de lectura: 125. Zona wifi.";"1";"http://www.madrid.es/sites/v/index.jsp?vgnextchannel=bfa48ab43d6bb410VgnVCM100000171f5a0aRCRD&vgnextoid=53918917a2058110VgnVCM2000000c205a0aRCRD";"ANTONIO MACHADO";"CALLE";"V";"20";"";"";"";"Ubicada en el Centro Cultural Julio Cortázar";"MADRID";"MADRID";"28035";"4";"VALDEZARZA";"9";"MONCLOA-ARAVACA";"438998";"4479816";"40.46678159096302";"-3.7195669111891703";"913 734 375";"";"";"/contenido/entidadesYorganismos/SalasEstudioLectura"; 
4815257;"Sala de estudio Los Rosales";"";"Consultar telefónicamente.";"Puestos de lectura: 32";"Bus: 85 Renfe: Villaverde Bajo";"";"1";"http://www.madrid.es/sites/v/index.jsp?vgnextchannel=bfa48ab43d6bb410VgnVCM100000171f5a0aRCRD&vgnextoid=1bcbc1e158558110VgnVCM1000000b205a0aRCRD";"LOS ROSALES";"AVENIDA";"V";"133";"";"";"";"";"MADRID";"MADRID";"28021";"3";"BUTARQUE";"17";"VILLAVERDE";"442592";"4467116";"40.35074797433515";"-3.6773064421969233";"917 109 273";"";"";"/contenido/entidadesYorganismos/SalasEstudioLectura"; 
6468021;"Sala de estudio Luis García Berlanga (Tetuán)";"";"De lunes a domingo, de 9 a 21 horas Festivos cerrado";"Puestos de lectura: 60 Zona wifi";"Metro: Valdeacederas (línea 1)  Bus: 49 , 66, 124";"";"1";"http://www.madrid.es/sites/v/index.jsp?vgnextchannel=bfa48ab43d6bb410VgnVCM100000171f5a0aRCRD&vgnextoid=f5abe23a26bd7310VgnVCM1000000b205a0aRCRD";"VI&amp;Ntilde;A VIRGEN";"CALLE";"V";"2";"";"";"";"";"MADRID";"MADRID";"28029";"4";"ALMENARA";"6";"TETUAN";"441159";"4479632";"40.4652835428932";"-3.694060048143814";"915 133 253";"";"";"/contenido/entidadesYorganismos/SalasEstudioLectura"; 
4812602;"Sala de estudio Luis Gonzaga (Chamartín)";"";"De lunes a domingo, 9 a 21:30 horas.  Cerrado: festivos y mes de agosto.   Fuera de este horario el centro permanecerá abierto durante la celebración de las actividades que se programen.";"Puestos de lectura: 98 (reducido 32) Zona wifi";"Metro: Cruz del Rayo (línea 9)  Bus: 29, 52, 1  Bicimad: Estación 146 (calle María Francisca, 1)";"";"1";"http://www.madrid.es/sites/v/index.jsp?vgnextchannel=bfa48ab43d6bb410VgnVCM100000171f5a0aRCRD&vgnextoid=e653d0a471148110VgnVCM1000000b205a0aRCRD";"PRINCIPE DE VERGARA";"CALLE";"V";"142";"";"";"";"ubicada en el Centro Sociocultural Luis Gonzaga";"MADRID";"MADRID";"28002";"3";"CIUDAD JARDIN";"5";"CHAMARTIN";"442496";"4477359";"40.44489723228663";"-3.6780972922453685";"915 886 596";"";"";"/contenido/entidadesYorganismos/SalasEstudioLectura"; 
4815260;"Sala de estudio Marconi";"";"Consultar telefónicamente.";"Puestos de lectura: 16";"Bus: 79";"";"0";"http://www.madrid.es/sites/v/index.jsp?vgnextchannel=bfa48ab43d6bb410VgnVCM100000171f5a0aRCRD&vgnextoid=fcffc1e158558110VgnVCM1000000b205a0aRCRD";"COLONIA MARCONI";"ACCESO";"V";"4";"";"";"";"";"MADRID";"MADRID";"28021";"";"SAN ANDRES";"";"VILLAVERDE";"440582";"4465356";"40.334751832113774";"-3.700809560921597";"917 100 232";"";"";"/contenido/entidadesYorganismos/SalasEstudioLectura"; 
5753637;"Sala de estudio Montecarmelo (Fuencarral - El Pardo)";"Aforo: 24 El acceso a los puestos se hará por riguroso orden de llegada. Transcurrido 30 minutos desde el abandono del puesto, de estudio, éste podrá ser ocupado por otra persona. Está prohibido comer, cambiarse de puesto o mover el mobiliario de la sala. Mantener la ventilación de la sala. Guardar silencio. Atender las indicaciones del personal del Centro Cultural. El incumplimiento de estas normas podrá suponer la denegación de la utilización de la sala.";"El horario de apertura:  De lunes a Viernes de 8:30 a 14:30 h. Y de 16 a 21 h  Sábados de 9 a 14:30 h. y de 16 a 20:45 h  Domingos y festivos de 10 a 14:30 h";"";"";"";"1";"http://www.madrid.es/sites/v/index.jsp?vgnextchannel=bfa48ab43d6bb410VgnVCM100000171f5a0aRCRD&vgnextoid=ae87964bd47a9210VgnVCM1000000b205a0aRCRD";"Santuario de Valverde.";"Avenida";"T";"114";"";"";"";"Carretera M-607 km 13-L10. Acceso a través del PAU Montecarmelo";"MADRID";"MADRID";"28049";"8";"EL GOLOSO";"8";"FUENCARRAL-EL PARDO";"441892";"4485296";"40.51635495615339";"-3.685946562681175";"917 364 151";"";"";"/contenido/entidadesYorganismos/SalasEstudioLectura"; 
10751094;"Sala de estudio Motilla del Palancar (Hortaleza)";"";"De lunes a domingos y festivos, de 9 a 22 horas.";"Puestos de lectura: 60 plazas. Wifi.";"Metro: Canillas (línea 4)  Bus: 73, 120";"";"0";"http://www.madrid.es/sites/v/index.jsp?vgnextchannel=bfa48ab43d6bb410VgnVCM100000171f5a0aRCRD&vgnextoid=f2114531d18a4610VgnVCM1000001d4a900aRCRD";"MOTILLA DEL PALANCAR";"CALLE";"V";"13";"local bajo";"";"";"posterior, con vuelta a calle Pedro Alonso";"MADRID";"MADRID";"28043";"3";"CANILLAS";"16";"HORTALEZA";"446308";"4479597";"40.46532067984838";"-3.633321598436636";"683 498 715";"";"";"/contenido/entidadesYorganismos/SalasEstudioLectura"; 
4814223;"Sala de estudio Oporto (Carabanchel)";"";"Lunes a sábado, de 8:30 a 21:30 horas. Domingos, de 10:30 a 14:30 horas. Festivos y agosto cerrado.";"Puestos de lectura: 20 Zona wifi.";"Metro: Oporto (líneas 5, 6) , Opañel (línea 6)  Bus: 55, 81, 108, 118, 81, 34, 35";"";"1";"http://www.madrid.es/sites/v/index.jsp?vgnextchannel=bfa48ab43d6bb410VgnVCM100000171f5a0aRCRD&vgnextoid=0295d1a2d9058110VgnVCM1000000b205a0aRCRD";"OPORTO";"AVENIDA";"V";"78";"";"";"";"";"MADRID";"MADRID";"28019";"2";"OPAÑEL";"11";"CARABANCHEL";"438232";"4470949";"40.38684744124125";"-3.727740326743959";"914 603 801";"";"";"/contenido/entidadesYorganismos/SalasEstudioLectura"; 
5753811;"Sala de estudio San Cristóbal";"";"Consultar telefónicamente.";"Puestos de lectura: 40";"Metro: Villaverde Alto (línea 3) Bus: 59, 79";"";"1";"http://www.madrid.es/sites/v/index.jsp?vgnextchannel=bfa48ab43d6bb410VgnVCM100000171f5a0aRCRD&vgnextoid=4ae90a3bb87a9210VgnVCM1000000b205a0aRCRD";"PINAZO";"PLAZA";"V";"9";"";"";"";"";"MADRID";"MADRID";"28021";"2";"SAN CRISTOBAL";"17";"VILLAVERDE";"441384";"4466229";"40.34267317099495";"-3.6914487380508842";"917 100 410";"";"";"/contenido/entidadesYorganismos/SalasEstudioLectura"; 
6478893;"Sala de estudio Sanchinarro (Hortaleza)";"";"Lunes a viernes, 9 a 22 horas. Sábados, domingos y festivos, de 10 a 22 horas.";"Puestos de lectura: 172 plazas. Wifi.";"Bus: 172, 172SF";"";"1";"http://www.madrid.es/sites/v/index.jsp?vgnextchannel=bfa48ab43d6bb410VgnVCM100000171f5a0aRCRD&vgnextoid=459b10e528908310VgnVCM1000000b205a0aRCRD";"PRINCESA DE EBOLI";"CALLE";"V";"29";"";"";"";"ubicada en el Centro Cultural Sanchinarro";"MADRID";"MADRID";"28050";"6";"VALDEFUENTES";"16";"HORTALEZA";"444469";"4482391";"40.49035310157377";"-3.655261744717257";"915 000 603";"";"";"/contenido/entidadesYorganismos/SalasEstudioLectura"; 
4815268;"Sala de estudio Santa Petronila";"";"Consultar telefónicamente.";"Puestos de lectura: 15";"Metro: Villaverde Bajo Cruce (línea 3)  Bus: 59, 79, 85 Renfe: Villaverde Bajo";"";"1";"http://www.madrid.es/sites/v/index.jsp?vgnextchannel=bfa48ab43d6bb410VgnVCM100000171f5a0aRCRD&vgnextoid=5b65c1e158558110VgnVCM1000000b205a0aRCRD";"MARIA MARTINEZ OVIOL";"CALLE";"V";"12";"";"";"";"";"MADRID";"MADRID";"28021";"4";"LOS ROSALES";"17";"VILLAVERDE";"441386";"4467139";"40.35087114162283";"-3.691508909255186";"917 109 710";"";"";"/contenido/entidadesYorganismos/SalasEstudioLectura"; 
11745306;"Sala de estudio Villa del Prado de Arganzuela";"";"De lunes a viernes, de 9 a 21 horas.  Sábados, domingos y festivos de 10 a 14 y de 16 a 20 horas.   Cerrado 24, 25 y 31 de diciembre y 1 de enero.";"Puestos de lectura (aforo máximo): 50 personas. Sala con mesa con 6 asientos para reuniones o grupos de trabajo.";"Metro: Delicias (línea 3).  Bus: 8, 102, 152.  Cercanías RENFE: Delicias (líneas C1 y C10).  Bicimad: Estaciones 118 (calle Juan Martín el Empecinado, 16), 119 (calle Méndez Álvaro, 11).";"";"1";"http://www.madrid.es/sites/v/index.jsp?vgnextchannel=bfa48ab43d6bb410VgnVCM100000171f5a0aRCRD&vgnextoid=c9825ecb8b782810VgnVCM1000001d4a900aRCRD";"VILLA DEL PRADO";"CALLE";"V";"27";"";"";"";"";"MADRID";"MADRID";"28045";"5";"DELICIAS";"2";"ARGANZUELA";"441737";"4472327";"40.39951850544056";"-3.6865740180088986";"";"";"";"/contenido/entidadesYorganismos/SalasEstudioLectura"; 
11681766;"Sala de estudio del Centro Cultural Galileo (Chamberí)";"";"Lunes a domingo, de 8 a 21 horas. Abierto todos los días, excepto 1 y 6 enero, 1 y 2 mayo, 15 agosto, 12 octubre y 25 diciembre.";"Puestos de lectura: 53";"Metro: Quevedo (línea 2)  Bus: 2, 16, 61  Bicimad: Estación 127 (calle Fernando el Católico, 19)";"";"1";"http://www.madrid.es/sites/v/index.jsp?vgnextchannel=bfa48ab43d6bb410VgnVCM100000171f5a0aRCRD&vgnextoid=15431d402a8a0810VgnVCM1000001d4a900aRCRD";"GALILEO";"CALLE";"V";"39";"";"";"";"";"MADRID";"MADRID";"28015";"2";"ARAPILES";"7";"CHAMBERI";"439741";"4476139";"40.43371190964793";"-3.7104543597957758";"915 913 901";"";"ccgalileo@madrid.es";"/contenido/entidadesYorganismos/SalasEstudioLectura"; 
10107814;"Sala de estudio y lectura Arquitecto Juan de Herrera (Latina)";"";"Horario de verano:    Cerrado del 1 al 25 de agosto.   Julio, agosto y septiembre, de 9 a 21 horas.   En horario de funcionamiento del centro:  Lunes a Viernes de 9 a 21:30 horas. Sábados de 9 a 13:30 horas.";"Puestos de lectura: 20. Zona WIFI.";"Metro de Madrid. Línea 6. Estación: Alto de Extremadura. Autobuses de la EMT. Líneas: 119 y 138.";"";"1";"http://www.madrid.es/sites/v/index.jsp?vgnextchannel=bfa48ab43d6bb410VgnVCM100000171f5a0aRCRD&vgnextoid=6a6c61366ded5510VgnVCM1000001d4a900aRCRD";"MARIA DEL CARMEN";"CALLE";"V";"65";"";"";"";"";"MADRID";"MADRID";"28011";"2";"PUERTA DEL ANGEL";"10";"LATINA";"437830";"4473132";"40.40647389284976";"-3.7327010920242043";"914 649 304";"";"";"/contenido/entidadesYorganismos/SalasEstudioLectura"; 
10107379;"Sala de estudio y lectura Cayetano Pando (Latina)";"";"Cerrada del 15 de julio al 15 de agosto.    Horario:   Lunes a Viernes de 8 a 22 horas.  Sábados de 9 a 14 horas.   Período extraordinario de apertura:  Del 28 de junio al 9 de julio (ambos inclusive), en el siguiente horario:  De lunes a viernes: de 8 a 22 horas.   Sábados y domingos: de 9 a 22 horas.";"Puestos de lectura: 40.  Período extraordinario de apertura:  Del 28 de junio al 9 de julio (ambos inclusive), en el siguiente horario:  De lunes a viernes: de 8 a 22 horas.   Sábados y domingos: de 9 a 22 horas.";"Metro de Madrid. Línea 6. Estaciones: Lucero y Laguna. Cercanías RENFE: Línea C 5. Estación: Laguna. Autobuses de la EMT: 31 y 138.";"";"1";"http://www.madrid.es/sites/v/index.jsp?vgnextchannel=bfa48ab43d6bb410VgnVCM100000171f5a0aRCRD&vgnextoid=f565aea7089d5510VgnVCM1000001d4a900aRCRD";"CAYETANO PANDO";"CALLE";"V";"8";"";"";"";"";"MADRID";"MADRID";"28047";"3";"LUCERO";"10";"LATINA";"436652";"4472734";"40.40281371620686";"-3.746531777787898";"915 264 475";"";"";"/contenido/entidadesYorganismos/SalasEstudioLectura"; 
10107362;"Sala de estudio y lectura Cebreros (Latina)";"";"Cerrada del 15 de julio al 15 de agosto.    Horario:   Lunes a Viernes de 8 a 22 horas.  Sábados de 9 a 14 horas.   Períodos extraordinarios de apertura:  Del 28 de junio al 9 de julio (ambos inclusive), en el siguiente horario:  De lunes a viernes: de 8 a 22 horas.   Sábados y domingos: de 9 a 22 horas.";"Puestos de lectura: 63.  Períodos extraordinarios de apertura:  Del 28 de junio al 9 de julio (ambos inclusive), en el siguiente horario:  De lunes a viernes: de 8 a 22 horas.   Sábados y domingos: de 9 a 22 horas.";"Metro de Madrid. Línea 6: estación Lucero. Y línea 10: estación Batán.  Autobuses de la EMT. Líneas: 36, 39, 65 y 138.";"";"0";"http://www.madrid.es/sites/v/index.jsp?vgnextchannel=bfa48ab43d6bb410VgnVCM100000171f5a0aRCRD&vgnextoid=7d52aea7089d5510VgnVCM1000001d4a900aRCRD";"CEBREROS";"CALLE";"V";"66";"";"";"";"";"MADRID";"MADRID";"28011";"3";"LUCERO";"10";"LATINA";"436490";"4472992";"40.40512065478807";"-3.748466414403756";"914 796 964";"";"";"/contenido/entidadesYorganismos/SalasEstudioLectura"; 
8041433;"Sala de estudio y lectura Centro Sociocultural Latina (Latina)";"";"Horario de verano:    Cerrado del 1 al 25 de agosto.   Julio, agosto y septiembre, de 9 a 21 horas.   En horario de funcionamiento del centro:  Lunes a Viernes de 9 a 21:30 horas. Sábados de 9 a 13:30 horas.";"Puestos de lectura: 44. Zona WIFI.";"Autobuses de la EMT. Línea 155. Cercanías RENFE: línea C 5. Estación: Maestra Justa Freire-Polideportivo Aluche (antigua estación de Fanjul).";"";"1";"http://www.madrid.es/sites/v/index.jsp?vgnextchannel=bfa48ab43d6bb410VgnVCM100000171f5a0aRCRD&vgnextoid=9a9e1f61dd74d410VgnVCM1000000b205a0aRCRD";"RODRIGO DE ARANA";"CALLE";"V";"50";"";"";"";"";"MADRID";"MADRID";"28044";"7";"LAS AGUILAS";"10";"LATINA";"434982";"4470177";"40.3796456555054";"-3.7659493469010017";"915 095 470";"";"";"/contenido/entidadesYorganismos/SalasEstudioLectura"; 
12103923;"Sala de estudio y lectura Centro Sociocultural Teresa de Calcuta (Barajas)";"";"Lunes a viernes, de 9:30 a 21:30 horas. Sábados, de 10 a 14 y de 16 a 21 horas. Domingos, de 10 a 14 y de 16 a 20 horas. Festivos cerrado.";"Puestos de lectura: 24 Zona wifi";"Metro: Alameda de Osuna (línea 5)  Bus: 112, 114, 115, 166, 151, 101";"";"1";"http://www.madrid.es/sites/v/index.jsp?vgnextchannel=bfa48ab43d6bb410VgnVCM100000171f5a0aRCRD&vgnextoid=986e63409e1ba810VgnVCM1000001d4a900aRCRD";"NAVIO";"PLAZA";"V";"4";"";"";"";"";"MADRID";"MADRID";"28042";"1";"ALAMEDA DE OSUNA";"21";"BARAJAS";"450174";"4478461";"40.455320740232835";"-3.5876301858469386";"913 295 920";"";"ccteresacalcuta@madrid.es";"/contenido/entidadesYorganismos/SalasEstudioLectura"; 
10107702;"Sala de estudio y lectura Escritor Pedro de Répide (Latina)";"";"Horario de verano:    Cerrado del 1 al 25 de agosto.   Julio, agosto y septiembre, de 9 a 21 horas.   En horario de funcionamiento del centro:  Lunes a Viernes de 9 a 21:30 horas. Sábados de 9 a 13:30 horas.";"Puestos de lectura: 16. Zona WIFI.";"Metro de Madrid. Línea 6. Estación: Alto de Extremadura. Autobuses de la EMT. Líneas: 119 y 138.";"";"1";"http://www.madrid.es/sites/v/index.jsp?vgnextchannel=bfa48ab43d6bb410VgnVCM100000171f5a0aRCRD&vgnextoid=5e0861366ded5510VgnVCM1000001d4a900aRCRD";"MARIA DEL CARMEN";"CALLE";"V";"65";"";"";"";"";"MADRID";"MADRID";"28011";"2";"PUERTA DEL ANGEL";"10";"LATINA";"437830";"4473132";"40.40647389284976";"-3.7327010920242043";"914 649 304";"";"";"/contenido/entidadesYorganismos/SalasEstudioLectura"; 
8041409;"Sala de estudio y lectura José Luis Sampedro (Latina)";"";"Horario de verano:    Cerrado del 1 al 25 de agosto.   Julio, agosto y septiembre, de 9 a 21 horas.   En horario de funcionamiento del centro:  Lunes a Viernes de 9 a 21:30 horas. Sábados de 9 a 13:30 horas.";"Puestos de lectura: 54. Zona WIFI.";"Metro de Madrid. Línea 6. Estaciones Laguna y Lucero. Autobuses de laEMT: línea 55. Cercanías RENFE: línea C 5. Estación: Laguna.";"";"1";"http://www.madrid.es/sites/v/index.jsp?vgnextchannel=bfa48ab43d6bb410VgnVCM100000171f5a0aRCRD&vgnextoid=a3e91f61dd74d410VgnVCM1000000b205a0aRCRD";"CASTROSERNA";"CALLE";"V";"4";"";"";"";"";"MADRID";"MADRID";"28047";"3";"LUCERO";"10";"LATINA";"436428";"4472623";"40.40179182285599";"-3.7491601722547996";"915 267 820 / 915 267 821";"";"";"/contenido/entidadesYorganismos/SalasEstudioLectura"; 
10107309;"Sala de estudio y lectura Maqueda (Latina)";"";"Cerrada del 15 de julio al 15 de agosto.    Horario:   Lunes a Viernes de 8 a 22 horas.  Sábados de 9 a 14 horas.   Período extraordinario de apertura:  Del 28 de junio al 9 de julio (ambos inclusive), en el siguiente horario:  De lunes a viernes: de 8 a 22 horas.   Sábados y domingos: de 9 a 22 horas.";"Puestos de lectura: 68.  Período extraordinario de apertura:  Del 28 de junio al 9 de julio (ambos inclusive), en el siguiente horario:  De lunes a viernes: de 8 a 22 horas.   Sábados y domingos: de 9 a 22 horas.";"Metro de Madrid. Línea 5: estaciones Campamento y Empalme.  Autobuses de la EMT: líneas 25 y 121.";"";"1";"http://www.madrid.es/sites/v/index.jsp?vgnextchannel=bfa48ab43d6bb410VgnVCM100000171f5a0aRCRD&vgnextoid=afacaea7089d5510VgnVCM1000001d4a900aRCRD";"MAQUEDA";"CALLE";"V";"5";"";"";"";"";"MADRID";"MADRID";"28024";"4";"ALUCHE";"10";"LATINA";"435108";"4471845";"40.39468264667264";"-3.7646257427725063";"917 110 369";"";"";"/contenido/entidadesYorganismos/SalasEstudioLectura"; 
8041448;"Sala de estudio y lectura Miguel Hernández (Latina)";"";"Horario de verano:    Cerrado del 1 al 25 de agosto.   Julio, agosto y septiembre, de 9 a 21 horas.   En horario de funcionamiento del centro:  Lunes a Viernes de 9 a 21:30 horas. Sábado de 9 a 13:30 horas.";"Puestos de lectura: 42.";"Autobuses de la EMT: líneas 34, 39, 117 y 139. Cercanías RENFE. Línea C 5. Estación: Las Aguilas.";"";"1";"http://www.madrid.es/sites/v/index.jsp?vgnextchannel=bfa48ab43d6bb410VgnVCM100000171f5a0aRCRD&vgnextoid=b3431f61dd74d410VgnVCM1000000b205a0aRCRD";"SERRADILLA";"CALLE";"V";"13";"";"";"";"";"MADRID";"MADRID";"28044";"7";"LAS AGUILAS";"10";"LATINA";"433622";"4470101";"40.378853797128336";"-3.7819616113032115";"917 066 300";"";"";"/contenido/entidadesYorganismos/SalasEstudioLectura"; 
10107172;"Sala de estudio y lectura Paseo de Extremadura (Latina)";"";"Cerrada del 15 de julio al 15 de agosto.    Horario:   Lunes a Viernes de 8 a 22 horas.  Sábados de 9 a 14 horas.   Período extraordinario de apertura:  Del 28 de junio al 9 de julio (ambos inclusive), en el siguiente horario:  De lunes a viernes: de 8 a 22 horas.   Sábados y domingos: de 9 a 22 horas.";"Puestos de lectura: 48.  Período extraordinario de apertura:  Del 28 de junio al 9 de julio (ambos inclusive), en el siguiente horario:  De lunes a viernes: de 8 a 22 horas.   Sábados y domingos: de 9 a 22 horas.";"Metro de Madrid. Línea 6. Estación: Alto de Extremadura.  Autobuses de la EMT. Líneas: 31, 33, 36, 39, 65.";"";"0";"http://www.madrid.es/sites/v/index.jsp?vgnextchannel=bfa48ab43d6bb410VgnVCM100000171f5a0aRCRD&vgnextoid=ae857f23530d5510VgnVCM2000001f4a900aRCRD";"EXTREMADURA";"PASEO";"V";"128";"";"";"";"";"MADRID";"MADRID";"28011";"2";"PUERTA DEL ANGEL";"10";"LATINA";"437569";"4473648";"40.411111789264716";"-3.7358157416157276";"914 634 249";"";"";"/contenido/entidadesYorganismos/SalasEstudioLectura"; 
8041514;"Sala de estudio y lectura Sara Montiel (Latina)";"";"Horario de verano:    Cerrado del 1 al 25 de agosto.   Julio, agosto y septiembre, de 9 a 21 horas.   En horario de funcionamiento del centro:  Lunes a Viernes de 9 a 21:30 horas. Sábados de 9 a 13:30 horas.";"Puestos de lectura: 54. Zona WIFI.";"Metro de Madrid. Líneas 10, Metro Ligero 2 y Metro Ligero 3. Estación: Colonia Jardín. Autobuses de la EMT. Líneas 65 y H.";"";"1";"http://www.madrid.es/sites/v/index.jsp?vgnextchannel=bfa48ab43d6bb410VgnVCM100000171f5a0aRCRD&vgnextoid=2cfd68daae74d410VgnVCM1000000b205a0aRCRD";"BOADILLA DEL MONTE";"CARRETERA";"V";"40";"";"";"";"";"MADRID";"MADRID";"28024";"5";"CAMPAMENTO";"10";"LATINA";"434937";"4472307";"40.398830008074896";"-3.7666969961921692";"915 120 890";"";"";"/contenido/entidadesYorganismos/SalasEstudioLectura"; 
7989332;"Sala de estudio y lectura del Centro Cultural Las Californias (Retiro)";"";"De lunes a viernes: 9 a 14 y de 16 a 22 horas. Sábados: de 10 a 14 y de 16 a 21 horas.  Domingos y festivos cerrado.";"Puestos de lectura: En días laborales 36 puestos de estudio y el sábado 55.";"Metro: Puente de Vallecas (línea 1) , Mendez Álvaro (línea 6)  Bus: 113, 148  Cercanías RENFE: Mendez Álvaro Estación Sur (líneas C1, C5, C7, C10, Regional)";"";"1,4";"http://www.madrid.es/sites/v/index.jsp?vgnextchannel=bfa48ab43d6bb410VgnVCM100000171f5a0aRCRD&vgnextoid=1626bbe4eb1cc410VgnVCM1000000b205a0aRCRD";"LUIS PEIDRO";"CALLE";"V";"2";"";"";"";"";"MADRID";"MADRID";"28007";"2";"ADELFAS";"3";"RETIRO";"442842";"4472042";"40.3970232448735";"-3.673525754770304";"915 016 942";"";"cclascalifornias@madrid.es";"/contenido/entidadesYorganismos/SalasEstudioLectura"; 
4815242;"Sala de estudio Ágata";"";"Consultar telefónicamente.";"Puestos de lectura: 25";"Bus: 22, 79, 86, 130, 131";"";"1";"http://www.madrid.es/sites/v/index.jsp?vgnextchannel=bfa48ab43d6bb410VgnVCM100000171f5a0aRCRD&vgnextoid=8a760c4d87558110VgnVCM1000000b205a0aRCRD";"DOCTOR MARTIN AREVALO";"CALLE";"V";"2";"";"";"";"";"MADRID";"MADRID";"28021";"";"SAN ANDRES";"";"VILLAVERDE";"439937";"4466650";"40.34636268334182";"-3.708524395897377";"917 109 300";"";"";"/contenido/entidadesYorganismos/SalasEstudioLectura"; 
12014804;"Sala de estudios Espacio Cultural Núñez de Balboa, 40 (Salamanca)";"";"Horario de atención al público:  De lunes a viernes de 7:45 a 20:45 horas. Sábados de 9:30 a 14 horas y de 16 a 20:45 horas. Domingos de 9:30 a 20:45 horas.  Julio, agosto y septiembre:  De lunes a viernes: horario de apertura al publico 7:45 a 20:45 horas. Sábados y domingos cerrado.";"Aforo salas de lectura 32 plazas.";"Metro: Velázquez (línea 4), Serrano (línea 4)  Bus: 1, 9, 19, 21, 51, 53, 74  Bicimad: Estación 87 (calle Ayala, 44)";"";"1";"http://www.madrid.es/sites/v/index.jsp?vgnextchannel=bfa48ab43d6bb410VgnVCM100000171f5a0aRCRD&vgnextoid=a2e4bc30bbd28810VgnVCM2000001f4a900aRCRD";"NUÑEZ DE BALBOA";"CALLE";"V";"40";"";"";"";"";"MADRID";"MADRID";"28001";"1";"RECOLETOS";"4";"SALAMANCA";"442103";"4475356";"40.426826159507435";"-3.6825349481985135";"";"";"";"/contenido/entidadesYorganismos/SalasEstudioLectura"; 
4815493;"Sala de lectura Pilares (Barajas)";"";"De lunes a viernes, de 8 a 14 y de 17:30 a 21 horas.";"Puestos de lectura: 72 Wifi";"Metro: Barajas (línea 8)  Bus: 101, 105, 115";"";"1";"http://www.madrid.es/sites/v/index.jsp?vgnextchannel=bfa48ab43d6bb410VgnVCM100000171f5a0aRCRD&vgnextoid=747e48136c558110VgnVCM1000000b205a0aRCRD";"LOS PILARES";"CALLE";"V";"3";"";"";"";"";"MADRID";"MADRID";"28042";"3";"CASCO H.BARAJAS";"21";"BARAJAS";"451023";"4480645";"40.47504564286";"-3.577805996745736";"915 888 103";"";"";"/contenido/entidadesYorganismos/SalasEstudioLectura"; 
11947734;"Sala de trabajo Centro Cultural Emilia Pardo Bazán";"";"Horario: de lunes a viernes, de 9 a 21 horas. Sábados, domingos y festivos, cerrado. Número de plazas: 45 Accesible para personas con movilidad reducida.";"";"Metro: Colón (línea 4), Serrano (línea 4)  Bus: 21, 53, 14, 150, 27, 45, 5, 37, C03, 119, 51, 74, 9  Bicimad: Estación 93 (calle Goya 1)  Aparcamiento: Colón (2), Plaza de Colón";"";"1";"http://www.madrid.es/sites/v/index.jsp?vgnextchannel=bfa48ab43d6bb410VgnVCM100000171f5a0aRCRD&vgnextoid=fa9a1901ba1a6810VgnVCM1000001d4a900aRCRD";"";"CALLE";"";"";"";"";"";"";"MADRID";"MADRID";"";"";"";"";"DISTRITO";"";"";"";"";"";"";"";"/contenido/entidadesYorganismos/SalasEstudioLectura"; 
5753771;"Salas de estudio Centro Cultural Pozo del tío Raimundo (Puente de Vallecas)";"";"De lunes a viernes, de 8:30 a 21:30 horas. Sábados, de 10 a 13:45 y de 16 a 19 horas. Domingos y festivos, de 10 a 13:45 horas.";"Puestos de lectura: 10 Zona wifi";"Bus: 102, 24  Cercanías Renfe: El Pozo (línea C2)";"";"1";"http://www.madrid.es/sites/v/index.jsp?vgnextchannel=bfa48ab43d6bb410VgnVCM100000171f5a0aRCRD&vgnextoid=9a831c35f67a9210VgnVCM1000000b205a0aRCRD";"GLORIETAS";"AVENIDA";"V";"19";"";"";"";"y 21. Entrada por la Plaza del Padre Llanos";"MADRID";"MADRID";"28053";"1";"ENTREVIAS";"13";"PUENTE DE VALLECAS";"443976";"4469457";"40.37381624358889";"-3.6599325731670977";"917 866 644";"";"ccptioraimundo@madrid.es";"/contenido/entidadesYorganismos/SalasEstudioLectura"; 
7988710;"Salas de estudio Centro cultural Mercado de Ibiza (Retiro)";"";"De lunes a viernes, de 9 a 14 y de 16:30 a 20:30 horas. Sábados de 9 a 14 horas. Domingos y festivos cerrado.";"Puestos de lectura: 33 y 25  Zona wifi";"Metro: Ibiza (línea 9)  Bus: 2, 15, 26, 61, 63, 215, C2, 20, 152, C1  Bicimad: Estación 181 (calle Ibiza 18)";"";"1";"http://www.madrid.es/sites/v/index.jsp?vgnextchannel=bfa48ab43d6bb410VgnVCM100000171f5a0aRCRD&vgnextoid=ddfec642771cc410VgnVCM1000000b205a0aRCRD";"IBIZA";"CALLE";"V";"8";"1ª";"";"";"";"MADRID";"MADRID";"28009";"4";"IBIZA";"3";"RETIRO";"442533";"4474392";"40.41817872037522";"-3.677376337125393";"915 572 601";"";"ccibiza@madrid.es";"/contenido/entidadesYorganismos/SalasEstudioLectura"; 
8071910;"Salas de estudio Miguel de Cervantes (San Blas - Canillejas)";"";"De lunes a viernes, de 10 a 21 horas. Sábados, domingos y festivos, de 10 a 14:30 y de 16:30 a 20 horas.";"Puestos de lectura: 56 y 70 (dos salas) Zona wifi";"Bus: 140, 48, 167, 28";"";"1";"http://www.madrid.es/sites/v/index.jsp?vgnextchannel=bfa48ab43d6bb410VgnVCM100000171f5a0aRCRD&vgnextoid=4ef476e159ead410VgnVCM1000000b205a0aRCRD";"ALIAGA";"CALLE";"V";"5";"";"";"";"";"MADRID";"MADRID";"28022";"7";"CANILLEJAS";"20";"SAN BLAS-CANILLEJAS";"448148";"4476402";"40.4366557020283";"-3.6113517282299217";"917 430 078";"";"ccmcervantes@madrid.es";"/contenido/entidadesYorganismos/SalasEstudioLectura"; 
4815389;"Salas de estudio Valdebernardo (Vicálvaro)";"";"Sábados, domingos y festivos de 9 a 13:45 y de 16 a 19:45 horas. Agosto cerrado.";"Dos salas de estudio. Puestos de lectura: 60. Zona wifi.";"Metro: Valdebernardo (línea 9)  Bus: 130, 71, 8";"";"1";"http://www.madrid.es/sites/v/index.jsp?vgnextchannel=bfa48ab43d6bb410VgnVCM100000171f5a0aRCRD&vgnextoid=1dc9c0e48a558110VgnVCM1000000b205a0aRCRD";"INDALECIO PRIETO";"BULEVAR";"V";"21";"";"";"";"";"MADRID";"MADRID";"28032";"2";"VALDEBERNARDO";"19";"VICALVARO";"447278";"4472321";"40.399832138328044";"-3.6212720265227873";"913 016 460 / 913 016 462";"";"ccvaldebernardo@madrid.es";"/contenido/entidadesYorganismos/SalasEstudioLectura"; 

