name,address1,address2,address3,borough_name,website,os_addressbase_uprn,borough_code,ward_2022_name,ward_2022_code,latitude,longitude,easting,northing
Matter ,Studio 1Unit 13,Elizabeth Industrial Estate,Juno Way,Lewisham,http://mttr.uk/,10093394512,E09000023,New Cross Gate,E05013728,51.48219844,-0.042894815,535993.8640999999,177731.65729999915
White Light Ltd,20 Merton Industrial Park,Jubilee Way,,Merton,https://www.whitelight.ltd.uk,48101205,E09000024,Abbey,E05013810,51.41079639,-0.186377363,526228.0378,169535.13910000026
Aldworth James & Bond,"Unit 305, 34-37, Parkside Business Estate",Rolt St,,Lewisham,https://aldworthjamesandbond.co.uk/contact,100022000186,E09000023,Deptford,E05013719,51.48263867,-0.035875438,536479.9172,177793.66999999993
Andrew Lim Clarkson,1 Dye House Lane,,,Newham,http://andrewlimclarkson.com/,6713918,E09000025,Stratford Olympic Park,E05013925,51.53428947,-0.018770269,537511.9671,183569.21550000086
Block 9 ,The Silver Building,60 Dock Road,,Newham,https://www.block9.com,10008985422,E09000025,Royal Victoria,E05013923,51.5042494,0.01873578,540205.3361999998,180299.92980000004
Diagon ,Chaucer House,12 Viking Way,Erith,Bexley,http://www.diagonltd.com,10094789586,E09000004,Belvedere,E05011218,51.49259016,0.16022355,550062.4883000003,179283.7935000006
Exib,Unit 1,Fourth Way,,Brent,http://www.exib.co.uk,202096971,E09000005,Wembley Park,E05013516,51.55916233,-0.270459745,519991.06790000014,185892.51300000027
Flints Theatrical Chandlers,Unit 9 Deptford Trading Estate,Blackhorse Road,,Lewisham,https://www.flints.co.uk/,100023282024,E09000023,Evelyn,E05013721,51.48388144,-0.038659768,536282.8937999997,177926.6785000004
Flux Metal,25 Hatcham Road,,,Southwark,http://fluxmetal.co.uk/,10013524422,E09000028,Old Kent Road,E05011109,51.48186015,-0.053366686,535267.7828000002,177674.64460000023
Francesca Zagari,32C  Aynhoe Road,,,Hammersmith and Fulham,http://www.coroflot.com/francescazagari,34026245,E09000013,Brook Green,E05013735,51.49578456,-0.215746179,523955.5278000003,178935.79820000008
Helix 3D Ltd,The Old Turbine Factory,138-140  Nathan Way,,Greenwich,https://helix3d.co.uk/,100023267008,E09000011,Plumstead & Glyndon,E05014087,51.49446801,0.101439427,545976.0114000002,179373.8345999997
Illusion Design & Construct,Unit 1A Elizabeth Industrial Estate,Juno Way,,Lewisham,http://illusiondc.co,100023569533,E09000023,New Cross Gate,E05013728,51.48219844,-0.042894815,535993.8640999999,177731.65729999915
Innersphere Ltd,25 Victoria Wharf,20 Palmers Road,,Tower Hamlets,,6357180,E09000030,Bow West,E05009320,51.52932032,-0.040441718,536023.8004999999,182976.19519999996
TAIT,"Unit 9, Falcon Park",Neasden Lane,,Brent,http://www.taittowers.com,202009207,E09000005,Dollis Hill,E05013500,51.55390806,-0.247288163,521611.2117999997,185346.41840000078
J.D. McDougall Ltd,4 McGrath Road,,,Newham,http://www.mcdougall.co.uk/,46255499,E09000025,Forest Gate South,E05013912,51.54601463,0.014122057,539757.2737999996,184935.36620000005
James Glancy Design,16-28 Penarth Street,,,Southwark,https://www.jamesglancydesign.com/,10096038264,E09000028,Old Kent Road,E05011109,51.48281328,-0.053354899,535265.7818999998,177780.65350000001
Kemp London ,32 Shackwell Lane,,,Hackney,http://www.kemplondon.com/,100023015578,E09000012,Dalston,E05009370,51.55035077,-0.071029366,533840.5886000004,185258.44140000083
London Atelier,Studio 7,160 Barlby Road,,Kensington and Chelsea,http://www.londonatelier.com/,217120729,E09000020,Dalgarno,E05009394,51.52308058,-0.215594042,523892.0406999998,181971.43249999918
Manktelow Limited,"Unit 7, 1a Saxon Road",,,Haringey,http://www.manktelow.co.uk,100023177379,E09000014,White Hart Lane,E05013604,51.60039219,-0.095337191,532010.4891999997,190778.9941000007
Meta Props,Unit 20 Kingsgate Workshops,110 Kingsgate Road,,Camden,http://www.metaprops.co.uk/,5087816,E09000007,Kilburn,E05013665,51.54384676,-0.195245893,525246.6178000001,184315.29580000043
Metro production Group (MPG),6 Camberwell New Road,,,Lambeth,http://www.metrobroadcast.com,10090201545,E09000022,Myatt's Fields,E05014107,51.47997493,-0.107964056,531482.3344999999,177365.5957999993
Other Fabrications Limited,Unit 10 Buzzard Creek Industrial Estate ,River Road,,Barking and Dagenham,http://otherfabrications.com,100047851,E09000002,Barking Riverside,E05014055,51.51554119,0.104917628,546150.0573000005,181724.0610000007
Parallel Notion Limited,5 Chestnut Road,,,Kingston upon Thames,http://www.parallelnotion.co.uk,48014629,E09000021,Canbury Gardens,E05013930,51.41766214,-0.300762089,518255.88329999987,170107.95830000006
Pendragon ,1-3  Yorkton Street,,,Hackney,http://www.pendragonframes.com,100022991141,E09000012,Haggerston,E05009375,51.53127138,-0.067510223,534140.6003,183143.19700000063
RDW Scenery ,Unit A Genesis Business Park,Rainsford Road,,Brent,https://www.scenery-construction.com/,202191752,E09000005,Stonebridge,E05013510,51.53317767,-0.276376544,519649.0360000003,182993.2368999999
Rigging Services,3 Mills Studios,Three Mill Lane,,Newham,https://riggingservices.co.uk,10009018097,E09000025,Stratford,E05013924,51.52633408,-0.004683048,538513.0877,182711.10649999976
S2 Events,141-143  Nathan Way,,,Greenwich,http://s2events.co.uk,100023267003,E09000011,West Thamesmead,E05014091,51.49559596,0.101231958,545958.0073999995,179498.85060000047
Scenic Sets,Stadium Business Center ,Unit 45 North End Road,,Brent,http://www.scenicsets.com,202001588,E09000005,Wembley Park,E05013516,51.56019152,-0.270117696,520012.06850000005,186007.52569999918
Scenic Souvenir Studios ,Unit 8,12 Verney Road,,Southwark,http://www.souvenir.co.uk,200003404927,E09000028,Old Kent Road,E05011109,51.48467414,-0.061837671,534671.3320000004,177971.94459999911
Setbuild Limited,Unit 4D Triumph Trading Estate,Tariff Road,,Haringey,http://www.setbuilduk.com,100023163967,E09000014,Northumberland Park,E05013596,51.6062537,-0.057885594,534586.8158999998,191499.14760000072
Sets Appeal Limited,New River Studios,199 Eade Road,,Hackney,http://www.setsappeal.co.uk/about/,10022945372,E09000012,Woodberry Down,E05009387,51.57444685,-0.086549795,532694.5247999998,187909.6780999992
Setsquare Staging,3-9 Willow Lane,,,Merton,http://www.setsquarestaging.com,48117019,E09000024,Cricket Green,E05013813,51.39246427,-0.160929414,528048.8591,167540.69180000015
Setwo Ltd,Unit 48  T Marchant Trading Estate, Verney Road,,Southwark,https://www.setwo.co.uk/,10000813689,E09000028,Old Kent Road,E05011109,51.48441856,-0.056873345,535016.7523999996,177952.66599999927
Simon Morris Associates Limited (SMA),Ravensquay Business Centre  Cray Avenue,,,Bromley,http://www.madesignstudios.com,100023631486,E09000006,St Mary Cray,E05014006,51.38806247,0.110345208,546935.1458,167559.48640000075
Stockyard Backdrops,Unit A Genesis Business Park,Rainsford Road,,Brent,https://www.prophire-backdrophire.com,202191752,E09000005,Stonebridge,E05013510,51.53317767,-0.276376544,519649.0360000003,182993.2368999999
Studio Meno Ltd,Napier Works,Napier Road,,Newham,https://www.studiomeno.com,10008994852,E09000025,Wall End,E05013926,51.53024383,0.063548175,543233.7198999999,183277.24010000005
The Holmes Wood Consultancy Limited,1 Monkwell Square,,,City of London,http://www.holmes-wood.com,200000070781,E09000001,Bassishaw,E05009290,51.51767422,-0.092970856,532414.1550000003,181584.7860000003
The Media Services,Unit 15 Deptford Trading Estate, Blackhorse Road,,Lewisham,http://themediaservicescompany.com,100023282055,E09000023,Evelyn,E05013721,51.4843782,-0.036636164,536421.9083000002,177985.6860000007
Trinity HQ,"Unit A, Barton Buildings",Arundel Road,Uxbridge Industria,Hillingdon,https://trinityset.co.uk,10009948118,E09000017,Uxbridge,E05013580,51.53591265,-0.489979319,504827.8304000003,182970.01139999926
Visual Impact Creative Limited,St John’s Foundry,12 St John’s Road,Hampton Wick,Richmond upon Thames,http://www.visual-impact.co.uk,10070721240,E09000027,Hampton Wick & South Teddington,E05013780,51.41207787,-0.310763104,517574.8225999996,169470.87710000016
The Whitewall Company,The Old Cannon Factory,10A Europa Estate Fraser Road,,Bexley,http://thewhitewall.co.uk,100023523207,E09000004,Erith,E05011225,51.48254702,0.172223312,550928.6595999999,178191.69150000066
Absolute Motion Control Ltd,78-82 Brandon Street,,,Southwark,http://absolutemotioncontrol.com,200003422535,E09000028,North Walworth,E05011107,51.49028886,-0.091761705,532577.4698000001,178541.70940000005
Adam Dawe Design Limited,33 St Charles Square,,,Kensington and Chelsea,http://www.adamdawedesign.co.uk,217080087,E09000020,St. Helen's,E05009404,51.51942594,-0.212631056,524107.5187999997,181570.04439999908
Footprint Scenery,"Unit 28, Astbury Business Park",Station Passage,,Southwark,http://footprintscenery.co.uk,200003496057,E09000028,Nunhead & Queen's Road,E05011108,51.47455696,-0.054973828,535177.7769999998,176859.56939999945
Diagon,12 Viking Way,Erith,,Bexley,http://www.diagonltd.com,10011847610,E09000004,Erith,E05011225,51.491845,0.16752912,550572.0735999998,179215.92320000008
Illusion Design & Construct,Unit 8A Fisher's Way,Belvedere,,Bexley,N/A,10094789120,E09000004,Belvedere,E05011218,51.500702,0.1661051,550444.0278000003,180197.85029999912
Other Fabrications Ltd,"Studio 5, 19 Warburton Road",London,,Hackney,https://otherfabrications.com/,No UPRN,E09000012,London Fields,E05009381,51.53839,-0.05779,534793.7375999996,183952.69730000012
Pendragon Fine Art Frames Ltd,Unit 10 Rangemoor Industrial Estate,Rangemoor Road,Seven Sisters,Haringey,1.00023E+11,No UPRN,E09000014,South Tottenham,E05013599,51.5821,-0.06882,533900.6158999996,188793.0672999993
Metro production Group (MPG),"Rose Court, 2 Southwark Bridge Road",,,Southwark,https://www.metroproductiongroup.com/,200003495681,E09000028,Borough & Bankside,E05011095,51.507433,-0.095271087,532284.2221999997,180441.80010000058
Scenic Souvenir Studios ,"Unit 60, T Marchant Estate",46-72 Verney Road,,Southwark,https://www.souvenir.co.uk/,No UPRN,E09000028,Old Kent Road,E05011109,51.48576,-0.05959,534824.182,178096.82760000043
Footprint Scenery,"Unit 9, Klinger Industrial Park",10 Edgington Way,Sidcup,Bromley,http://footprintscenery.co.uk,No UPRN,E09000006,St Paul's Cray,E05014007,51.41348,0.1242,547817.2039999999,170413.76479999907
Keam George Agency,"Unit 125, Westbourne Studios",242 Acklam Rd,,Kensington and Chelsea,https://www.kgagency.co.uk/,See notes,E09000020,Golborne,E05009396,51.52143,-0.20312,524761.8885000004,181809.0583999995
Made CNC,"Unit 12, Leyton Studios",15 Argall Ave,,Waltham Forest,www.madecnc.co.uk,10024421357,E09000031,Lea Bridge,E05013895,51.570217,-0.041117679,535855.1645999998,187522.71859999932
Firecracker Works,The Old Aircraft Hangar,Wimbledon West Goods Yard,Dundonald Rd,Merton,https://www.firecrackerworks.co.uk/,No UPRN,E09000024,Wimbledon Town & Dundonald,E05013829,51.41862,-0.20922,524618.2719,170366.07799999975
Supersets Ltd,The Depot,Thomas Lane,,Lewisham,https://supersets.co.uk/,200000557764,E09000023,Rushey Green,E05013730,51.445521,-0.022613199,537512.2103000004,173691.02580000088
Scott Fleary Productions,"Units 1-4, Block A, Vale Industrial Park",170 Rowan Road,,Merton,https://www.scottfleary.com/,48117792,E09000024,Longthornton,E05013818,51.409765,-0.14123467,529370.1997999996,169499.05269999988
Scruffy Dog Creative Group,"Unit 5, Bow Enterprise Park",Fittleton Gardens,,Tower Hamlets,www.scruffydogltd.com,No UPRN,E09000030,Bromley South,E05009322,51.52078,-0.01685,537685.8744999999,182070.54900000058
Standbuilder,11-15A Lyon Road,London,,Merton,http://standbuilder.co.uk/en/,48046262,E09000024,Abbey,E05013810,51.412247,-0.18604332,526247.2756000003,169697.0225000009
Cloud and Horse ,Unit 1 Delta Wharf,271-287 Tunnel Avenue,,Greenwich,https://www.cloudandhorse.co.uk/,100023647477,E09000011,Greenwich Peninsula,E05014082,51.49942,0.000379869,538946.1486999998,179727.92149999924
Cutting Edge,"Unit 1, Beeby Road",,,Newham,http://cuttingedge.uk.net/,10008984020,E09000025,Custom House,E05013908,51.517041,0.024199117,540545.1095000003,181732.80670000054
Little Parrot Set Construction ,12 Imperial Way,,,Croydon,https://littleparrot.co.uk/,100022917778,E09000008,Waddon,E05011487,51.358903,-0.11988179,531000.2340000002,163881.01960000023
The London Display Co Ltd,20 St Thomas St,,,Southwark,https://www.thelondondisplay.com/,No UPRN,E09000028,London Bridge & West Bermondsey,E05011104,51.50474,-0.08847,532764.0005000001,180154.64140000008
Skyline Whitespace Exhibition Stands and Events,320 Western Road,,,Merton,https://www.skylinewhitespace.com/,48085938,E09000024,Lavender Fields,E05013817,51.412638,-0.17647933,526911.2591000004,169757.00119999982
Croga Studio,373 Kennington Rd,,,Lambeth,https://www.crogastudiobuilds.com/,10000445110,E09000022,Kennington,E05014105,51.486524,-0.11079108,531267.2571,178088.79319999926
DRS Construction,65 NORTH ACTON ROAD,,,Ealing,http://www.drsconstruction.co.uk/,12183422,E09000009,North Acton,E05013527,51.530534,-0.25961729,520818.38989999983,182726.75520000048
Freeform,154 Dukes Road ,London,,Ealing,https://freeform-design.com/,12096644,E09000009,North Acton,E05013527,51.525439,-0.28306401,519205.42009999976,182121.76669999957
Shape Design & Build Ltd,Sun Studios,30 Warple Way,,Ealing,https://www.shapedesignbuild.com/,12149827,E09000009,Southfield,E05013540,51.504944,-0.2561256,521128.4115000004,179886.83139999956
Big Sky London,29-31 Brewery Road,,,Islington,https://www.bigskylondon.com/,5300011667,E09000019,Caledonian,E05013700,51.544628,-0.1227353,530272.2088000001,184528.67989999987
Set Surfaces ,"Unit 37, Townmead Business Centre",William Morris Way,,Hammersmith and Fulham,https://setsurfaces.co.uk,34116523,E09000013,Sands End,E05013747,51.468443,-0.18552883,526128.3080000002,175946.9079
Metropolis Construction (/Flash Film Transport),Uxbridge Industrial Estate,54 Wallingford Road,Uxbridge,Hillingdon,https://www.flashfilmtransport.com/set-construction,No UPRN,E09000017,Uxbridge,E05013580,51.53591,-0.48859,504924.19070000015,182971.7061999999
Rule One Productions,"Unit 4, Enterprise Park",10 Argall Way,,Waltham Forest,https://www.ruleoneproductions.com/,100022958549,E09000031,Lea Bridge,E05013895,51.567974,-0.035485584,536252.1338999998,187283.7536999993
Silver Building (Projekt),"60 Dock road, London E16 1YZ",,,Newham,http://thesilverbuilding.com,10008985422,E09000025,Royal Victoria,E05013923,51.504762,0.017112899,540091.1370999999,180353.8239999991
Bloomsbury Studio,"15 Gordon street, London WC1H 0AH",,,Camden,https://www.ucl.ac.uk/culture/bloomsbury-theatre-studio,5007085,E09000007,Bloomsbury,E05013653,51.525068,-0.13278042,529631.2384000001,182335.76479999907
Craft Central,397-411 Westferry Road London E14 3AE,,,Tower Hamlets,https://www.craftcentral.org.uk,6653025,E09000030,Island Gardens,E05009324,51.48879,-0.01918591,537620.1694999998,178508.9308000002
